name,address,street,postal_code,city,canton,phone,professions,official_website,google_search_url,type,url,Zuweisung,Triggered_Keywords
Airport Medical Center,"Prime Center 1, 8060 Zürich",Prime Center 1,8060,Zürich,Zürich,043 816 60 00,"Allgemeine Innere Medizin, COVID-19 Test, Gynäkologie und Geburtshilfe, Die Pille danach, Gynäkologischer Notfall | Notfall Frauenarzt, Reiseberatung, Schwangerschaftsultraschall, Verhütung, Verkehrsmedizinische Kontrolluntersuchung STUFE 2, Vorsorgeuntersuchung Humane Papillomaviren (HPV) | PAP Abstrich, Wechseljahre | Menopause",https://www.airportmedicalcenter.ch/home-en.html,https://www.google.ch/search?q=Airport+Medical+Center+Zürich,Gruppenpraxis,https://www.onedoc.ch/de/medizinisches-zentrum/zurich/erbe/airport-medical-center,0,
Ärztehaus Stadtrain,"Frauenfelderstrasse 124, 8404 Winterthur",Frauenfelderstrasse 124,8404,Winterthur,Zürich,052 242 88 88,"Allgemeine Innere Medizin, Hausarztmedizin (Allgemeinmedizin)",https://www.aerztehaus-stadtrain.ch/,https://www.google.ch/search?q=Ärztehaus+Stadtrain+Winterthur,Gruppenpraxis,https://www.onedoc.ch/de/medizinisches-zentrum/winterthur/ewra/arztehaus-stadtrain,0,
Ärzteteam Unterwetzikon,"Rapperswilerstrasse 19, 8620 Wetzikon",Rapperswilerstrasse 19,8620,Wetzikon,Zürich,044 932 30 30,Allgemeine Innere Medizin,https://www.aerzteteam-unterwetzikon.ch/,https://www.google.ch/search?q=Ärzteteam+Unterwetzikon+Wetzikon,Gruppenpraxis,https://www.onedoc.ch/de/medizinisches-zentrum/wetzikon/ewu0/arzteteam-unterwetzikon,0,
Ärztezentrum Rafz,"Sonnefäld 22, 8197 Rafz",Sonnefäld 22,8197,Rafz,Zürich,044 886 80 00,"Allgemeine Innere Medizin, Hausarztmedizin (Allgemeinmedizin)",,https://www.google.ch/search?q=Ärztezentrum+Rafz+Rafz,Gruppenpraxis,https://www.onedoc.ch/de/medizinisches-zentrum/rafz/ewie/arztezentrum-rafz,0,
Ärztezentrum Dreispitz,"Lindauerstrasse 15, 8317 Tagelswangen",Lindauerstrasse 15,8317,Tagelswangen,Zürich,052 355 18 88,"Allgemeine Innere Medizin, Hausarztmedizin (Allgemeinmedizin), Pädiatrie",https://www.az-tagelswangen.ch/,https://www.google.ch/search?q=Ärztezentrum+Dreispitz+Tagelswangen,Gruppenpraxis,https://www.onedoc.ch/de/medizinisches-zentrum/tagelswangen/ew1w/arztezentrum-dreispitz,0,
Ärztezentrum Sihlcity,"Kalanderplatz 1, 8045 Zürich",Kalanderplatz 1,8045,Zürich,Zürich,044 508 00 10,"Allgemeine Innere Medizin, Augenheilkunde, Dermatologie und Venerologie, Gynäkologie und Geburtshilfe, HNO (Hals-, Nasen-, Ohrenheilkunde), Kardiologie, Akne, Altersbedingte Makuladegeneration | AMD, Audiogramm, Augencheck | Untersuchung der Sehkraft | Visustest, Brille, Endometriose, Ergometrie | Belastungstest | Leistungstest, Gesichtsfeld, Glaukom | Grüner Star, Hautcheck, Holter EKG | Langzeit-EKG, Hörtest | Audiometrie, Impfberatung, Katarakt | Grauer Star, Langzeit-Blutdruck | 24h Blutdruckmessung, Muttermalkontrolle, Professionelle Gehörgangreinigung | Ohrenspülen | Cerumenentfernung, Reiseberatung, Schnarchen, Schwangerschaftsvorsorge | Schwangerschaftsuntersuchung, Verhütung, Vorsorgeuntersuchung Humane Papillomaviren (HPV) | PAP Abstrich, Vorsorgeuntersuchung | Check up, Wechseljahre | Menopause",https://www.aerztezentrum-sihlcity.ch/,https://www.google.ch/search?q=Ärztezentrum+Sihlcity+Zürich,Gruppenpraxis,https://www.onedoc.ch/de/medizinisches-zentrum/zurich/em19/arztezentrum-sihlcity,0,
Ärztezentrum Männedorf,"Bahngasse 5, 8708 Männedorf",Bahngasse 5,8708,Männedorf,Zürich,044 920 44 14,Allgemeine Innere Medizin,https://www.az-maennedorf.ch/,https://www.google.ch/search?q=Ärztezentrum+Männedorf+Männedorf,Gruppenpraxis,https://www.onedoc.ch/de/medizinisches-zentrum/mannedorf/ewov/arztezentrum-mannedorf,0,
Arzthaus Zürich Löwenplatz,"Schweizergasse 14, 8001 Zürich",Schweizergasse 14,8001,Zürich,Zürich,044 800 39 00,"Gynäkologie und Geburtshilfe, Psychiatrie, Psychosomatische und psychosoziale Medizin, Psychotherapie, 4D Schwangerschaftsultraschall, Angststörung, Aufmerksamkeitsdefizit | Hyperaktivitätsstörung | ADHS, Autismus, Beckenbodenrehabilitation | Postpartale Rehabilitation | Urogenitale Rehabilitation, Brustkrebs | Mammakarzinom, Burnout, EMDR, Essstörungen, Gynäkologischer Notfall | Notfall Frauenarzt, Harnwegsinfektion | Zystitis | Blasenentzündung, Humane Papillomaviren Impfung (HPV) | Gebärmutterhalskrebsimpfung, Kognitives Gutachten | Kognitive Untersuchung | Kognitiver Fähigkeitstest, Kolposkopie | Scheidenspiegelung, Libidostörung | Libidoverlust | Sexuelle Funktionsstörung | Hyposexualität | Sexuelle Inappetenz, Psychologische Begleitung bei Burnout, Schwangerschaftsultraschall, Schwangerschaftsvorsorge | Schwangerschaftsuntersuchung, Unterstützung bei der beruflichen Entwicklung | Berufliche Eingliederung, Verhütung, Vorsorgeuntersuchung Humane Papillomaviren (HPV) | PAP Abstrich",https://www.arzthaus.ch/kontakt/zuerich-loewenplatz/,https://www.google.ch/search?q=Arzthaus+Zürich+Löwenplatz+Zürich,Gruppenpraxis,https://www.onedoc.ch/de/medizinisches-zentrum/zurich/ebalj/arzthaus-zurich-lowenplatz,1,für ärzte
Ärztezentrum Stäfa,"Häldelistrasse 9, 8712 Stäfa",Häldelistrasse 9,8712,Stäfa,Zürich,044 927 11 11,"Allgemeine Innere Medizin, Hausarztmedizin (Allgemeinmedizin), Kardiologie",https://www.aerztezentrum-staefa.ch/,https://www.google.ch/search?q=Ärztezentrum+Stäfa+Stäfa,Gruppenpraxis,https://www.onedoc.ch/de/medizinisches-zentrum/stafa/ew5r/arztezentrum-stafa,0,
Arzthaus Zürich City,"Lintheschergasse 3, 8001 Zürich",Lintheschergasse 3,8001,Zürich,Zürich,044 800 39 00,"Chirurgie, Dermatologie und Venerologie, Endokrinologie und Diabetologie, Flugmedizin, Gastroenterologie, Hausarztmedizin (Allgemeinmedizin), Impfung, Kardiologie, Neurologie, Orthopädie, Orthopädische Chirurgie, Schmerztherapie, Ästhetische Medizin, Allergie | AllergoTest | Allergieabklärung, Aneurysma, Arbeitsmedizinische Vorsorgeuntersuchung, Arrhythmie, Arterielle Hypertonie, Arteriitis | Entzündung der Arterien, Arteriosklerose | Atherosklerose | Arterienverkalkung, Behandlung von Pigmentflecken, Dermatologischer Notfall | Notfall Hautarzt, Desensibilisierung | Hyposensibilisierung, Echokardiografie | Herzultraschall, Ekzem, Elektromyographie (EMG), Endoskopie, Ergometrie | Belastungstest | Leistungstest, Gürtelrose (Herpes Zoster) Impfung, Hausärztlicher Notfall, Hautcheck, Hepatitis A/B Impfung, Herz-Kreislauf-Prävention | CardioCheck, Holter EKG | Langzeit-EKG, Humane Papillomaviren Impfung (HPV) | Gebärmutterhalskrebsimpfung, Impfberatung, Koloskopie | Darmspiegelung, Langzeit-Blutdruck | 24h Blutdruckmessung, Melanom, Microneedling, Schlaganfall | Zerebrovaskulärer Insult, Screening auf Kolorektalkrebs | Darmkrebs, Verkehrsmedizinische Kontrolluntersuchung STUFE 1, Verstopfung",https://www.arzthaus.ch/en/kontakt/zurich-city/,https://www.google.ch/search?q=Arzthaus+Zürich+City+Zürich,Gruppenpraxis,https://www.onedoc.ch/de/medizinisches-zentrum/zurich/eqxr/arzthaus-zurich-city,0,
Ärztehaus Tannenhof - Hausarztpraxis,"Florastrasse 16, 8632 Tann",Florastrasse 16,8632,Tann,Zürich,055 555 30 00,"Allgemeine Innere Medizin, Kinder- und Jugendpsychiatrie",https://www.tannenhofpraxis.ch/,https://www.google.ch/search?q=Ärztehaus+Tannenhof+-+Hausarztpraxis+Tann,Gruppenpraxis,https://www.onedoc.ch/de/medizinisches-zentrum/tann/ewmb/arztehaus-tannenhof-hausarztpraxis,0,
Arzthaus Zürich Enge,"Bederstrasse 4, 8002 Zürich",Bederstrasse 4,8002,Zürich,Zürich,044 800 30 20,"Gynäkologie und Geburtshilfe, Hausarztmedizin (Allgemeinmedizin), Kardiologie, Orthopädie, Orthopädische Chirurgie, 4D Schwangerschaftsultraschall, Aneurysma, Arbeitsmedizinische Vorsorgeuntersuchung, Arrhythmie, Arterielle Hypertonie, Arteriitis | Entzündung der Arterien, Arteriosklerose | Atherosklerose | Arterienverkalkung, Beckenbodenrehabilitation | Postpartale Rehabilitation | Urogenitale Rehabilitation, Brustkrebs | Mammakarzinom, Echokardiografie | Herzultraschall, Ergometrie | Belastungstest | Leistungstest, Gynäkologischer Notfall | Notfall Frauenarzt, Harnwegsinfektion | Zystitis | Blasenentzündung, Hausärztlicher Notfall, Herz-Kreislauf-Prävention | CardioCheck, Holter EKG | Langzeit-EKG, Humane Papillomaviren Impfung (HPV) | Gebärmutterhalskrebsimpfung, Impfberatung, Kolposkopie | Scheidenspiegelung, Langzeit-Blutdruck | 24h Blutdruckmessung, Schwangerschaftsultraschall, Schwangerschaftsvorsorge | Schwangerschaftsuntersuchung, Verkehrsmedizinische Kontrolluntersuchung STUFE 1",https://www.arzthaus.ch/kontakt/zuerich-enge/,https://www.google.ch/search?q=Arzthaus+Zürich+Enge+Zürich,Gruppenpraxis,https://www.onedoc.ch/de/medizinisches-zentrum/zurich/ebali/arzthaus-zurich-enge,0,
Aerzte Zentrum Erlenbach,"Drusbergstrasse 10, 8703 Erlenbach",Drusbergstrasse 10,8703,Erlenbach,Zürich,044 910 05 18,"Allgemeine Innere Medizin, Infektiologie",https://www.aerztezentrumerlenbach.ch/,https://www.google.ch/search?q=Aerzte+Zentrum+Erlenbach+Erlenbach,Gruppenpraxis,https://www.onedoc.ch/de/medizinisches-zentrum/erlenbach/ewue/aerzte-zentrum-erlenbach,0,
ACAMED Medizinzentrum Dübendorf,"Ueberlandstrasse 212, 8600 Dübendorf",Ueberlandstrasse 212,8600,Dübendorf,Zürich,044 821 60 50,"Akupunktur, Allgemeine Innere Medizin, Gynäkologie und Geburtshilfe, Hausarztmedizin (Allgemeinmedizin), Psychiatrie, Psychotherapie, Traditionelle Chinesische Medizin (TCM)",https://acamed.ch/arzt-medizinzentrum-duebendorf/,https://www.google.ch/search?q=ACAMED+Medizinzentrum+Dübendorf+Dübendorf,Gruppenpraxis,https://www.onedoc.ch/de/medizinisches-zentrum/dubendorf/ewgb/acamed-medizinzentrum-dubendorf,1,"zuweisung, überweisung"
Arzthaus Zürich Stadelhofen,"Goethestrasse 14, 8001 Zürich",Goethestrasse 14,8001,Zürich,Zürich,044 555 70 00,"Akupunktur, Allgemeine Innere Medizin, Dermatologie und Venerologie, Gynäkologie und Geburtshilfe, Hausarztmedizin (Allgemeinmedizin), Impfung, Kardiologie, Orthopädie, Orthopädische Chirurgie, Ästhetische Medizin, 4D Schwangerschaftsultraschall, Allergie | AllergoTest | Allergieabklärung, Aneurysma, Arbeitsmedizinische Vorsorgeuntersuchung, Arrhythmie, Arterielle Hypertonie, Arteriitis | Entzündung der Arterien, Arteriosklerose | Atherosklerose | Arterienverkalkung, Beckenbodenrehabilitation | Postpartale Rehabilitation | Urogenitale Rehabilitation, Behandlung von Pigmentflecken, Brustkrebs | Mammakarzinom, Dermatologischer Notfall | Notfall Hautarzt, Desensibilisierung | Hyposensibilisierung, Echokardiografie | Herzultraschall, Ekzem, Ergometrie | Belastungstest | Leistungstest, Gynäkologischer Notfall | Notfall Frauenarzt, Gürtelrose (Herpes Zoster) Impfung, Harnwegsinfektion | Zystitis | Blasenentzündung, Hausärztlicher Notfall, Hautcheck, Hepatitis A/B Impfung, Herz-Kreislauf-Prävention | CardioCheck, Holter EKG | Langzeit-EKG, Humane Papillomaviren Impfung (HPV) | Gebärmutterhalskrebsimpfung, Impfberatung, Kolposkopie | Scheidenspiegelung, Langzeit-Blutdruck | 24h Blutdruckmessung, Melanom, Microneedling, Schwangerschaftsultraschall, Schwangerschaftsvorsorge | Schwangerschaftsuntersuchung, Verkehrsmedizinische Kontrolluntersuchung STUFE 1, Vorsorgeuntersuchung Brustkrebs",https://www.arzthaus.ch/kontakt/praxis-stadelhofen/,https://www.google.ch/search?q=Arzthaus+Zürich+Stadelhofen+Zürich,Gruppenpraxis,https://www.onedoc.ch/de/medizinisches-zentrum/zurich/ewil/arzthaus-zurich-stadelhofen,1,überweisung
Augenärzte Zürich Zentrum Schaffhauserplatz,"Weinbergstrasse 161, 8006 Zürich",Weinbergstrasse 161,8006,Zürich,Zürich,043 333 44 44.,"Augenheilkunde, Altersbedingte Makuladegeneration | AMD, Augencheck | Untersuchung der Sehkraft | Visustest, Chalazion | Hagelkorn, Funduskopie | Ophthalmoskopie | Augenspiegelung | Spaltlampenuntersuchung, Glaukom | Grüner Star, Hordeolum | Gerstenkorn, Katarakt | Grauer Star, Konjunktivitis | Bindehautentzündung, Trockene Augen",https://www.augenaerzte-zuerich.ch/,https://www.google.ch/search?q=Augenärzte+Zürich+Zentrum+Schaffhauserplatz+Zürich,Gruppenpraxis,https://www.onedoc.ch/de/medizinisches-zentrum/zurich/e724/augenarzte-zurich-zentrum-schaffhauserplatz,1,zuweiser
Augenärzte Stäfa Zentrum Bahnhof,"Bahnhofstrasse 25, 8712 Stäfa",Bahnhofstrasse 25,8712,Stäfa,Zürich,044 926 30 90,"Augenheilkunde, Altersbedingte Makuladegeneration | AMD, Augencheck | Untersuchung der Sehkraft | Visustest, Chalazion | Hagelkorn, Funduskopie | Ophthalmoskopie | Augenspiegelung | Spaltlampenuntersuchung, Glaukom | Grüner Star, Hordeolum | Gerstenkorn, Katarakt | Grauer Star, Konjunktivitis | Bindehautentzündung, Trockene Augen",https://www.augenaerzte-staefa.ch/augenarzt/,https://www.google.ch/search?q=Augenärzte+Stäfa+Zentrum+Bahnhof+Stäfa,Gruppenpraxis,https://www.onedoc.ch/de/medizinisches-zentrum/stafa/e720/augenarzte-stafa-zentrum-bahnhof,1,zuweiser
Augenarztzentrum Standort Seefeld (Hirslanden),"Seefeldstrasse 214, 8008 Zürich",Seefeldstrasse 214,8008,Zürich,Zürich,044 980 80 80,"Augenchirurgie, Augenheilkunde, Optometrie, Rheumatologie, Ästhetische Medizin, Augencheck | Untersuchung der Sehkraft | Visustest, Blepharoplastik | Augenlidchirurgie, Brille, Glaukom | Grüner Star, Injektion von Botulinumtoxin, Katarakt | Grauer Star, Katarakt-Chirurgie | Grauer Star-Operation, Keratokonus | Hornhautkegel, Lasik | Augenlaserbehandlung, Orthoptikuntersuchung, Pädiatrische Ophthalmologie, Strabismus | Schielen, Trockene Augen",https://www.hirslanden.ch/de/klinik-hirslanden/centers/augenarztzentrum.html,https://www.google.ch/search?q=Augenarztzentrum+Standort+Seefeld+(Hirslanden)+Zürich,Gruppenpraxis,https://www.onedoc.ch/de/medizinisches-zentrum/zurich/e1s9/augenarztzentrum-standort-seefeld-hirslanden,1,"zuweiser, für ärzte"
Augenärzte Zentrum Winterthur,"Scheideggstrasse 33, 8404 Winterthur",Scheideggstrasse 33,8404,Winterthur,Zürich,052 242 38 38,"Augenheilkunde, Altersbedingte Makuladegeneration | AMD, Augencheck | Untersuchung der Sehkraft | Visustest, Chalazion | Hagelkorn, Funduskopie | Ophthalmoskopie | Augenspiegelung | Spaltlampenuntersuchung, Glaukom | Grüner Star, Hordeolum | Gerstenkorn, Katarakt | Grauer Star, Konjunktivitis | Bindehautentzündung, Trockene Augen",https://www.augentagesklinik-winterthur.ch/,https://www.google.ch/search?q=Augenärzte+Zentrum+Winterthur+Winterthur,Gruppenpraxis,https://www.onedoc.ch/de/medizinisches-zentrum/winterthur/eba31/augenarzte-zentrum-winterthur,0,
Augenzentrum Glattbrugg,"Schaffhauserstrasse 110, 8152 Glattbrugg",Schaffhauserstrasse 110,8152,Glattbrugg,Zürich,044 810 08 88,Augenheilkunde,https://www.augenzentrum-ono.ch/zentrum/augenzentrum-ono-glattbrugg/,https://www.google.ch/search?q=Augenzentrum+Glattbrugg+Glattbrugg,Gruppenpraxis,https://www.onedoc.ch/de/medizinisches-zentrum/glattbrugg/ex3e/augenzentrum-glattbrugg,1,zuweiser
Augenzentrum IROC,"Stockerstrasse 37, 8002 Zürich",Stockerstrasse 37,8002,Zürich,Zürich,043 488 38 00,Augenheilkunde,https://www.iroc.ch/,https://www.google.ch/search?q=Augenzentrum+IROC+Zürich,Gruppenpraxis,https://www.onedoc.ch/de/medizinisches-zentrum/zurich/exk4/augenzentrum-iroc,0,
Augenärzte Zürich Zentrum Wallisellen,"Bahnhofplatz 2, 8304 Wallisellen",Bahnhofplatz 2,8304,Wallisellen,Zürich,044 836 66 66,"Augenheilkunde, Altersbedingte Makuladegeneration | AMD, Augencheck | Untersuchung der Sehkraft | Visustest, Chalazion | Hagelkorn, Funduskopie | Ophthalmoskopie | Augenspiegelung | Spaltlampenuntersuchung, Glaukom | Grüner Star, Hordeolum | Gerstenkorn, Katarakt | Grauer Star, Konjunktivitis | Bindehautentzündung, Trockene Augen",https://www.augenaerzte-wallisellen.ch/,https://www.google.ch/search?q=Augenärzte+Zürich+Zentrum+Wallisellen+Wallisellen,Gruppenpraxis,https://www.onedoc.ch/de/medizinisches-zentrum/wallisellen/e725/augenarzte-zurich-zentrum-wallisellen,1,zuweiser
Augenärzte Wetzikon Zentrum Leue,"Bahnhofstrasse 150, 8620 Wetzikon",Bahnhofstrasse 150,8620,Wetzikon,Zürich,044 930 44 14,Unknown,https://www.augenaerzte-wetzikon.ch/augenarzt/,https://www.google.ch/search?q=Augenärzte+Wetzikon+Zentrum+Leue+Wetzikon,Gruppenpraxis,https://www.onedoc.ch/de/medizinisches-zentrum/wetzikon/e721/augenarzte-wetzikon-zentrum-leue,1,zuweiser
Augenzentrum ONO Bülach,"Sechtbachweg 2, 8180 Bülach",Sechtbachweg 2,8180,Bülach,Zürich,044 862 11 77,"Augenheilkunde, Augencheck | Untersuchung der Sehkraft | Visustest, Glaukom | Grüner Star, Katarakt | Grauer Star, Konjunktivitis | Bindehautentzündung, Lasik | Augenlaserbehandlung, Trockene Augen",https://www.augenzentrum-ono.ch/zentrum/augenzentrum-ono-bulach/,https://www.google.ch/search?q=Augenzentrum+ONO+Bülach+Bülach,Gruppenpraxis,https://www.onedoc.ch/de/medizinisches-zentrum/bulach/e9e0/augenzentrum-ono-bulach,1,zuweiser
Augentagesklinik Zürich Oberland,"Bahnhofstrasse 137, 8620 Wetzikon",Bahnhofstrasse 137,8620,Wetzikon,Zürich,044 934 33 33,"Augenheilkunde, Altersbedingte Makuladegeneration | AMD, Augencheck | Untersuchung der Sehkraft | Visustest, Chalazion | Hagelkorn, Funduskopie | Ophthalmoskopie | Augenspiegelung | Spaltlampenuntersuchung, Glaukom | Grüner Star, Hordeolum | Gerstenkorn, Katarakt | Grauer Star, Konjunktivitis | Bindehautentzündung, Trockene Augen",https://www.augentagesklinik-oberland.ch/augenarzt/,https://www.google.ch/search?q=Augentagesklinik+Zürich+Oberland+Wetzikon,Gruppenpraxis,https://www.onedoc.ch/de/medizinisches-zentrum/wetzikon/e722/augentagesklinik-zurich-oberland,1,zuweiser
Augenarztzentrum Standort Limmatquai,"Limmatquai 94, 8001 Zürich",Limmatquai 94,8001,Zürich,Zürich,044 257 10 74,"Augenchirurgie, Augenheilkunde, Optometrie, Rheumatologie, Ästhetische Medizin, Augencheck | Untersuchung der Sehkraft | Visustest, Blepharoplastik | Augenlidchirurgie, Brille, Glaukom | Grüner Star, Injektion von Botulinumtoxin, Katarakt | Grauer Star, Katarakt-Chirurgie | Grauer Star-Operation, Keratokonus | Hornhautkegel, Lasik | Augenlaserbehandlung, Orthoptikuntersuchung, Pädiatrische Ophthalmologie, Strabismus | Schielen, Trockene Augen",https://www.augenarztzentrum.ch/limmatquai,https://www.google.ch/search?q=Augenarztzentrum+Standort+Limmatquai+Zürich,Gruppenpraxis,https://www.onedoc.ch/de/medizinisches-zentrum/zurich/e1s8/augenarztzentrum-standort-limmatquai,1,"zuweisung, zuweiser"
Augenzentrum ONO Pfäffikon,"Turmstrasse 3, 8330 Pfäffikon ZH",Turmstrasse 3,8330,Pfäffikon ZH,Zürich,044 951 01 02,"Augenheilkunde, Augencheck | Untersuchung der Sehkraft | Visustest, Glaukom | Grüner Star, Katarakt | Grauer Star, Konjunktivitis | Bindehautentzündung, Trockene Augen",https://www.augenzentrum-ono.ch/zentrum/augenzentrum-ono-pfaeffikon-zh/,https://www.google.ch/search?q=Augenzentrum+ONO+Pfäffikon+Pfäffikon+ZH,Gruppenpraxis,https://www.onedoc.ch/de/medizinisches-zentrum/pfaffikon/e4jc/augenzentrum-ono-pfaffikon,1,zuweiser
Augenzentrum Volketswil Hofwiesenstrasse 4b Volketswil,"Hofwiesenstrasse 4b, 8604 Volketswil",Hofwiesenstrasse 4b,8604,Volketswil,Zürich,044 908 57 57,Unknown,https://www.augenzentrum-ono.ch/zentrum/augenzentrum-ono-volketswil/,https://www.google.ch/search?q=Augenzentrum+Volketswil+Hofwiesenstrasse+4b+Volketswil+Volketswil,Gruppenpraxis,https://www.onedoc.ch/de/medizinisches-zentrum/volketswil/e03f/augenzentrum-volketswil-hofwiesenstrasse-4b-volketswil,1,zuweiser
Augenzentrum Watt,"Dorfstrasse 53, 8105 Watt",Dorfstrasse 53,8105,Watt,Zürich,044 555 45 45,Augenheilkunde,,https://www.google.ch/search?q=Augenzentrum+Watt+Watt,Gruppenpraxis,https://www.onedoc.ch/de/medizinisches-zentrum/watt/exaz/augenzentrum-watt,0,
Augenzentrum ONO Volketswil,"Hofwiesenstrasse 4b, 8604 Volketswil",Hofwiesenstrasse 4b,8604,Volketswil,Zürich,044 908 57 57,"Augenheilkunde, Augencheck | Untersuchung der Sehkraft | Visustest, Glaukom | Grüner Star, Katarakt | Grauer Star, Konjunktivitis | Bindehautentzündung, Trockene Augen",https://www.augenzentrum-ono.ch/zentrum/augenzentrum-ono-volketswil/,https://www.google.ch/search?q=Augenzentrum+ONO+Volketswil+Volketswil,Gruppenpraxis,https://www.onedoc.ch/de/medizinisches-zentrum/volketswil/e1qt/augenzentrum-ono-volketswil,1,zuweiser
Augenzentrum ONO Wallisellen,"Neue Winterthurerstrasse 99, 8304 Wallisellen",Neue Winterthurerstrasse 99,8304,Wallisellen,Zürich,044 878 70 70,"Augenchirurgie, Augenheilkunde, Altersbedingte Makuladegeneration | AMD, Augencheck | Untersuchung der Sehkraft | Visustest, Blepharoplastik | Augenlidchirurgie, Funduskopie | Ophthalmoskopie | Augenspiegelung | Spaltlampenuntersuchung, Glaukom | Grüner Star, Glaukom-Chirurgie | Grüner Star-Operation, Katarakt | Grauer Star, Katarakt-Chirurgie | Grauer Star-Operation, Lasik | Augenlaserbehandlung, Netzhautchirurgie, Ophthalmo-Diabetologie, Uveitis, Vorsorgeuntersuchung Diabetische Retinopathie",https://www.augenzentrum-ono.ch/zentrum/augen-glattzentrum-ono-wallisellen/,https://www.google.ch/search?q=Augenzentrum+ONO+Wallisellen+Wallisellen,Gruppenpraxis,https://www.onedoc.ch/de/medizinisches-zentrum/wallisellen/eudu/augenzentrum-ono-wallisellen,1,zuweiser
Bachtelpraxis,"Ettenhauserstrasse 13, 8620 Wetzikon",Ettenhauserstrasse 13,8620,Wetzikon,Zürich,044 930 30 02,Allgemeine Innere Medizin,https://www.bachtelpraxis.ch/,https://www.google.ch/search?q=Bachtelpraxis+Wetzikon,Gruppenpraxis,https://www.onedoc.ch/de/medizinisches-zentrum/wetzikon/ew29/bachtelpraxis,0,
B3-Praxis am Bahnhofplatz,"Bahnhofplatz 3, 8001 Zürich",Bahnhofplatz 3,8001,Zürich,Zürich,044 838 68 68,"Allgemeine Innere Medizin, Dermatologie und Venerologie, Gynäkologie und Geburtshilfe, Hausarztmedizin (Allgemeinmedizin), Orthopädische Chirurgie",https://b3-praxis.ch/,https://www.google.ch/search?q=B3-Praxis+am+Bahnhofplatz+Zürich,Gruppenpraxis,https://www.onedoc.ch/de/medizinisches-zentrum/zurich/et1l/b3-praxis-am-bahnhofplatz,1,für ärzte
Augenzentrum ONO Winterthur,"Oberfeldstrasse 158, 8408 Winterthur",Oberfeldstrasse 158,8408,Winterthur,Zürich,052 222 07 40,"Augenheilkunde, Augencheck | Untersuchung der Sehkraft | Visustest, Glaukom | Grüner Star, Katarakt | Grauer Star, Konjunktivitis | Bindehautentzündung, Trockene Augen",https://www.augenzentrum-ono.ch/zentrum/augenzentrum-ono-winterthur/,https://www.google.ch/search?q=Augenzentrum+ONO+Winterthur+Winterthur,Gruppenpraxis,https://www.onedoc.ch/de/medizinisches-zentrum/winterthur/e9e1/augenzentrum-ono-winterthur,1,zuweiser
Augenzentrum Wiedikon,"Birmensdorferstrasse 55, 8005 Zürich",Birmensdorferstrasse 55,8005,Zürich,Zürich,044 461 54 44,Augenheilkunde,https://augenzentrum-wiedikon.ch/,https://www.google.ch/search?q=Augenzentrum+Wiedikon+Zürich,Gruppenpraxis,https://www.onedoc.ch/de/medizinisches-zentrum/zurich/eued/augenzentrum-wiedikon,1,zuweisung
Augenzentrum ONO Glattbrugg,"Schaffhauserstrasse 110, 8152 Opfikon",Schaffhauserstrasse 110,8152,Opfikon,Zürich,044 810 08 88,"Augenheilkunde, Augencheck | Untersuchung der Sehkraft | Visustest, Glaukom | Grüner Star, Katarakt | Grauer Star, Konjunktivitis | Bindehautentzündung, Trockene Augen",https://www.augenzentrum-ono.ch/zentrum/augenzentrum-ono-glattbrugg/,https://www.google.ch/search?q=Augenzentrum+ONO+Glattbrugg+Opfikon,Gruppenpraxis,https://www.onedoc.ch/de/medizinisches-zentrum/opfikon/e1qr/augenzentrum-ono-glattbrugg,1,zuweiser
Dermatologisches Zentrum Zürich,"Beckenhofstrasse 6, 8006 Zürich",Beckenhofstrasse 6,8006,Zürich,Zürich,043 443 11 55,"Dermatologie und Venerologie, Hausarztmedizin (Allgemeinmedizin)",https://www.dermazentrumzuerich.ch/,https://www.google.ch/search?q=Dermatologisches+Zentrum+Zürich+Zürich,Gruppenpraxis,https://www.onedoc.ch/de/medizinisches-zentrum/zurich/ewjz/dermatologisches-zentrum-zurich,0,
Chirurgisches Zentrum Zürich,"Witellikerstrasse 40, 8032 Zürich",Witellikerstrasse 40,8032,Zürich,Zürich,044 387 37 00,"Chirurgie, Herzchirurgie, Viszeralchirurgie",https://www.hirslanden.ch/de/klinik-hirslanden/centers/chirurgisches-zentrum-zuerich.html,https://www.google.ch/search?q=Chirurgisches+Zentrum+Zürich+Zürich,Gruppenpraxis,https://www.onedoc.ch/de/medizinisches-zentrum/zurich/et5f/chirurgisches-zentrum-zurich,1,"zuweiser, für ärzte"
Bergpraxis,"Bergstrasse 1, 8816 Hirzel",Bergstrasse 1,8816,Hirzel,Zürich,044 729 72 72,Allgemeine Innere Medizin,https://bergpraxis.ch/,https://www.google.ch/search?q=Bergpraxis+Hirzel,Gruppenpraxis,https://www.onedoc.ch/de/medizinisches-zentrum/hirzel/ewzf/bergpraxis,0,
Dermatologikum Zürich,"Wallisellenstrasse 301a, 8050 Zürich",Wallisellenstrasse 301a,8050,Zürich,Zürich,044 377 30 60,"Allergologie und Immunologie, Allgemeine Innere Medizin, Arbeitsmedizin, Dermatologie und Venerologie, Pneumologie",https://www.dermatologikum.swiss/,https://www.google.ch/search?q=Dermatologikum+Zürich+Zürich,Gruppenpraxis,https://www.onedoc.ch/de/medizinisches-zentrum/zurich/euqs/dermatologikum-zurich,0,
Endoclinic Zürich,"Witellikerstrasse 40, 8008 Zürich",Witellikerstrasse 40,8008,Zürich,Zürich,044 387 28 80,"Handchirurgie, Orthopädische Chirurgie",https://www.hirslanden.ch/en/klinik-hirslanden/centers/endoclinic-zurich.html,https://www.google.ch/search?q=Endoclinic+Zürich+Zürich,Gruppenpraxis,https://www.onedoc.ch/de/medizinisches-zentrum/zurich/ett6/endoclinic-zurich,0,
Augenzentrum Winterthur,"Lagerhausstrasse 10, 8400 Winterthur",Lagerhausstrasse 10,8400,Winterthur,Zürich,052 213 38 00,Augenheilkunde,https://augenzentrum-winterthur.ch/,https://www.google.ch/search?q=Augenzentrum+Winterthur+Winterthur,Gruppenpraxis,https://www.onedoc.ch/de/medizinisches-zentrum/winterthur/ewi8/augenzentrum-winterthur,0,
Fachgruppe Trans,"Stolzestrasse 3, 8006 Zürich",Stolzestrasse 3,8006,Zürich,Zürich,078 420 57 96,"Hausarztmedizin (Allgemeinmedizin), Psychiatrie, Psychotherapie",https://www.fachgruppetrans.ch/,https://www.google.ch/search?q=Fachgruppe+Trans+Zürich,Gruppenpraxis,https://www.onedoc.ch/de/medizinisches-zentrum/zurich/e02a/fachgruppe-trans,0,
Clienia Gruppenpraxen Winterthur,"Neumarkt 4, 8400 Winterthur",Neumarkt 4,8400,Winterthur,Zürich,052 269 02 10,"Allgemeine Innere Medizin, Hausarztmedizin (Allgemeinmedizin), Psychiatrie, Psychotherapie",https://www.clienia.ch/de/standorte/clienia-winterthur-praxis-psychiatrie-psychotherapie/,https://www.google.ch/search?q=Clienia+Gruppenpraxen+Winterthur+Winterthur,Gruppenpraxis,https://www.onedoc.ch/de/medizinisches-zentrum/winterthur/ewgr/clienia-gruppenpraxen-winterthur,0,
Fachärztezentrum Prisma,"Trichtenhauser Strasse 12, 8125 Zollikerberg",Trichtenhauser Strasse 12,8125,Zollikerberg,Zürich,044 391 23 32,"Anästhesiologie, Augenheilkunde, Neurologie, Orthopädische Chirurgie",,https://www.google.ch/search?q=Fachärztezentrum+Prisma+Zollikerberg,Gruppenpraxis,https://www.onedoc.ch/de/medizinisches-zentrum/zollikerberg/ewye/facharztezentrum-prisma,0,
Flor Gesundheitszentrum Uster,"Loren-Allee 20, 8610 Uster",Loren-Allee 20,8610,Uster,Zürich,044 940 55 51,"Allgemeine Innere Medizin, Pädiatrie",https://www.flor-gesundheitszentrum.ch/,https://www.google.ch/search?q=Flor+Gesundheitszentrum+Uster+Uster,Gruppenpraxis,https://www.onedoc.ch/de/medizinisches-zentrum/uster/ewiq/flor-gesundheitszentrum-uster,0,
Flor Gesundheitszentrum Volketswil,"Hofwiesenstrasse 4b, 8604 Volketswil",Hofwiesenstrasse 4b,8604,Volketswil,Zürich,044 944 60 00,"Allgemeine Innere Medizin, Pädiatrie",https://www.flor-gesundheitszentrum.ch/,https://www.google.ch/search?q=Flor+Gesundheitszentrum+Volketswil+Volketswil,Gruppenpraxis,https://www.onedoc.ch/de/medizinisches-zentrum/volketswil/ewhk/flor-gesundheitszentrum-volketswil,0,
Fachärztezentrum Glatt,"Neue Winterthurerstrasse 99, 8304 Wallisellen",Neue Winterthurerstrasse 99,8304,Wallisellen,Zürich,052 266 56 56,"Allgemeine Innere Medizin, Angiologie, Chirurgie, Gefässchirurgie, Hausarztmedizin (Allgemeinmedizin), Herzchirurgie, Kardiologie, Mund-, Kiefer- und Gesichtschirurgie, Oralchirurgie, Orthopädische Chirurgie, Plastische, rekonstruktive und ästhetische Chirurgie, Zahnmedizin",https://www.fachaerzte-glatt.ch/,https://www.google.ch/search?q=Fachärztezentrum+Glatt+Wallisellen,Gruppenpraxis,https://www.onedoc.ch/de/medizinisches-zentrum/wallisellen/erna/facharztezentrum-glatt,0,
Frauenpraxis Winterthur,"Lindstrasse 15, 8400 Winterthur",Lindstrasse 15,8400,Winterthur,Zürich,052 269 16 20,Gynäkologie und Geburtshilfe,https://www.frauenpraxis-winterthur.ch/,https://www.google.ch/search?q=Frauenpraxis+Winterthur+Winterthur,Gruppenpraxis,https://www.onedoc.ch/de/medizinisches-zentrum/winterthur/ewl5/frauenpraxis-winterthur,0,
Hausarztpraxis Volketswil - Huzlenstrasse 3,"Huzlenstrasse 3, 8604 Volketswil",Huzlenstrasse 3,8604,Volketswil,Zürich,044 945 50 67,Allgemeine Innere Medizin,https://www.hausarztpraxis-volketswil.ch/,https://www.google.ch/search?q=Hausarztpraxis+Volketswil+-+Huzlenstrasse+3+Volketswil,Gruppenpraxis,https://www.onedoc.ch/de/medizinisches-zentrum/volketswil/ewxz/hausarztpraxis-volketswil-huzlenstrasse-3,0,
Gruppenpraxis Grossmünsterplatz 8,"Grossmünsterplatz 8, 8001 Zürich",Grossmünsterplatz 8,8001,Zürich,Zürich,044 251 81 81,"Allgemeine Innere Medizin, Chirurgie, Orthopädische Chirurgie, Pädiatrie",https://paracelsus-zentrum.ch/ueber-uns/,https://www.google.ch/search?q=Gruppenpraxis+Grossmünsterplatz+8+Zürich,Gruppenpraxis,https://www.onedoc.ch/de/medizinisches-zentrum/zurich/eugl/gruppenpraxis-grossmunsterplatz-8,0,
Dermis - Hautklinik Zürich - Bülach,"Schaffhauserstrasse 53, 8180 Bülach",Schaffhauserstrasse 53,8180,Bülach,Zürich,044 872 80 00,"Dermatologie und Venerologie, Ästhetische Medizin, Akne, Fusspilz | Nagelpilz, Hautcheck, Hautpilz | Hautmykose, Injektion von Botulinumtoxin, Muttermalkontrolle, Psoriasis | Schuppenflechte, Tattooentfernung, Warze | Warzenbehandlung",https://www.dermis-hautklinik.ch/standorte/hautklinik-zuerich-buelach/,https://www.google.ch/search?q=Dermis+-+Hautklinik+Zürich+-+Bülach+Bülach,Gruppenpraxis,https://www.onedoc.ch/de/medizinisches-zentrum/bulach/ewmc/dermis-hautklinik-zurich-bulach,1,zuweisung
Heart Clinic Zurich,"Witellikerstrasse 40, 8032 Zürich",Witellikerstrasse 40,8032,Zürich,Zürich,044 387 97 00,"Allgemeine Innere Medizin, Herzchirurgie, Kardiologie",https://en.swiss-heart-clinic.com/,https://www.google.ch/search?q=Heart+Clinic+Zurich+Zürich,Gruppenpraxis,https://www.onedoc.ch/de/medizinisches-zentrum/zurich/eq7f/heart-clinic-zurich,0,
Frauengesundheitszentrum,"Rämistrasse 35, 8001 Zürich",Rämistrasse 35,8001,Zürich,Zürich,044 252 65 85,Gynäkologie und Geburtshilfe,https://frauengesundheitszentrum.ch/,https://www.google.ch/search?q=Frauengesundheitszentrum+Zürich,Gruppenpraxis,https://www.onedoc.ch/de/medizinisches-zentrum/zurich/ewpw/frauengesundheitszentrum,0,
HautZentrum Zürich,"Schaffhauserstrasse 355, 8050 Zürich",Schaffhauserstrasse 355,8050,Zürich,Zürich,044 318 88 99,"Allergologie und Immunologie, Allgemeine Innere Medizin, Dermatologie und Venerologie, Hausarztmedizin (Allgemeinmedizin)",https://www.hautzentrum-zuerich.ch/de,https://www.google.ch/search?q=HautZentrum+Zürich+Zürich,Gruppenpraxis,https://www.onedoc.ch/de/medizinisches-zentrum/zurich/ewlh/hautzentrum-zurich,0,
Gruppenpraxis Im Fleudebüel 10,"Im Fleudebüel 10, 8460 Marthalen",Im Fleudebüel 10,8460,Marthalen,Zürich,052 319 14 00,Allgemeine Innere Medizin,https://www.hausarzt-zentrum.ch/,https://www.google.ch/search?q=Gruppenpraxis+Im+Fleudebüel+10+Marthalen,Gruppenpraxis,https://www.onedoc.ch/de/medizinisches-zentrum/marthalen/ewgz/gruppenpraxis-im-fleudebuel-10,0,
Kinderarztpraxis Pfäffikon,"Wallikerstrasse 10, 8330 Pfäffikon ZH",Wallikerstrasse 10,8330,Pfäffikon ZH,Zürich,044 952 10 00,Pädiatrie,https://www.kinderarztpraxis-pfaeffikon.ch/,https://www.google.ch/search?q=Kinderarztpraxis+Pfäffikon+Pfäffikon+ZH,Gruppenpraxis,https://www.onedoc.ch/de/medizinisches-zentrum/pfaffikon/ewnw/kinderarztpraxis-pfaffikon,1,für ärzte
Medbase Eglisau,"Obergass 1, 8193 Eglisau",Obergass 1,8193,Eglisau,Zürich,043 422 39 39,Hausarztmedizin (Allgemeinmedizin),https://www.medbase.ch/en/centers/detail/medbase-eglisau/,https://www.google.ch/search?q=Medbase+Eglisau+Eglisau,Gruppenpraxis,https://www.onedoc.ch/de/medizinisches-zentrum/eglisau/erha/medbase-eglisau,0,
House of Skin & Laser Medicine,"Bürglistrasse 11, 8002 Zürich",Bürglistrasse 11,8002,Zürich,Zürich,043 343 93 01,"Allgemeine Innere Medizin, Dermatologie und Venerologie, Endokrinologie und Diabetologie",,https://www.google.ch/search?q=House+of+Skin+&+Laser+Medicine+Zürich,Gruppenpraxis,https://www.onedoc.ch/de/medizinisches-zentrum/zurich/ewgv/house-of-skin-laser-medicine,0,
IZZ-ImmunologieZentrum Zürich,"Walchestrasse 11, 8006 Zürich",Walchestrasse 11,8006,Zürich,Zürich,044 434 10 00,"Allergologie und Immunologie, Allgemeine Innere Medizin, Dermatologie und Venerologie, Nephrologie, Rheumatologie",https://www.immunologie-zentrum.ch/,https://www.google.ch/search?q=IZZ-ImmunologieZentrum+Zürich+Zürich,Gruppenpraxis,https://www.onedoc.ch/de/medizinisches-zentrum/zurich/ewg3/izz-immunologiezentrum-zurich,1,für ärzte
Limmat Augenzentrum,"Hardturmstrasse 133, 8005 Zürich",Hardturmstrasse 133,8005,Zürich,Zürich,044 448 44 33,Augenheilkunde,https://www.limmatz.ch/,https://www.google.ch/search?q=Limmat+Augenzentrum+Zürich,Gruppenpraxis,https://www.onedoc.ch/de/medizinisches-zentrum/zurich/ewji/limmat-augenzentrum,1,für ärzte
Gemeinschaftspraxis Rümlang,"Glattalstrasse 204, 8153 Rümlang",Glattalstrasse 204,8153,Rümlang,Zürich,044 817 60 70,"Allgemeine Innere Medizin, Kinder- und Jugendpsychiatrie",https://www.gemeinschaftspraxis-ruemlang.ch/,https://www.google.ch/search?q=Gemeinschaftspraxis+Rümlang+Rümlang,Gruppenpraxis,https://www.onedoc.ch/de/medizinisches-zentrum/rumlang/ewvp/gemeinschaftspraxis-rumlang,0,
Kopfwehzentrum Hirslanden,"Forchstrasse 424, 8702 Zollikon",Forchstrasse 424,8702,Zollikon,Zürich,043 499 13 30,"Hausarztmedizin (Allgemeinmedizin), Neurologie",https://www.kopfwww.ch/,https://www.google.ch/search?q=Kopfwehzentrum+Hirslanden+Zollikon,Gruppenpraxis,https://www.onedoc.ch/de/medizinisches-zentrum/zollikon/ewo3/kopfwehzentrum-hirslanden,0,
Gruppenpraxis Fällanden,"Unterdorfstrasse 3, 8117 Fällanden",Unterdorfstrasse 3,8117,Fällanden,Zürich,044 806 65 65,"Allgemeine Innere Medizin, Gynäkologie und Geburtshilfe, Pädiatrie",https://www.gruppenpraxis-faellanden.ch/,https://www.google.ch/search?q=Gruppenpraxis+Fällanden+Fällanden,Gruppenpraxis,https://www.onedoc.ch/de/medizinisches-zentrum/fallanden/ewlg/gruppenpraxis-fallanden,0,
Medbase Greifensee,"Grossriet 1, 8604 Greifensee",Grossriet 1,8604,Greifensee,Zürich,058 568 06 39,"Physiotherapie, Sportphysiotherapie",https://www.medbase.ch/standorte/detail/medbase-greifensee/,https://www.google.ch/search?q=Medbase+Greifensee+Greifensee,Gruppenpraxis,https://www.onedoc.ch/de/medizinisches-zentrum/greifensee/e1i2/medbase-greifensee,1,überweisung
Medbase Hinwil,"Bahnhofstrasse 10, 8340 Hinwil",Bahnhofstrasse 10,8340,Hinwil,Zürich,044 800 36 66,Hausarztmedizin (Allgemeinmedizin),https://www.medbase.ch/en/centers/detail/medbase-hinwil/,https://www.google.ch/search?q=Medbase+Hinwil+Hinwil,Gruppenpraxis,https://www.onedoc.ch/de/medizinisches-zentrum/hinwil/eq2a/medbase-hinwil,0,
Medbase Wetzikon,"Bahnhofstrasse 99g, 8620 Wetzikon",Bahnhofstrasse 99g,8620,Wetzikon,Zürich,044 934 30 30,"Hausarztmedizin (Allgemeinmedizin), Medizinische Massage, Physiotherapie, Sportmedizin, Sportphysiotherapie",https://www.medbase.ch/en/centers/detail/medbase-wetzikon/,https://www.google.ch/search?q=Medbase+Wetzikon+Wetzikon,Gruppenpraxis,https://www.onedoc.ch/de/medizinisches-zentrum/wetzikon/ewgf/medbase-wetzikon,0,
Medbase Winterthur Schaffhauserstrasse,"Schaffhauserstrasse 6, 8400 Winterthur",Schaffhauserstrasse 6,8400,Winterthur,Zürich,052 260 37 80,"Physiotherapie, Sportphysiotherapie",,https://www.google.ch/search?q=Medbase+Winterthur+Schaffhauserstrasse+Winterthur,Gruppenpraxis,https://www.onedoc.ch/de/medizinisches-zentrum/winterthur/e1yn/medbase-winterthur-schaffhauserstrasse,0,
Medbase Zürich Löwenstrasse,"Löwenstrasse 29, 8001 Zürich",Löwenstrasse 29,8001,Zürich,Zürich,044 226 36 36,"Cranio Sacral-Therapie, Hausarztmedizin (Allgemeinmedizin), Orthopädie, Physikalische und Rehabilitative Medizin, Physiotherapie, Sportmedizin, Sportphysiotherapie",https://www.medbase.ch/standorte/detail/medbase-zuerich-loewenstrasse/,https://www.google.ch/search?q=Medbase+Zürich+Löwenstrasse+Zürich,Gruppenpraxis,https://www.onedoc.ch/de/medizinisches-zentrum/zurich/ewn6/medbase-zurich-lowenstrasse,1,überweisung
Medbase Zürich Oerlikon,"Andreasstrasse 5, 8050 Zürich",Andreasstrasse 5,8050,Zürich,Zürich,044 315 75 75,"Atemtherapie, Bachblüten, Cranio Sacral-Therapie, Dermatologie und Venerologie, Gynäkologie und Geburtshilfe, Hausarztmedizin (Allgemeinmedizin), Kinesiologie, Medizinische Massage, Osteopathie, Physiotherapie, Psychotherapie, Reflexologie, Shiatsu, Sportphysiotherapie, Traditionelle Chinesische Medizin (TCM)",https://www.medbase.ch/en/centers/detail/medbase-zurich-oerlikon/,https://www.google.ch/search?q=Medbase+Zürich+Oerlikon+Zürich,Gruppenpraxis,https://www.onedoc.ch/de/medizinisches-zentrum/zurich/ewge/medbase-zurich-oerlikon,0,
Medbase Kloten,"Bachstrasse 9B, 8302 Kloten",Bachstrasse 9B,8302,Kloten,Zürich,044 800 36 36,"Akupunktur, Hausarztmedizin (Allgemeinmedizin)",https://www.medbase.ch/en/centers/detail/medbase-kloten/,https://www.google.ch/search?q=Medbase+Kloten+Kloten,Gruppenpraxis,https://www.onedoc.ch/de/medizinisches-zentrum/kloten/ewig/medbase-kloten,0,
Medbase Winterthur Brunngasse,"Brunngasse 6, 8400 Winterthur",Brunngasse 6,8400,Winterthur,Zürich,052 260 37 80,"Physiotherapie, Sportphysiotherapie",https://www.medbase.ch/standorte/detail/medbase-winterthur-brunngasse/,https://www.google.ch/search?q=Medbase+Winterthur+Brunngasse+Winterthur,Gruppenpraxis,https://www.onedoc.ch/de/medizinisches-zentrum/winterthur/evgc/medbase-winterthur-brunngasse,1,überweisung
Medbase Winterthur Neuwiesen,"Gertrudstrasse 1, 8400 Winterthur",Gertrudstrasse 1,8400,Winterthur,Zürich,0800 008 400,"Allgemeine Innere Medizin, Dermatologie und Venerologie, Gynäkologie und Geburtshilfe, Hausarztmedizin (Allgemeinmedizin), Homöopathie, Kardiologie, Psychiatrie, Psychotherapie",https://www.medbase.ch/standorte/detail/medbase-winterthur-neuwiesen/,https://www.google.ch/search?q=Medbase+Winterthur+Neuwiesen+Winterthur,Gruppenpraxis,https://www.onedoc.ch/de/medizinisches-zentrum/winterthur/ewis/medbase-winterthur-neuwiesen,1,zuweiser
Medbase Zürich Permanence Hauptbahnhof,"Bahnhofplatz 15, 8001 Zürich",Bahnhofplatz 15,8001,Zürich,Zürich,044 215 44 44,Unknown,https://www.medbase.ch/en/centers/detail/medbase-permanence-zurich-main-station/,https://www.google.ch/search?q=Medbase+Zürich+Permanence+Hauptbahnhof+Zürich,Gruppenpraxis,https://www.onedoc.ch/de/medizinisches-zentrum/zurich/ewgw/medbase-zurich-permanence-hauptbahnhof,0,
mediX Gruppenpraxis,"Rotbuchstrasse 46, 8037 Zürich",Rotbuchstrasse 46,8037,Zürich,Zürich,044 365 30 30,"Allgemeine Innere Medizin, Dermatologie und Venerologie, Hausarztmedizin (Allgemeinmedizin), Kardiologie, Orthopädische Chirurgie, Pneumologie, Pädiatrie, Tropen- und Reisemedizin",https://medix-gruppenpraxis.ch/,https://www.google.ch/search?q=mediX+Gruppenpraxis+Zürich,Gruppenpraxis,https://www.onedoc.ch/de/medizinisches-zentrum/zurich/ewqu/medix-gruppenpraxis,0,
Medbase Winterthur WIN4,"Grüzefeldstrasse 32, 8400 Winterthur",Grüzefeldstrasse 32,8400,Winterthur,Zürich,052 266 93 00,"Cranio Sacral-Therapie, Hausarztmedizin (Allgemeinmedizin), Medizinische Massage, Osteopathie, Physiotherapie, Sportphysiotherapie",https://www.medbase.ch/en/centers/detail/medbase-winterthur-win4/,https://www.google.ch/search?q=Medbase+Winterthur+WIN4+Winterthur,Gruppenpraxis,https://www.onedoc.ch/de/medizinisches-zentrum/winterthur/ewsw/medbase-winterthur-win4,1,überweisung
Medbase Uster,"Oberlandstrasse 104, 8610 Uster",Oberlandstrasse 104,8610,Uster,Zürich,044 914 25 80,Hausarztmedizin (Allgemeinmedizin),https://www.medbase.ch/en/centers/detail/medbase-uster/,https://www.google.ch/search?q=Medbase+Uster+Uster,Gruppenpraxis,https://www.onedoc.ch/de/medizinisches-zentrum/uster/ewy8/medbase-uster,0,
MEDISYN CityLab Winterthur - Einkaufszentrum Neuwiesen,"Strickerstrasse 3, 8400 Winterthur",Strickerstrasse 3,8400,Winterthur,Zürich,0800 393 393,COVID-19 Test,https://www.medisyn.ch/kontakt/hier-finden-sie-uns/standorte/location/citylab-winterthur,https://www.google.ch/search?q=MEDISYN+CityLab+Winterthur+-+Einkaufszentrum+Neuwiesen+Winterthur,Gruppenpraxis,https://www.onedoc.ch/de/medizinisches-zentrum/winterthur/e2lg/medisyn-citylab-winterthur-einkaufszentrum-neuwiesen,0,
Medizinisches Zentrum Chrummbächli,"Chrummbächliweg 2, 8805 Richterswil",Chrummbächliweg 2,8805,Richterswil,Zürich,044 500 77 17,"Allgemeine Innere Medizin, Gynäkologie und Geburtshilfe, Kardiologie, Psychiatrie, Psychotherapie",,https://www.google.ch/search?q=Medizinisches+Zentrum+Chrummbächli+Richterswil,Gruppenpraxis,https://www.onedoc.ch/de/medizinisches-zentrum/richterswil/ewhy/medizinisches-zentrum-chrummbachli,0,
Medizinisches Zentrum,"Löwenstrasse 12, 8001 Zürich",Löwenstrasse 12,8001,Zürich,Zürich,044 228 70 80,"Psychiatrie, Psychotherapie",https://www.mzg.ch/,https://www.google.ch/search?q=Medizinisches+Zentrum+Zürich,Gruppenpraxis,https://www.onedoc.ch/de/medizinisches-zentrum/zurich/ewtn/medizinisches-zentrum,1,"zuweisung, für ärzte"
medVadis - Ärztezentrum Engstringen,"Im Zentrum 1, 8102 Oberengstringen",Im Zentrum 1,8102,Oberengstringen,Zürich,044 750 43 43,Allgemeine Innere Medizin,https://www.medvadis.ch/netzwerk/aerztezentrum-engstringen,https://www.google.ch/search?q=medVadis+-+Ärztezentrum+Engstringen+Oberengstringen,Gruppenpraxis,https://www.onedoc.ch/de/medizinisches-zentrum/oberengstringen/ewp4/medvadis-arztezentrum-engstringen,0,
Medizinisches Zentrum Römerhof GmbH,"Klosbachstrasse 116, 8032 Zürich",Klosbachstrasse 116,8032,Zürich,Zürich,043 244 81 61,"Allgemeine Innere Medizin, Orthopädische Chirurgie",https://mzr.ch/,https://www.google.ch/search?q=Medizinisches+Zentrum+Römerhof+GmbH+Zürich,Gruppenpraxis,https://www.onedoc.ch/de/medizinisches-zentrum/zurich/emh6/medizinisches-zentrum-romerhof-gmbh,0,
mediX praxis altstetten,"Hohlstrasse 556, 8048 Zürich",Hohlstrasse 556,8048,Zürich,Zürich,044 438 80 80,"Allgemeine Innere Medizin, Chirurgie, Gynäkologie und Geburtshilfe, HNO (Hals-, Nasen-, Ohrenheilkunde), Hausarztmedizin (Allgemeinmedizin), Orthopädische Chirurgie, Urologie",https://www.medix-praxis-altstetten.ch/,https://www.google.ch/search?q=mediX+praxis+altstetten+Zürich,Gruppenpraxis,https://www.onedoc.ch/de/medizinisches-zentrum/zurich/ewqo/medix-praxis-altstetten,0,
Medipark Swiss - Medipark Gesundheitszentrum,"Thurgauerstrasse 40, 8050 Zürich",Thurgauerstrasse 40,8050,Zürich,Zürich,044 204 94 00,"Allgemeine Innere Medizin, Gynäkologie und Geburtshilfe, Homöopathie, Neurologie",https://medipark.swiss/,https://www.google.ch/search?q=Medipark+Swiss+-+Medipark+Gesundheitszentrum+Zürich,Gruppenpraxis,https://www.onedoc.ch/de/medizinisches-zentrum/zurich/erg9/medipark-swiss-medipark-gesundheitszentrum,0,
Medizinisches Zentrum Seegarten,"Seestrasse 155, 8802 Kilchberg",Seestrasse 155,8802,Kilchberg,Zürich,044 716 48 48,Allgemeine Innere Medizin,https://www.sgk.swiss/,https://www.google.ch/search?q=Medizinisches+Zentrum+Seegarten+Kilchberg,Gruppenpraxis,https://www.onedoc.ch/de/medizinisches-zentrum/kilchberg/exsw/medizinisches-zentrum-seegarten,0,
medVadis - Ärztezentrum Birmensdorf,"Dorfstrasse 5, 8903 Birmensdorf",Dorfstrasse 5,8903,Birmensdorf,Zürich,044 737 37 11,"Allgemeine Innere Medizin, Gynäkologie und Geburtshilfe, Pädiatrie",https://www.medvadis.ch/netzwerk/aerztezentrum-birmensdorf,https://www.google.ch/search?q=medVadis+-+Ärztezentrum+Birmensdorf+Birmensdorf,Gruppenpraxis,https://www.onedoc.ch/de/medizinisches-zentrum/birmensdorf/ewj8/medvadis-arztezentrum-birmensdorf,0,
Medizinisches Zentrum Geissberg,"Haldenstrasse 64, 8302 Kloten",Haldenstrasse 64,8302,Kloten,Zürich,044 804 70 80,"Allgemeine Innere Medizin, Hausarztmedizin (Allgemeinmedizin), Psychiatrie, Psychotherapie",https://www.mzg.ch/kloten-2/,https://www.google.ch/search?q=Medizinisches+Zentrum+Geissberg+Kloten,Gruppenpraxis,https://www.onedoc.ch/de/medizinisches-zentrum/kloten/ewkd/medizinisches-zentrum-geissberg,1,"zuweisung, für ärzte"
medVadis - Ärztezentrum Urdorf,"Birmensdorferstrasse 87, 8902 Urdorf",Birmensdorferstrasse 87,8902,Urdorf,Zürich,044 735 66 88,"Allgemeine Innere Medizin, Hausarztmedizin (Allgemeinmedizin)",https://www.medvadis.ch/netzwerk/aerztezentrum-urdorf,https://www.google.ch/search?q=medVadis+-+Ärztezentrum+Urdorf+Urdorf,Gruppenpraxis,https://www.onedoc.ch/de/medizinisches-zentrum/urdorf/ewko/medvadis-arztezentrum-urdorf,0,
Medbase Zürich Wiedikon,"Seebahnstrasse 89, 8003 Zürich",Seebahnstrasse 89,8003,Zürich,Zürich,044 404 81 81,"Hausarztmedizin (Allgemeinmedizin), Physiotherapie",https://www.medbase.ch/en/centers/detail/medbase-zurich-wiedikon/,https://www.google.ch/search?q=Medbase+Zürich+Wiedikon+Zürich,Gruppenpraxis,https://www.onedoc.ch/de/medizinisches-zentrum/zurich/eqy5/medbase-zurich-wiedikon,0,
MeinArzt Leimbach,"Leimbachstrasse 231, 8041 Zürich",Leimbachstrasse 231,8041,Zürich,Zürich,044 482 40 01,Unknown,https://www.moneyhouse.ch/de/company/meinarzt-in-zuerich-leimbach-gmbh-in-21254557371,https://www.google.ch/search?q=MeinArzt+Leimbach+Zürich,Gruppenpraxis,https://www.onedoc.ch/de/medizinisches-zentrum/zurich/e02f/meinarzt-leimbach,0,
mediX notfallpraxis,"Badenerstrasse 41, 8004 Zürich",Badenerstrasse 41,8004,Zürich,Zürich,044 298 50 50,"Allgemeine Innere Medizin, Chirurgie, Dermatologie und Venerologie, Hausarztmedizin (Allgemeinmedizin), Orthopädische Chirurgie, Pädiatrie",https://www.medix-notfallpraxis.ch/,https://www.google.ch/search?q=mediX+notfallpraxis+Zürich,Gruppenpraxis,https://www.onedoc.ch/de/medizinisches-zentrum/zurich/eq2b/medix-notfallpraxis,0,
ORL-Zentrum,"Witellikerstrasse 40, 8008 Zürich",Witellikerstrasse 40,8008,Zürich,Zürich,044 387 28 00,"Allergologie und Immunologie, HNO (Hals-, Nasen-, Ohrenheilkunde)",https://www.orl-zentrum.ch/,https://www.google.ch/search?q=ORL-Zentrum+Zürich,Gruppenpraxis,https://www.onedoc.ch/de/medizinisches-zentrum/zurich/ewst/orl-zentrum,0,
Neurozentrum Bellevue,"Theaterstrasse 8, 8001 Zürich",Theaterstrasse 8,8001,Zürich,Zürich,044 295 30 45,"Allgemeine Innere Medizin, Neurologie",https://www.bmg-swiss.ch/neurozentrum-bellevue,https://www.google.ch/search?q=Neurozentrum+Bellevue+Zürich,Gruppenpraxis,https://www.onedoc.ch/de/medizinisches-zentrum/zurich/erll/neurozentrum-bellevue,1,zuweiser
Osteopathie Klinik Impuls,"Bahnhofstrasse 137, 8620 Wetzikon",Bahnhofstrasse 137,8620,Wetzikon,Zürich,044 934 60 77,Osteopathie,https://www.klinik-impuls.ch/fachgebiete/osteopathie/,https://www.google.ch/search?q=Osteopathie+Klinik+Impuls+Wetzikon,Gruppenpraxis,https://www.onedoc.ch/de/medizinisches-zentrum/wetzikon/e1i6/osteopathie-klinik-impuls,1,"zuweisung, zuweiser"
Permanence Marktplatz Oerlikon,"Querstrasse 15, 8050 Zürich",Querstrasse 15,8050,Zürich,Zürich,044 315 16 36,"Allgemeine Innere Medizin, Gynäkologie und Geburtshilfe, Hausarztmedizin (Allgemeinmedizin)",https://www.permanence-oerlikon.ch/,https://www.google.ch/search?q=Permanence+Marktplatz+Oerlikon+Zürich,Gruppenpraxis,https://www.onedoc.ch/de/medizinisches-zentrum/zurich/eq2m/permanence-marktplatz-oerlikon,0,
Orthopädie Zentrum Zürich Dr. Christian Diezi,"Seestrasse 259, 8038 Zürich",Seestrasse 259,8038,Zürich,Zürich,044 709 16 00,"Orthopädische Chirurgie, Traumatologie",https://www.orthopaedie-diezi.ch/,https://www.google.ch/search?q=Orthopädie+Zentrum+Zürich+Dr.+Christian+Diezi+Zürich,Gruppenpraxis,https://www.onedoc.ch/de/medizinisches-zentrum/zurich/exfn/orthopadie-zentrum-zurich-dr-christian-diezi,0,
Monvia Gesundheitszentrum Wallisellen,"Bahnhofplatz 1b, 8304 Wallisellen",Bahnhofplatz 1b,8304,Wallisellen,Zürich,044 832 59 90,"Allgemeine Innere Medizin, Dermatologie und Venerologie, Gynäkologie und Geburtshilfe, Hausarztmedizin (Allgemeinmedizin), Pädiatrie",https://www.monvia.ch/standorte/wallisellen/start/,https://www.google.ch/search?q=Monvia+Gesundheitszentrum+Wallisellen+Wallisellen,Gruppenpraxis,https://www.onedoc.ch/de/medizinisches-zentrum/wallisellen/ewta/monvia-gesundheitszentrum-wallisellen,0,
OnkoZentrum Zürich Standort Zürich-Enge,"Seestrasse 259, 8038 Zürich",Seestrasse 259,8038,Zürich,Zürich,043 344 33 33,"Allergologie und Immunologie, Allgemeine Innere Medizin, Hämatologie, Medizinische Onkologie",https://ozh.ch/standorte/zh-enge,https://www.google.ch/search?q=OnkoZentrum+Zürich+Standort+Zürich-Enge+Zürich,Gruppenpraxis,https://www.onedoc.ch/de/medizinisches-zentrum/zurich/ewk3/onkozentrum-zurich-standort-zurich-enge,0,
Praxis Chreis4-Psychiatrie und Psychotherapie,"Sihlhallenstrasse 30, 8004 Zürich",Sihlhallenstrasse 30,8004,Zürich,Zürich,076 247 37 32,"Hausarztmedizin (Allgemeinmedizin), Psychiatrie, Psychotherapie",https://praxis-chreis4.ch/,https://www.google.ch/search?q=Praxis+Chreis4-Psychiatrie+und+Psychotherapie+Zürich,Gruppenpraxis,https://www.onedoc.ch/de/medizinisches-zentrum/zurich/ewzz/praxis-chreis4-psychiatrie-und-psychotherapie,0,
"Pinmed AG - Zentrum für Allgemeinmedizin, Chirurgie, Gefässmedizin & Vasektomie","Bahnhofstrasse 15a, 8304 Wallisellen",Bahnhofstrasse 15a,8304,Wallisellen,Zürich,044 518 80 00,"COVID-19 Impfung, Chirurgie, Gefässchirurgie, Hausarztmedizin (Allgemeinmedizin), Herzchirurgie, Kardiologie, Klinische Pharmakologie und Toxikologie, Urologie, Venenheilkunde, Virtuelle Notfallberatung für Erwachsene, Arrhythmie, Arterielle Hypertonie, Benigne Prostatahyperplasie (BPH) | Prostatavergrösserung, Blasenkrebs | Blasenkarzinom, Echokardiografie | Herzultraschall, Ergometrie | Belastungstest | Leistungstest, Gefässspezialist, Harninkontinenz | Blasenschwäche, Herz-Kreislauf-Prävention | CardioCheck, Krampfadern | Besenreiser | Varikosis | Varikose, Nierenkrebs | Nierenkarzinom, Prostatakrebs | Prostatakarzinom, Vasektomie | Unterbindung | Männliche Sterilisation, Vorsorgeuntersuchung Harnwegsinfektionen",https://pinmed.ch/,"https://www.google.ch/search?q=Pinmed+AG+-+Zentrum+für+Allgemeinmedizin,+Chirurgie,+Gefässmedizin+&+Vasektomie+Wallisellen",Gruppenpraxis,https://www.onedoc.ch/de/medizinisches-zentrum/wallisellen/e2vz/pinmed-ag-zentrum-fur-allgemeinmedizin-chirurgie-gefassmedizin-vasektomie,1,zuweisung
Praxis Bullingerplatz,"Stauffacherstrasse 234, 8004 Zürich",Stauffacherstrasse 234,8004,Zürich,Zürich,044 296 66 33,Allgemeine Innere Medizin,https://praxisbullingerplatz.ch/,https://www.google.ch/search?q=Praxis+Bullingerplatz+Zürich,Gruppenpraxis,https://www.onedoc.ch/de/medizinisches-zentrum/zurich/ewnb/praxis-bullingerplatz,0,
Praxis Dr. med. Daniel Goessi,"Schickstrasse 11, 8400 Winterthur",Schickstrasse 11,8400,Winterthur,Zürich,052 301 05 05,Chirurgie,https://drgoessi.ch/,https://www.google.ch/search?q=Praxis+Dr.+med.+Daniel+Goessi+Winterthur,Gruppenpraxis,https://www.onedoc.ch/de/medizinisches-zentrum/winterthur/ex01/praxis-dr-med-daniel-goessi,1,zuweiser
PLAZA Kliniken,"Oberlandstrasse 100, 8610 Uster",Oberlandstrasse 100,8610,Uster,Zürich,044 940 49 49,"Allergologie und Immunologie, Chirurgie, Dermatologie und Venerologie, Gefässchirurgie, Kosmetik, Lasermedizin, Plastische, rekonstruktive und ästhetische Chirurgie, Podologie, Radiologie, Venenheilkunde, Ästhetische Medizin, Abdominoplastik | Bauchdeckenstraffung | Bauchchirurgie, Akne, Allergie | AllergoTest | Allergieabklärung, Anti-Falten-Behandlung, Behandlung von Narben, Blepharoplastik | Augenlidchirurgie, Brustimplantat | Brustvergrösserung, Brustrekonstruktion, Brustverkleinerung, Ekzem, Entfernung von Muttermalen | Naevus Exzision, Fusspflege, Fusspilz | Nagelpilz, Hautcheck, Hautpilz | Hautmykose, Hyperhidrose | Übermässiges Schwitzen, Injektion von Botulinumtoxin, Injektion von Hyaluronsäure, Kryotherapie | Kältetherapie, Laser Haarentfernung, Microneedling, Podologische Untersuchung | Podologisches Gutachten, Psoriasis | Schuppenflechte, Sexuell übertragbare Krankheiten | Sexuell übertragbare Infektionen (STD/STI), Tattooentfernung, Warze | Warzenbehandlung, Ästhetischer Laser",https://plazakliniken.ch/,https://www.google.ch/search?q=PLAZA+Kliniken+Uster,Gruppenpraxis,https://www.onedoc.ch/de/medizinisches-zentrum/uster/ewk6/plaza-kliniken,0,
Praxis am Bahnhof,"Dorfstrasse 43, 8630 Rüti ZH",Dorfstrasse 43,8630,Rüti ZH,Zürich,055 555 05 05,"Allgemeine Innere Medizin, Dermatologie und Venerologie, Klinische Pharmakologie und Toxikologie, Orthopädische Chirurgie, Plastische, rekonstruktive und ästhetische Chirurgie, Pädiatrie",https://www.praxisambahnhof.ch/,https://www.google.ch/search?q=Praxis+am+Bahnhof+Rüti+ZH,Gruppenpraxis,https://www.onedoc.ch/de/medizinisches-zentrum/ruti/eueb/praxis-am-bahnhof,1,"zuweisung, zuweiser"
Praxis Rebhalden,"Gerlisbergstrasse 3, 8303 Bassersdorf",Gerlisbergstrasse 3,8303,Bassersdorf,Zürich,044 838 60 33,"Allgemeine Innere Medizin, Gynäkologie und Geburtshilfe, Orthopädische Chirurgie",https://www.rebhalden-praxis.ch/,https://www.google.ch/search?q=Praxis+Rebhalden+Bassersdorf,Gruppenpraxis,https://www.onedoc.ch/de/medizinisches-zentrum/bassersdorf/et1k/praxis-rebhalden,0,
Praxisgemeinschaft Altstetten,"Eugen Huber-Strasse 16, 8048 Zürich",Eugen Huber-Strasse 16,8048,Zürich,Zürich,044 439 90 10,Allgemeine Innere Medizin,https://www.pg-altstetten.ch/,https://www.google.ch/search?q=Praxisgemeinschaft+Altstetten+Zürich,Gruppenpraxis,https://www.onedoc.ch/de/medizinisches-zentrum/zurich/ewhc/praxisgemeinschaft-altstetten,0,
Monvia Gesundheitszentrum Winterthur,"Bahnhofplatz 12, 8400 Winterthur",Bahnhofplatz 12,8400,Winterthur,Zürich,052 260 59 60,Pädiatrie,https://www.monvia.ch/standorte/winterthur/start/,https://www.google.ch/search?q=Monvia+Gesundheitszentrum+Winterthur+Winterthur,Gruppenpraxis,https://www.onedoc.ch/de/medizinisches-zentrum/winterthur/ewut/monvia-gesundheitszentrum-winterthur,0,
OnkoZentrum Hirslanden,"Witellikerstrasse 40, 8008 Zürich",Witellikerstrasse 40,8008,Zürich,Zürich,044 387 37 80,"Allgemeine Innere Medizin, Hämatologie, Medizinische Onkologie",https://www.hirslanden.ch/de/klinik-hirslanden/centers/klinik-haematologie-onkologie-hirslanden-zuerich.html,https://www.google.ch/search?q=OnkoZentrum+Hirslanden+Zürich,Gruppenpraxis,https://www.onedoc.ch/de/medizinisches-zentrum/zurich/er4h/onkozentrum-hirslanden,1,"zuweiser, für ärzte"
Praxis med-in,"Bertastrasse 99, 8003 Zürich",Bertastrasse 99,8003,Zürich,Zürich,044 461 18 44,"Allgemeine Innere Medizin, Hausarztmedizin (Allgemeinmedizin), Urologie",https://www.med-in.ch/,https://www.google.ch/search?q=Praxis+med-in+Zürich,Gruppenpraxis,https://www.onedoc.ch/de/medizinisches-zentrum/zurich/ewsy/praxis-med-in,0,
Rautipraxis,"Rautistrasse 55, 8047 Zürich",Rautistrasse 55,8047,Zürich,Zürich,044 577 70 50,"Allgemeine Innere Medizin, Gynäkologie und Geburtshilfe, HNO (Hals-, Nasen-, Ohrenheilkunde)",https://www.rautipraxis.ch/,https://www.google.ch/search?q=Rautipraxis+Zürich,Gruppenpraxis,https://www.onedoc.ch/de/medizinisches-zentrum/zurich/ewhr/rautipraxis,0,
Psychcentral am Central,"Weinbergstrasse 26, 8001 Zürich",Weinbergstrasse 26,8001,Zürich,Zürich,044 262 85 50,"Neurologie, Psychiatrie, Psychotherapie",https://psychcentral.ch/,https://www.google.ch/search?q=Psychcentral+am+Central+Zürich,Gruppenpraxis,https://www.onedoc.ch/de/medizinisches-zentrum/zurich/ewg2/psychcentral-am-central,0,
Rhypraxis,"Schützenstrasse 29, 8245 Feuerthalen",Schützenstrasse 29,8245,Feuerthalen,Zürich,052 647 47 37,"Allgemeine Innere Medizin, Gynäkologie und Geburtshilfe, Hausarztmedizin (Allgemeinmedizin)",https://www.rhypraxis.ch/,https://www.google.ch/search?q=Rhypraxis+Feuerthalen,Gruppenpraxis,https://www.onedoc.ch/de/medizinisches-zentrum/feuerthalen/ewkc/rhypraxis,0,
Praxis Dr. med. Rapp Solveig,"Poststrasse 6, 8001 Zürich",Poststrasse 6,8001,Zürich,Zürich,044 213 12 33,Dermatologie und Venerologie,https://derma-zurich.ch/,https://www.google.ch/search?q=Praxis+Dr.+med.+Rapp+Solveig+Zürich,Gruppenpraxis,https://www.onedoc.ch/de/medizinisches-zentrum/zurich/ewz9/praxis-dr-med-rapp-solveig,0,
Praxisgemeinschaft am Meierhof,"Limmattalstrasse 177, 8049 Zürich",Limmattalstrasse 177,8049,Zürich,Zürich,044 341 86 00,Allgemeine Innere Medizin,https://www.praxis-meierhof.ch/,https://www.google.ch/search?q=Praxisgemeinschaft+am+Meierhof+Zürich,Gruppenpraxis,https://www.onedoc.ch/de/medizinisches-zentrum/zurich/eprc/praxisgemeinschaft-am-meierhof,0,
Praxiszentrum Möwe,"Kirchgasse 4, 8620 Wetzikon",Kirchgasse 4,8620,Wetzikon,Zürich,044 970 28 58,"Allgemeine Innere Medizin, Gynäkologie und Geburtshilfe",https://www.xn--praxiszentrum-mwe-e0b.ch/,https://www.google.ch/search?q=Praxiszentrum+Möwe+Wetzikon,Gruppenpraxis,https://www.onedoc.ch/de/medizinisches-zentrum/wetzikon/ewf3/praxiszentrum-mowe,0,
SOS Aerzte Turicum,"Weinbergstrasse 68, 8006 Zürich",Weinbergstrasse 68,8006,Zürich,Zürich,044 360 44 44,Hausarztmedizin (Allgemeinmedizin),https://www.sos-aerzte.ch/en/,https://www.google.ch/search?q=SOS+Aerzte+Turicum+Zürich,Gruppenpraxis,https://www.onedoc.ch/de/medizinisches-zentrum/zurich/e1cw/sos-aerzte-turicum,0,
Smoothline,"Bahnhofstrasse 84, 8001 Zürich",Bahnhofstrasse 84,8001,Zürich,Zürich,044 212 90 00,"Allgemeine Innere Medizin, Hausarztmedizin (Allgemeinmedizin), Orthopädische Chirurgie, Plastische, rekonstruktive und ästhetische Chirurgie",https://www.smoothline.ch/en,https://www.google.ch/search?q=Smoothline+Zürich,Gruppenpraxis,https://www.onedoc.ch/de/medizinisches-zentrum/zurich/ewmz/smoothline,0,
SportClinic Zurich Hirslanden,"Witellikerstrasse 40, 8008 Zürich",Witellikerstrasse 40,8008,Zürich,Zürich,044 387 29 77,"Chirurgie, Orthopädie, Orthopädische Chirurgie, Traumatologie",https://www.hirslanden.ch/en/klinik-hirslanden/centers/sportclinic-zurich---hirslanden-klinik-hirslanden.html,https://www.google.ch/search?q=SportClinic+Zurich+Hirslanden+Zürich,Gruppenpraxis,https://www.onedoc.ch/de/medizinisches-zentrum/zurich/ewza/sportclinic-zurich-hirslanden,0,
Swiss Augenzentrum - Dr. Schramm und Partner,"Schaffhauserstrasse 347, 8050 Zürich",Schaffhauserstrasse 347,8050,Zürich,Zürich,044 310 38 48,"Augenheilkunde, Hausarztmedizin (Allgemeinmedizin)",https://schrammundpartner.ch/,https://www.google.ch/search?q=Swiss+Augenzentrum+-+Dr.+Schramm+und+Partner+Zürich,Gruppenpraxis,https://www.onedoc.ch/de/medizinisches-zentrum/zurich/ewjs/swiss-augenzentrum-dr-schramm-und-partner,0,
Rosengarten Praxis,"Bahnhofstrasse 231, 8623 Wetzikon",Bahnhofstrasse 231,8623,Wetzikon,Zürich,043 495 29 19,"Gynäkologie und Geburtshilfe, Pädiatrie",https://www.rosengarten-praxis.ch/,https://www.google.ch/search?q=Rosengarten+Praxis+Wetzikon,Gruppenpraxis,https://www.onedoc.ch/de/medizinisches-zentrum/wetzikon/ewrr/rosengarten-praxis,0,
SportClinic Zurich Seebahnstrasse,"Seebahnstrasse 89, 8003 Zürich",Seebahnstrasse 89,8003,Zürich,Zürich,044 450 36 28,Physiotherapie,https://www.sportclinic.ch/de/Standort/717/Seebahnstrasse/Seebahnstrasse.htm,https://www.google.ch/search?q=SportClinic+Zurich+Seebahnstrasse+Zürich,Gruppenpraxis,https://www.onedoc.ch/de/medizinisches-zentrum/zurich/e8rl/sportclinic-zurich-seebahnstrasse,0,
SportClinic Zurich Sihlcity,"Giesshübelstrasse 15, 8045 Zürich",Giesshübelstrasse 15,8045,Zürich,Zürich,044 287 86 50,"Allgemeine Innere Medizin, Orthopädische Chirurgie, Physikalische und Rehabilitative Medizin, Physiotherapie, Pädiatrie, Radiologie, Traditionelle Chinesische Medizin (TCM)",https://www.sportclinic.ch/de/Standort/718/SportClinic-Zurich-Sihlcity.htm,https://www.google.ch/search?q=SportClinic+Zurich+Sihlcity+Zürich,Gruppenpraxis,https://www.onedoc.ch/de/medizinisches-zentrum/zurich/ewp5/sportclinic-zurich-sihlcity,0,
sihldoc4kids,"Giesshübelstrasse 15, 8045 Zürich",Giesshübelstrasse 15,8045,Zürich,Zürich,044 481 46 46,"Hausarztmedizin (Allgemeinmedizin), Pädiatrie",https://www.sihldoc4kids.ch/,https://www.google.ch/search?q=sihldoc4kids+Zürich,Gruppenpraxis,https://www.onedoc.ch/de/medizinisches-zentrum/zurich/et5p/sihldoc4kids,0,
Swiss Medi Kids Winterthur,"Archplatz 2, 3. Etage, 8400 Winterthur",Archplatz 2,,3. Etage,Zürich,052 511 10 10,"Allgemeine Innere Medizin, Hausarztmedizin (Allgemeinmedizin), Kinderchirurgie, Pädiatrie",https://www.swissmedikids.ch/en/,https://www.google.ch/search?q=Swiss+Medi+Kids+Winterthur+3.+Etage,Gruppenpraxis,https://www.onedoc.ch/de/medizinisches-zentrum/winterthur/etzn/swiss-medi-kids-winterthur,0,
Swiss Medi Kids Zürich,"Bahnhofplatz 9, 4. Etage, 8001 Zürich",Bahnhofplatz 9,,4. Etage,Zürich,043 343 00 00,"Allgemeine Innere Medizin, Hausarztmedizin (Allgemeinmedizin), Kinderchirurgie, Pädiatrie",https://www.swissmedikids.ch/en/,https://www.google.ch/search?q=Swiss+Medi+Kids+Zürich+4.+Etage,Gruppenpraxis,https://www.onedoc.ch/de/medizinisches-zentrum/zurich/etzm/swiss-medi-kids-zurich,0,
Swiss Medi Kids Winterthur,"Archplatz 2, 8400 Winterthur",Archplatz 2,8400,Winterthur,Zürich,052 511 10 10,COVID-19 Test,https://www.swissmedikids.ch/en/location/winterthur/,https://www.google.ch/search?q=Swiss+Medi+Kids+Winterthur+Winterthur,Gruppenpraxis,https://www.onedoc.ch/de/medizinisches-zentrum/winterthur/e4x7/swiss-medi-kids-winterthur,0,
Swiss Medi Kids Zürich,"Bahnhofplatz 9, 8001 Zürich",Bahnhofplatz 9,8001,Zürich,Zürich,043 343 00 00,"COVID-19 Test, Pädiatrie, Virtuelle Notfallberatung für Kinder",https://www.swissmedikids.ch/en/,https://www.google.ch/search?q=Swiss+Medi+Kids+Zürich+Zürich,Gruppenpraxis,https://www.onedoc.ch/de/medizinisches-zentrum/zurich/e2mp/swiss-medi-kids-zurich,0,
Swiss Neuro Institute Neurochirurgie,"Witellikerstrasse 40, 8032 Zürich",Witellikerstrasse 40,8032,Zürich,Zürich,044 387 28 60,Neurochirurgie,https://www.snri.ch/en/home/,https://www.google.ch/search?q=Swiss+Neuro+Institute+Neurochirurgie+Zürich,Gruppenpraxis,https://www.onedoc.ch/de/medizinisches-zentrum/zurich/eq4y/swiss-neuro-institute-neurochirurgie,1,"zuweisung, für ärzte"
Vista Augenklinik Zürich,"Sihlstrasse 37, 8001 Zürich",Sihlstrasse 37,8001,Zürich,Zürich,044 250 95 00,"Augenheilkunde, Chirurgie, Hausarztmedizin (Allgemeinmedizin)",https://vista.ch/standort/vista-augenklinik-zuerich,https://www.google.ch/search?q=Vista+Augenklinik+Zürich+Zürich,Gruppenpraxis,https://www.onedoc.ch/de/medizinisches-zentrum/zurich/ergd/vista-augenklinik-zurich,1,"zuweiser, für ärzte"
Talacker Augen Zentrum Zürich,"Pelikanstrasse 18, 8001 Zürich",Pelikanstrasse 18,8001,Zürich,Zürich,044 217 77 11,Augenheilkunde,https://tazz.ch/de-ch/talacker-augen-zentrum-zuerich.html,https://www.google.ch/search?q=Talacker+Augen+Zentrum+Zürich+Zürich,Gruppenpraxis,https://www.onedoc.ch/de/medizinisches-zentrum/zurich/esdw/talacker-augen-zentrum-zurich,1,zuweisung
Winti Vision,"Stadthausstrasse 71, 8400 Winterthur",Stadthausstrasse 71,8400,Winterthur,Zürich,052 203 38 68,"Allgemeine Innere Medizin, Augenheilkunde",,https://www.google.ch/search?q=Winti+Vision+Winterthur,Gruppenpraxis,https://www.onedoc.ch/de/medizinisches-zentrum/winterthur/ewzs/winti-vision,0,
VIVA Hausärzte,"Zürichstrasse 5 , 8180 Bülach",Zürichstrasse 5 ,8180,Bülach,Zürich,044 860 12 77,Allgemeine Innere Medizin,https://www.vivahausaerzte.ch/,https://www.google.ch/search?q=VIVA+Hausärzte+Bülach,Gruppenpraxis,https://www.onedoc.ch/de/medizinisches-zentrum/bulach/e00w/viva-hausarzte,0,
Zentrum für Integrative Onkologie (ZIO) - Paracelsus-Spital Richterswil,"Bergstrasse 16, 8805 Richterswil",Bergstrasse 16,8805,Richterswil,Zürich,044 787 21 21,"Allgemeine Innere Medizin, Hausarztmedizin (Allgemeinmedizin), Hämatologie, Medizinische Onkologie",https://zio.ch/,https://www.google.ch/search?q=Zentrum+für+Integrative+Onkologie+(ZIO)+-+Paracelsus-Spital+Richterswil+Richterswil,Gruppenpraxis,https://www.onedoc.ch/de/medizinisches-zentrum/richterswil/exdj/zentrum-fur-integrative-onkologie-zio-paracelsus-spital-richterswil,1,für ärzte
ZADZ Zentrum für Angst- und Depressionsbehandlung Zürich,"Riesbachstrasse 61, 8008 Zürich",Riesbachstrasse 61,8008,Zürich,Zürich,044 386 66 00,"Hausarztmedizin (Allgemeinmedizin), Kinder- und Jugendpsychiatrie, Psychiatrie, Psychotherapie",https://zadz.ch/en/zadz-4/,https://www.google.ch/search?q=ZADZ+Zentrum+für+Angst-+und+Depressionsbehandlung+Zürich+Zürich,Gruppenpraxis,https://www.onedoc.ch/de/medizinisches-zentrum/zurich/ewqy/zadz-zentrum-fur-angst-und-depressionsbehandlung-zurich,1,"überweisung, zuweiser"
Stroke Center Hirslanden,"Witellikerstrasse 40, 8008 Zürich",Witellikerstrasse 40,8008,Zürich,Zürich,044 387 39 93,Neurologie,https://www.hirslanden.ch/en/klinik-hirslanden/centers/stroke-unit.html,https://www.google.ch/search?q=Stroke+Center+Hirslanden+Zürich,Gruppenpraxis,https://www.onedoc.ch/de/medizinisches-zentrum/zurich/ew43/stroke-center-hirslanden,0,
wollimed ag,"Tannenrauchstrasse 88/90, 8038 Zürich",Tannenrauchstrasse 88/90,8038,Zürich,Zürich,044 482 30 22,"Allgemeine Innere Medizin, Kardiologie",https://www.wollimed.ch/,https://www.google.ch/search?q=wollimed+ag+Zürich,Gruppenpraxis,https://www.onedoc.ch/de/medizinisches-zentrum/zurich/etxx/wollimed-ag,0,
Zentrum für Urologie Zürich - Klinik Hirslanden,"Witellikerstrasse 40, 8032 Zürich",Witellikerstrasse 40,8032,Zürich,Zürich,044 387 20 30,Urologie,https://www.hirslanden.ch/de/klinik-hirslanden/centers/zentrum-fuer-urologie.html,https://www.google.ch/search?q=Zentrum+für+Urologie+Zürich+-+Klinik+Hirslanden+Zürich,Gruppenpraxis,https://www.onedoc.ch/de/medizinisches-zentrum/zurich/eq50/zentrum-fur-urologie-zurich-klinik-hirslanden,1,"zuweiser, für ärzte"
Zentrum für integrative Psychiatrie und,"Weinbergstrasse 29, 8006 Zürich",Weinbergstrasse 29,8006,Zürich,Zürich,044 383 00 01,"Hausarztmedizin (Allgemeinmedizin), Psychiatrie, Psychotherapie",https://www.pukzh.ch/standorte/zentrum-fuer-integrative-psychiatrie/,https://www.google.ch/search?q=Zentrum+für+integrative+Psychiatrie+und+Zürich,Gruppenpraxis,https://www.onedoc.ch/de/medizinisches-zentrum/zurich/ewk8/zentrum-fur-integrative-psychiatrie-und,1,"zuweisung, zuweiser"
Wirbelsäulen- und Schmerz-Clinic Zürich Klinik Hirslanden,"Witellikerstrasse 40, 8032 Zürich",Witellikerstrasse 40,8032,Zürich,Zürich,044 387 97 52,"Orthopädische Chirurgie, Schmerzmedizin, Schmerztherapie, Wirbelsäulenchirurgie",https://www.hirslanden.ch/de/klinik-hirslanden/centers/wirbelsaeulen--und-schmerz-clinic-zuerich---hirslanden-klinik-hi.html,https://www.google.ch/search?q=Wirbelsäulen-+und+Schmerz-Clinic+Zürich+Klinik+Hirslanden+Zürich,Gruppenpraxis,https://www.onedoc.ch/de/medizinisches-zentrum/zurich/ermb/wirbelsaulen-und-schmerz-clinic-zurich-klinik-hirslanden,1,"zuweiser, für ärzte"
Cabinet de groupe Dr. Brunelli / Dr. Fournet Irion,"Avenue de Champel 24, 1206 Genf",Avenue de Champel 24,1206,Genf,Genf,022 830 01 40,Gynäkologie und Geburtshilfe,,https://www.google.ch/search?q=Cabinet+de+groupe+Dr.+Brunelli+/+Dr.+Fournet+Irion+Genf,Gruppenpraxis,https://www.onedoc.ch/de/medizinisches-zentrum/genf/ezmk/cabinet-de-groupe-dr-brunelli-dr-fournet-irion,0,
Cabinet de groupe Dr. Cantero Pérez / Dr. Miserez Zaugg,"Chemin de Beau-Soleil 22, 1206 Genf",Chemin de Beau-Soleil 22,1206,Genf,Genf,022 346 06 06,Gynäkologie und Geburtshilfe,,https://www.google.ch/search?q=Cabinet+de+groupe+Dr.+Cantero+Pérez+/+Dr.+Miserez+Zaugg+Genf,Gruppenpraxis,https://www.onedoc.ch/de/medizinisches-zentrum/genf/es6i/cabinet-de-groupe-dr-cantero-perez-dr-miserez-zaugg,0,
Cabinet de groupe des Dr. de Senarclens,"Avenue Jacob-Daniel Maillard 11, 1217 Meyrin",Avenue Jacob-Daniel Maillard 11,1217,Meyrin,Genf,022 719 60 61,"Allgemeine Innere Medizin, Hausarztmedizin (Allgemeinmedizin)",,https://www.google.ch/search?q=Cabinet+de+groupe+des+Dr.+de+Senarclens+Meyrin,Gruppenpraxis,https://www.onedoc.ch/de/medizinisches-zentrum/meyrin/ezp2/cabinet-de-groupe-des-dr-de-senarclens,0,
Cabinet de groupe Dr. Munier / Dr. Weber,"Chemin de Beau-Soleil 22, 1206 Genf",Chemin de Beau-Soleil 22,1206,Genf,Genf,022 789 48 47,Augenheilkunde,,https://www.google.ch/search?q=Cabinet+de+groupe+Dr.+Munier+/+Dr.+Weber+Genf,Gruppenpraxis,https://www.onedoc.ch/de/medizinisches-zentrum/genf/ezqw/cabinet-de-groupe-dr-munier-dr-weber,0,
Cabinet de groupe Dr. Mossaz / Dr. Ricou,"Chemin de Beau-Soleil 12, 1206 Genf",Chemin de Beau-Soleil 12,1206,Genf,Genf,022 789 56 60,"Allgemeine Innere Medizin, Kardiologie",,https://www.google.ch/search?q=Cabinet+de+groupe+Dr.+Mossaz+/+Dr.+Ricou+Genf,Gruppenpraxis,https://www.onedoc.ch/de/medizinisches-zentrum/genf/etk8/cabinet-de-groupe-dr-mossaz-dr-ricou,0,
Cabinet daccueil périnatal,"Route de Chêne 11, 1207 Genf",Route de Chêne 11,1207,Genf,Genf,022 736 24 40,"Kinder- und Jugendpsychiatrie, Kinderpsychotherapie",https://www.caperinatal.net/,https://www.google.ch/search?q=Cabinet+daccueil+périnatal+Genf,Gruppenpraxis,https://www.onedoc.ch/de/medizinisches-zentrum/genf/ebw8/cabinet-d-accueil-perinatal,0,
AESTHETICS CLINIC - Centre de Chirurgie Plastique & Médecine Esthétique,"Rue du Rhône 17, 1204 Genf",Rue du Rhône 17,1204,Genf,Genf,022 732 22 23,"Kosmetik, Plastische, rekonstruktive und ästhetische Chirurgie, Ästhetische Beratung, Ästhetische Medizin, Anti-Falten-Behandlung, Blepharoplastik | Augenlidchirurgie, Brustimplantat | Brustvergrösserung, Brustverkleinerung, Elektrische Haarentfernung, Fettabsaugung | Liposuktion, Injektion von Botulinumtoxin, Injektion von Hyaluronsäure, Laser Haarentfernung, Microneedling, Peeling, Rhinoplastik | Nasenoperation, Tattooentfernung, Ästhetischer Laser",https://www.aesthetics-ge.ch/,https://www.google.ch/search?q=AESTHETICS+CLINIC+-+Centre+de+Chirurgie+Plastique+&+Médecine+Esthétique+Genf,Gruppenpraxis,https://www.onedoc.ch/de/medizinisches-zentrum/genf/ep7l/aesthetics-clinic-centre-de-chirurgie-plastique-medecine-esthetique,0,
Cabinet de groupe Rue des Deux-Ponts 20 Genève,"Rue des Deux-Ponts 20, 1205 Genf",Rue des Deux-Ponts 20,1205,Genf,Genf,022 329 38 22,"Allgemeine Innere Medizin, Hausarztmedizin (Allgemeinmedizin)",,https://www.google.ch/search?q=Cabinet+de+groupe+Rue+des+Deux-Ponts+20+Genève+Genf,Gruppenpraxis,https://www.onedoc.ch/de/medizinisches-zentrum/genf/es71/cabinet-de-groupe-rue-des-deux-ponts-20-geneve,0,
Cabinet de Rive,"Boulevard Helvétique 26, 1207 Genf",Boulevard Helvétique 26,1207,Genf,Genf,022 731 95 40,Unknown,,https://www.google.ch/search?q=Cabinet+de+Rive+Genf,Gruppenpraxis,https://www.onedoc.ch/de/medizinisches-zentrum/genf/eqdv/cabinet-de-rive,0,
Cabinet Dr. Liengme Nicolas,"Avenue Blanc 49, 1202 Genf",Avenue Blanc 49,1202,Genf,Genf,022 731 06 76,"Hausarztmedizin (Allgemeinmedizin), Kinder- und Jugendpsychiatrie",,https://www.google.ch/search?q=Cabinet+Dr.+Liengme+Nicolas+Genf,Gruppenpraxis,https://www.onedoc.ch/de/medizinisches-zentrum/genf/ebxq/cabinet-dr-liengme-nicolas,0,
Cabinet de groupe Dr. Schils / Dr. Tochon,"Chemin de Beau-Soleil 12, 1206 Genf",Chemin de Beau-Soleil 12,1206,Genf,Genf,022 329 45 42,"Neurochirurgie, Orthopädische Chirurgie",,https://www.google.ch/search?q=Cabinet+de+groupe+Dr.+Schils+/+Dr.+Tochon+Genf,Gruppenpraxis,https://www.onedoc.ch/de/medizinisches-zentrum/genf/ezrd/cabinet-de-groupe-dr-schils-dr-tochon,0,
Centre de l'Oeil Acacias,"Rue des Epinettes 19, 1227 Carouge",Rue des Epinettes 19,1227,Carouge,Genf,022 342 54 55,"Augenheilkunde, Astigmatismus, Augencheck | Untersuchung der Sehkraft | Visustest, Gesichtsfeld, Konjunktivitis | Bindehautentzündung, Presbyopie | Alterssichtigkeit, Sehstörung, Sehtest für den Führerschein, Trockene Augen",https://www.cliniqueoeil-ono.ch/centre/acacias/,https://www.google.ch/search?q=Centre+de+l'Oeil+Acacias+Carouge,Gruppenpraxis,https://www.onedoc.ch/de/medizinisches-zentrum/carouge/ep38/centre-de-l-oeil-acacias,0,
Cabinet Dr Valérie Uldry et Dr Muriel Candolfi,"Boulevard de Saint-Georges 72, 1205 Genf",Boulevard de Saint-Georges 72,1205,Genf,Genf,022 320 43 90,"Pädiatrie, Impfungen bei Kindern | Impfungen bei Säuglingen | Impfberatung Pädiatrie, Pädiatrischer Notfall | Kindernotfall, Vorsorgeuntersuchung bei Kindern | Pädiatrische Vorsorgeuntersuchung | Entwicklungskontrolle",,https://www.google.ch/search?q=Cabinet+Dr+Valérie+Uldry+et+Dr+Muriel+Candolfi+Genf,Gruppenpraxis,https://www.onedoc.ch/de/medizinisches-zentrum/genf/emw/cabinet-dr-valerie-uldry-et-dr-muriel-candolfi,0,
Cabinet Médical du Corbusier,"Rue Le-Corbusier 18, 1208 Genf",Rue Le-Corbusier 18,1208,Genf,Genf,022 704 30 70,"Allgemeine Innere Medizin, Diätetik, Endokrinologie und Diabetologie, Hämatologie, Kardiologie, Medizinische Analyse, Neurologie, Diabetes, Diabetes mellitus Typ 1, Diabetes mellitus Typ 2, Elektrokardiogramm (EKG), Ergometrie | Belastungstest | Leistungstest, Gestationsdiabetes | Schwangerschaftsdiabetes, Holter EKG | Langzeit-EKG, Insulinpumpe, Langzeitblutzuckermessung | Langzeitglukose | HbA1c, Schilddrüsenknoten, Schilddrüsenunterfunktion | Hypothyreose, Schilddrüsenüberfunktion | Hyperthyreose",https://www.cabinet-corbusier.ch/,https://www.google.ch/search?q=Cabinet+Médical+du+Corbusier+Genf,Gruppenpraxis,https://www.onedoc.ch/de/medizinisches-zentrum/genf/ezmq/cabinet-medical-du-corbusier,1,référence
Cabinet Médical de l'Amandolier,"Route de Chêne 34, 1208 Genf",Route de Chêne 34,1208,Genf,Genf,022 707 07 80,"Allgemeine Innere Medizin, Burnout, Kopfschmerzen und Migräne, Vorsorgeuntersuchung | Check up",https://www.cabinet-amandolier.ch/,https://www.google.ch/search?q=Cabinet+Médical+de+l'Amandolier+Genf,Gruppenpraxis,https://www.onedoc.ch/de/medizinisches-zentrum/genf/es7n/cabinet-medical-de-l-amandolier,1,référence
Cabinet Dr. Robyr Susini Romaine,"Avenue Jacob-Daniel Maillard 3, 1217 Meyrin",Avenue Jacob-Daniel Maillard 3,1217,Meyrin,Genf,022 719 79 79,Gynäkologie und Geburtshilfe,,https://www.google.ch/search?q=Cabinet+Dr.+Robyr+Susini+Romaine+Meyrin,Gruppenpraxis,https://www.onedoc.ch/de/medizinisches-zentrum/meyrin/ebxa/cabinet-dr-robyr-susini-romaine,0,
Centre de l'Oeil Plainpalais,"Rue de Carouge 24, 1205 Genf",Rue de Carouge 24,1205,Genf,Genf,022 339 89 89,"Augenheilkunde, Optometrie, Astigmatismus, Augencheck | Untersuchung der Sehkraft | Visustest, Gesichtsfeld, Konjunktivitis | Bindehautentzündung, Pädiatrische Ophthalmologie, Sehstörung, Sehtest für den Führerschein, Trockene Augen, Visuelle Rehabilitation",https://www.cliniqueoeil-ono.ch/centre/plainpalais/,https://www.google.ch/search?q=Centre+de+l'Oeil+Plainpalais+Genf,Gruppenpraxis,https://www.onedoc.ch/de/medizinisches-zentrum/genf/ep35/centre-de-l-oeil-plainpalais,0,
Centre de l'Oeil Chantepoulet,"Rue de Chantepoulet 10, 1201 Genf",Rue de Chantepoulet 10,1201,Genf,Genf,022 732 74 74,"Augenchirurgie, Augenheilkunde, Astigmatismus, Augencheck | Untersuchung der Sehkraft | Visustest, Gesichtsfeld, Konjunktivitis | Bindehautentzündung, Presbyopie | Alterssichtigkeit, Sehstörung, Sehtest für den Führerschein, Trockene Augen",,https://www.google.ch/search?q=Centre+de+l'Oeil+Chantepoulet+Genf,Gruppenpraxis,https://www.onedoc.ch/de/medizinisches-zentrum/genf/ei0y/centre-de-l-oeil-chantepoulet,0,
Uroviva Praxis Bulach,"Zürichstrasse 5, 8180 Bülach",Zürichstrasse 5,8180,Bülach,Zürich,044 365 65 65,Urologie,https://www.uroviva.ch/de/standorte/uebersicht/standort/urologie-praxis-spezialklinik-buelach,https://www.google.ch/search?q=Uroviva+Praxis+Bulach+Bülach,Gruppenpraxis,https://www.onedoc.ch/de/medizinisches-zentrum/bulach/ewl6/uroviva-praxis-bulach,1,"zuweisung, überweisung, zuweiser, für ärzte"
Centre de l'Oeil Malagnou,"Rue Adrien-Lachenal 26, 1207 Genf",Rue Adrien-Lachenal 26,1207,Genf,Genf,022 736 85 86,"Augenheilkunde, Optometrie, Astigmatismus, Augencheck | Untersuchung der Sehkraft | Visustest, Gesichtsfeld, Konjunktivitis | Bindehautentzündung, Pädiatrische Ophthalmologie, Sehstörung, Sehtest für den Führerschein, Trockene Augen, Visuelle Rehabilitation",https://www.cliniqueoeil-ono.ch/centre/malagnou/,https://www.google.ch/search?q=Centre+de+l'Oeil+Malagnou+Genf,Gruppenpraxis,https://www.onedoc.ch/de/medizinisches-zentrum/genf/ep9s/centre-de-l-oeil-malagnou,0,
Centre de l'Oeil Jonction,"Rue des Deux-Ponts 12, 1205 Genf",Rue des Deux-Ponts 12,1205,Genf,Genf,022 322 19 00,"Augenheilkunde, Astigmatismus, Augencheck | Untersuchung der Sehkraft | Visustest, Gesichtsfeld, Konjunktivitis | Bindehautentzündung, Presbyopie | Alterssichtigkeit, Sehstörung, Sehtest für den Führerschein, Trockene Augen",,https://www.google.ch/search?q=Centre+de+l'Oeil+Jonction+Genf,Gruppenpraxis,https://www.onedoc.ch/de/medizinisches-zentrum/genf/ep39/centre-de-l-oeil-jonction,0,
Centre de l'Oeil Vernier,"Route de Montfleury 3, 1214 Vernier",Route de Montfleury 3,1214,Vernier,Genf,022 519 21 30,"Augenheilkunde, Astigmatismus, Augencheck | Untersuchung der Sehkraft | Visustest, Gesichtsfeld, Konjunktivitis | Bindehautentzündung, Presbyopie | Alterssichtigkeit, Sehstörung, Sehtest für den Führerschein, Trockene Augen",https://www.cliniqueoeil-ono.ch/centre/vernier/,https://www.google.ch/search?q=Centre+de+l'Oeil+Vernier+Vernier,Gruppenpraxis,https://www.onedoc.ch/de/medizinisches-zentrum/vernier/ep4a/centre-de-l-oeil-vernier,0,
Centre de l'Oeil Carouge,"Rue Ancienne 45, 1227 Carouge",Rue Ancienne 45,1227,Carouge,Genf,022 343 16 20,"Augenheilkunde, Astigmatismus, Augencheck | Untersuchung der Sehkraft | Visustest, Gesichtsfeld, Konjunktivitis | Bindehautentzündung, Pädiatrische Ophthalmologie, Sehstörung, Sehtest für den Führerschein, Trockene Augen, Visuelle Rehabilitation",https://www.cliniqueoeil-ono.ch/centre/carouge/,https://www.google.ch/search?q=Centre+de+l'Oeil+Carouge+Carouge,Gruppenpraxis,https://www.onedoc.ch/de/medizinisches-zentrum/carouge/ep4c/centre-de-l-oeil-carouge,0,
Centre de Médecine Interne et ses Spécialités - CMIS,"Avenue de la Roseraie 76A, 1205 Genf",Avenue de la Roseraie 76A,1205,Genf,Genf,022 552 32 30,"Allgemeine Innere Medizin, Ernährungsberatung, Hausarztmedizin (Allgemeinmedizin), Neurologie, Rheumatologie, Aktualisierung des Impfbuchs, Aneurysma, Athletenüberwachung, Durchblutungsstörung, Epilepsie, Gedächtnisuntersuchung, Gefässultraschall | Duplexsonographie | Gefässdoppler, Gehirn-MRT | Gehirn-MRI, Hausärztlicher Notfall, Humane Papillomaviren Impfung (HPV) | Gebärmutterhalskrebsimpfung, Karpaltunnelsyndrom, Kognitives Gutachten | Kognitive Untersuchung | Kognitiver Fähigkeitstest, Kopfschmerzen und Migräne, Messung des Blutdrucks, Multiple Sklerose (MS), Neurologische Störungen | Neurologische Probleme, Rückenmarks-MRT | Rückenmarks-MRI, Screening auf Diabetes, Screening auf Kolorektalkrebs | Darmkrebs, Screening auf Osteoporose, Spinalkanalstenose | Spinalkanalverengung, Vorsorgeuntersuchung | Check up",https://cmislacolline.ch/,https://www.google.ch/search?q=Centre+de+Médecine+Interne+et+ses+Spécialités+-+CMIS+Genf,Gruppenpraxis,https://www.onedoc.ch/de/medizinisches-zentrum/genf/eqht/centre-de-medecine-interne-et-ses-specialites-cmis,1,référence
Centre de l'Oeil Vésenaz,"Route de Thonon 42, 1222 Vésenaz",Route de Thonon 42,1222,Vésenaz,Genf,022 752 60 41,"Augenheilkunde, Astigmatismus, Augencheck | Untersuchung der Sehkraft | Visustest, Blepharoplastik | Augenlidchirurgie, Gesichtsfeld, Konjunktivitis | Bindehautentzündung, Presbyopie | Alterssichtigkeit, Sehstörung, Sehtest für den Führerschein, Trockene Augen",https://www.cliniqueoeil-ono.ch/centre/vesenaz/,https://www.google.ch/search?q=Centre+de+l'Oeil+Vésenaz+Vésenaz,Gruppenpraxis,https://www.onedoc.ch/de/medizinisches-zentrum/vesenaz/ep34/centre-de-l-oeil-vesenaz,0,
Centre d' oncologie et d'hématologie (Bâtiment E),"Route de Chêne 110, 1224 Chêne-Bougeries",Route de Chêne 110,1224,Chêne-Bougeries,Genf,022 545 80 16,"Allgemeine Innere Medizin, Hämatologie, Medizinische Onkologie",https://www.hirslanden.ch/fr/clinique-des-grangettes/centres-et-instituts/centre-oncologie.html,https://www.google.ch/search?q=Centre+d'+oncologie+et+d'hématologie+(Bâtiment+E)+Chêne-Bougeries,Gruppenpraxis,https://www.onedoc.ch/de/medizinisches-zentrum/chene-bougeries/es9p/centre-d-oncologie-et-d-hematologie-batiment-e,0,
Centre de l'Oeil Servette,"Rue de la Servette 61, 1202 Genf",Rue de la Servette 61,1202,Genf,Genf,022 919 21 00,"Augenheilkunde, Astigmatismus, Augencheck | Untersuchung der Sehkraft | Visustest, Gesichtsfeld, Keratokonus | Hornhautkegel, Konjunktivitis | Bindehautentzündung, Presbyopie | Alterssichtigkeit, Sehstörung, Sehtest für den Führerschein, Visuelle Rehabilitation",https://www.cliniqueoeil-ono.ch/centre/servette/,https://www.google.ch/search?q=Centre+de+l'Oeil+Servette+Genf,Gruppenpraxis,https://www.onedoc.ch/de/medizinisches-zentrum/genf/ep4b/centre-de-l-oeil-servette,0,
Centre d'oncologie des Eaux-Vives,"Rue Maunoir 26, 1207 Genf",Rue Maunoir 26,1207,Genf,Genf,022 319 77 77,"Allgemeine Innere Medizin, Chirurgie, Dermatologie und Venerologie, Hausarztmedizin (Allgemeinmedizin), Herzchirurgie, Medizinische Onkologie, Radio-Onkologie (Strahlentherapie), Rheumatologie",https://www.swissmedical.net/fr/centres-medicaux/eaux-vives,https://www.google.ch/search?q=Centre+d'oncologie+des+Eaux-Vives+Genf,Gruppenpraxis,https://www.onedoc.ch/de/medizinisches-zentrum/genf/es59/centre-d-oncologie-des-eaux-vives,0,
Centre de Psychothérapie de Varembé,"Rue de Vermont 37, 1202 Genf",Rue de Vermont 37,1202,Genf,Genf,022 795 25 50,"Kinder- und Jugendpsychiatrie, Psychiatrie, Psychotherapie",https://www.magellan.ch/centre/centre-psychotherapie-varembe/,https://www.google.ch/search?q=Centre+de+Psychothérapie+de+Varembé+Genf,Gruppenpraxis,https://www.onedoc.ch/de/medizinisches-zentrum/genf/e3z/centre-de-psychotherapie-de-varembe,0,
Centre médical Chêne-Bourg,"Rue de Genève 20, 1225 Chêne-Bourg",Rue de Genève 20,1225,Chêne-Bourg,Genf,022 349 66 66,"Allgemeine Innere Medizin, Hausarztmedizin (Allgemeinmedizin)",https://cmedcb.ch/,https://www.google.ch/search?q=Centre+médical+Chêne-Bourg+Chêne-Bourg,Gruppenpraxis,https://www.onedoc.ch/de/medizinisches-zentrum/chene-bourg/etfx/centre-medical-chene-bourg,0,
Centre Médical Croix d'Or,"Rue de la Croix-d'Or 7, 1204 Genf",Rue de la Croix-d'Or 7,1204,Genf,Genf,022 310 52 86,"Allgemeine Innere Medizin, Coaching, Coaching / psychologische Beratung, Hypnotherapie, Medizinische Analyse, Notfallmedizin, Paartherapie, Podologie, Sexualtherapie, Blutentnahme für Check up | Blutanalyse für Check up, Burnout, Fusspflege, Fusspilz | Nagelpilz, Haltungsuntersuchung, Hausärztlicher Notfall, Impfberatung, Orthoplastik | Orthosen Anfertigung, Podologische Untersuchung | Podologisches Gutachten, Sucht, Verkehrsmedizinische Kontrolluntersuchung STUFE 1, Vorsorgeuntersuchung | Check up, Warze | Warzenbehandlung",https://www.centremedicalcroixdor.ch/en,https://www.google.ch/search?q=Centre+Médical+Croix+d'Or+Genf,Gruppenpraxis,https://www.onedoc.ch/de/medizinisches-zentrum/genf/ebae1/centre-medical-croix-d-or,0,
Centre Médical ARCHIMED NATIONS,"La Voie-Creuse 16, 1202 Genf",La Voie-Creuse 16,1202,Genf,Genf,022 734 03 03,"Allgemeine Innere Medizin, Chirurgie, Diätetik, Grippeimpfung, Gynäkologie und Geburtshilfe, Handchirurgie, Hausarztmedizin (Allgemeinmedizin), Lasermedizin, Neurochirurgie, Notfallmedizin, Orthopädie, Plastische, rekonstruktive und ästhetische Chirurgie, Pneumologie, Proktologie, Pädiatrie, Senologie, Sportmedizin, Traumatologie, Urologie, Brustspezialist, Erektile Dysfunktion (ED) | Potenzstörung | Erektionsstörung | Impotenz, Harninkontinenz | Blasenschwäche, Impfungen bei Kindern | Impfungen bei Säuglingen | Impfberatung Pädiatrie, Mammographie, Nierensteine, Prostatakrebs | Prostatakarzinom, Pädiatrischer Notfall | Kindernotfall, Vasektomie | Unterbindung | Männliche Sterilisation, Vorsorgeuntersuchung bei Kindern | Pädiatrische Vorsorgeuntersuchung | Entwicklungskontrolle",https://www.archi-med.ch/,https://www.google.ch/search?q=Centre+Médical+ARCHIMED+NATIONS+Genf,Gruppenpraxis,https://www.onedoc.ch/de/medizinisches-zentrum/genf/e70q/centre-medical-archimed-nations,0,
Centre médical de Bernex,"Rue de Bernex 266, 1233 Bernex",Rue de Bernex 266,1233,Bernex,Genf,022 757 77 11,Allgemeine Innere Medizin,http://www.medecin-bernex.ch/,https://www.google.ch/search?q=Centre+médical+de+Bernex+Bernex,Gruppenpraxis,https://www.onedoc.ch/de/medizinisches-zentrum/bernex/ekx/centre-medical-de-bernex,0,
Centre médical 21,"Rue de Chantepoulet 21, 1201 Genf",Rue de Chantepoulet 21,1201,Genf,Genf,022 716 30 40,"Allgemeine Innere Medizin, Hausarztmedizin (Allgemeinmedizin), Klinische Pharmakologie und Toxikologie, Neurochirurgie, Physiotherapie, Psychiatrie, Humane Papillomaviren Impfung (HPV) | Gebärmutterhalskrebsimpfung",https://cmc-ge.ch/,https://www.google.ch/search?q=Centre+médical+21+Genf,Gruppenpraxis,https://www.onedoc.ch/de/medizinisches-zentrum/genf/es9v/centre-medical-21,0,
Centre Médical de Cressy,"Route de Loëx 99, 1232 Confignon",Route de Loëx 99,1232,Confignon,Genf,022 727 04 70,"Gebirgsmedizin, Kosmetik, Sportmedizin",https://www.cmcressy.ch/,https://www.google.ch/search?q=Centre+Médical+de+Cressy+Confignon,Gruppenpraxis,https://www.onedoc.ch/de/medizinisches-zentrum/confignon/ed81/centre-medical-de-cressy,0,
Centre Médical de la Rue de Lausanne,"Rue de Lausanne 80, 1202 Genf",Rue de Lausanne 80,1202,Genf,Genf,022 908 33 33,"Hausarztmedizin (Allgemeinmedizin), Neurologie, Orthopädische Chirurgie, Physiotherapie, Humane Papillomaviren Impfung (HPV) | Gebärmutterhalskrebsimpfung",https://www.magellan.ch/centre/centre-medical-rue-de-lausanne/,https://www.google.ch/search?q=Centre+Médical+de+la+Rue+de+Lausanne+Genf,Gruppenpraxis,https://www.onedoc.ch/de/medizinisches-zentrum/genf/epy7/centre-medical-de-la-rue-de-lausanne,0,
Centre Médical de la Jonction,"Rue des Deux-Ponts 12, 1205 Genf",Rue des Deux-Ponts 12,1205,Genf,Genf,022 322 00 33,"Allgemeine Innere Medizin, Hausarztmedizin (Allgemeinmedizin), Medizinische Analyse, Pädiatrie, Humane Papillomaviren Impfung (HPV) | Gebärmutterhalskrebsimpfung, Impfungen bei Kindern | Impfungen bei Säuglingen | Impfberatung Pädiatrie",https://www.cmjonction.ch/,https://www.google.ch/search?q=Centre+Médical+de+la+Jonction+Genf,Gruppenpraxis,https://www.onedoc.ch/de/medizinisches-zentrum/genf/epyg/centre-medical-de-la-jonction,0,
Centre de pédiatrie Eaux-Vives Gare,"Avenue de la Gare des Eaux-Vives 33, 1207 Genf",Avenue de la Gare des Eaux-Vives 33,1207,Genf,Genf,022 512 13 20,"Pädiatrie, Pädiatrischer Notfall | Kindernotfall",,https://www.google.ch/search?q=Centre+de+pédiatrie+Eaux-Vives+Gare+Genf,Gruppenpraxis,https://www.onedoc.ch/de/medizinisches-zentrum/genf/eba93/centre-de-pediatrie-eaux-vives-gare,0,
Centre médical de la Jonction,"Rue des Deux-Ponts 12, 1205 Genf",Rue des Deux-Ponts 12,1205,Genf,Genf,022 322 00 33,"Allgemeine Innere Medizin, Pädiatrie, Humane Papillomaviren Impfung (HPV) | Gebärmutterhalskrebsimpfung",https://www.cmjonction.ch/,https://www.google.ch/search?q=Centre+médical+de+la+Jonction+Genf,Gruppenpraxis,https://www.onedoc.ch/de/medizinisches-zentrum/genf/etnx/centre-medical-de-la-jonction,0,
Centre médical de Rive,"Rue d'Italie 11, 1204 Genf",Rue d'Italie 11,1204,Genf,Genf,022 311 24 20,Gynäkologie und Geburtshilfe,,https://www.google.ch/search?q=Centre+médical+de+Rive+Genf,Gruppenpraxis,https://www.onedoc.ch/de/medizinisches-zentrum/genf/eyl/centre-medical-de-rive,0,
Centre Médical de Lancy,"Route de Chancy 59c, 1213 Onex",Route de Chancy 59c,1213,Onex,Genf,022 709 02 95,"Allgemeine Innere Medizin, Hausarztmedizin (Allgemeinmedizin), Physiotherapie, Psychiatrie, Psychotherapie",https://www.cmlancy.ch/,https://www.google.ch/search?q=Centre+Médical+de+Lancy+Onex,Gruppenpraxis,https://www.onedoc.ch/de/medizinisches-zentrum/onex/ees1/centre-medical-de-lancy,0,
Centre Médical de la Chapelle,"Chemin de Compostelle 7, 1212 Grand-Lancy",Chemin de Compostelle 7,1212,Grand-Lancy,Genf,022 827 25 25,"Homöopathie, Pädiatrie, Humane Papillomaviren Impfung (HPV) | Gebärmutterhalskrebsimpfung",https://www.cmlachapelle.ch/,https://www.google.ch/search?q=Centre+Médical+de+la+Chapelle+Grand-Lancy,Gruppenpraxis,https://www.onedoc.ch/de/medizinisches-zentrum/grand-lancy/erc/centre-medical-de-la-chapelle,0,
Centre Médical de Meyrin / CMM,"Rue des Lattes 21b, 1217 Meyrin",Rue des Lattes 21b,1217,Meyrin,Genf,022 555 40 00,"Allgemeine Innere Medizin, Grippeimpfung, Gynäkologie und Geburtshilfe, Hausarztmedizin (Allgemeinmedizin), Hypnotherapie, Impfung, Infektiologie, Kinder- und Jugendpsychiatrie, Notfallmedizin, Physiotherapie, Pädiatrie, Pädiatrische Physiotherapie, Schmerzmedizin, Atemphysiotherapie, Entwicklungsbegleitung, HIV-Test, Sexuell übertragbare Krankheiten | Sexuell übertragbare Infektionen (STD/STI), Vorsorgeuntersuchung bei Kindern | Pädiatrische Vorsorgeuntersuchung | Entwicklungskontrolle",https://www.cmmeyrin.ch/,https://www.google.ch/search?q=Centre+Médical+de+Meyrin+/+CMM+Meyrin,Gruppenpraxis,https://www.onedoc.ch/de/medizinisches-zentrum/meyrin/ezu/centre-medical-de-meyrin-cmm,0,
Centre médical de Pont-Rouge,"Place de Pont-Rouge 2, 1212 Lancy",Place de Pont-Rouge 2,1212,Lancy,Genf,022 552 55 44,"Allgemeine Innere Medizin, Klassische Massage, Manuelle Lymphdrainage, Pädiatrie, Reflexologie, Therapeutische Massage",https://www.cmpontrouge.ch/,https://www.google.ch/search?q=Centre+médical+de+Pont-Rouge+Lancy,Gruppenpraxis,https://www.onedoc.ch/de/medizinisches-zentrum/lancy/e1tw/centre-medical-de-pont-rouge,0,
Centre Médical de la Servette,"Avenue De-Luserna 17, 1203 Genf",Avenue De-Luserna 17,1203,Genf,Genf,022 795 25 28,"Allgemeine Innere Medizin, Hausarztmedizin (Allgemeinmedizin), Krankenpflege, Orthopädische Chirurgie",https://www.magellan.ch/centre/centre-medical-servette/,https://www.google.ch/search?q=Centre+Médical+de+la+Servette+Genf,Gruppenpraxis,https://www.onedoc.ch/de/medizinisches-zentrum/genf/epv2/centre-medical-de-la-servette,0,
Centre Médical des Charmilles,"Rue de Lyon 89-91, 1203 Genf",Rue de Lyon 89-91,1203,Genf,Genf,022 319 25 25,"Akupunktur, Diätetik, Gynäkologie und Geburtshilfe, Hausarztmedizin (Allgemeinmedizin), Physiotherapie, Psychiatrie, Pädiatrie, Humane Papillomaviren Impfung (HPV) | Gebärmutterhalskrebsimpfung, Pädiatrischer Notfall | Kindernotfall",https://www.magellan.ch/centre/centre-medical-charmilles/,https://www.google.ch/search?q=Centre+Médical+des+Charmilles+Genf,Gruppenpraxis,https://www.onedoc.ch/de/medizinisches-zentrum/genf/epy4/centre-medical-des-charmilles,0,
Centre Médical du Grand-Lancy,"Avenue des Communes-Réunies 16, 1212 Grand-Lancy",Avenue des Communes-Réunies 16,1212,Grand-Lancy,Genf,022 884 34 10,"Allgemeine Innere Medizin, Endokrinologie und Diabetologie, HNO (Hals-, Nasen-, Ohrenheilkunde), Pädiatrie, Humane Papillomaviren Impfung (HPV) | Gebärmutterhalskrebsimpfung",https://cmgl.ch/,https://www.google.ch/search?q=Centre+Médical+du+Grand-Lancy+Grand-Lancy,Gruppenpraxis,https://www.onedoc.ch/de/medizinisches-zentrum/grand-lancy/es4r/centre-medical-du-grand-lancy,0,
Centre médical de Vésenaz,"Route de Thonon 42, 1222 Vésenaz",Route de Thonon 42,1222,Vésenaz,Genf,022 716 16 16,"Allergologie und Immunologie, Allgemeine Innere Medizin, Anästhesiologie, Chirurgie, Hausarztmedizin (Allgemeinmedizin), Kardiologie, Neurologie, Pneumologie, Pädiatrie, Humane Papillomaviren Impfung (HPV) | Gebärmutterhalskrebsimpfung",https://www.cmvesenaz.ch/,https://www.google.ch/search?q=Centre+médical+de+Vésenaz+Vésenaz,Gruppenpraxis,https://www.onedoc.ch/de/medizinisches-zentrum/vesenaz/es5x/centre-medical-de-vesenaz,1,référence
Centre médical Carteret,"Rue Antoine-Carteret 6, 1202 Genf",Rue Antoine-Carteret 6,1202,Genf,Genf,022 345 66 66,"Allgemeine Innere Medizin, Hausarztmedizin (Allgemeinmedizin), Plastische, rekonstruktive und ästhetische Chirurgie",,https://www.google.ch/search?q=Centre+médical+Carteret+Genf,Gruppenpraxis,https://www.onedoc.ch/de/medizinisches-zentrum/genf/es92/centre-medical-carteret,0,
Centre Médical des Acacias,"Rue des Epinettes 19, 1227 Carouge",Rue des Epinettes 19,1227,Carouge,Genf,022 342 54 55,"Akupunktur, Allgemeine Innere Medizin, Gynäkologie und Geburtshilfe, Pädiatrie, Traditionelle Chinesische Medizin (TCM), Geburt, Hausärztlicher Notfall, Humane Papillomaviren Impfung (HPV) | Gebärmutterhalskrebsimpfung, Impfungen bei Kindern | Impfungen bei Säuglingen | Impfberatung Pädiatrie, Nachtarbeitsuntersuchung, Schwangerschaftsvorsorge | Schwangerschaftsuntersuchung, Verhütung, Verhütungspille | Antibabypille, Vorsorgeuntersuchung | Check up, Windpocken | Varizellen",https://www.cmacacias.ch/,https://www.google.ch/search?q=Centre+Médical+des+Acacias+Carouge,Gruppenpraxis,https://www.onedoc.ch/de/medizinisches-zentrum/carouge/ees2/centre-medical-des-acacias,0,
Centre Médical des Charmilles,"Rue de Lyon 91, 1203 Genf",Rue de Lyon 91,1203,Genf,Genf,022 319 25 25,"Allgemeine Innere Medizin, Kinder- und Jugendpsychiatrie, Psychiatrie, Psychotherapie",https://www.magellan.ch/centre/centre-medical-charmilles/,https://www.google.ch/search?q=Centre+Médical+des+Charmilles+Genf,Gruppenpraxis,https://www.onedoc.ch/de/medizinisches-zentrum/genf/es7h/centre-medical-des-charmilles,0,
Centre Médical du Léman,"Rue Docteur-Alfred-Vincent 17, 1201 Genf",Rue Docteur-Alfred-Vincent 17,1201,Genf,Genf,022 716 06 60,"Hausarztmedizin (Allgemeinmedizin), HIV-Test",https://www.cmleman.ch/,https://www.google.ch/search?q=Centre+Médical+du+Léman+Genf,Gruppenpraxis,https://www.onedoc.ch/de/medizinisches-zentrum/genf/ebbzm/centre-medical-du-leman,0,
"Centre Médical des Charmilles, Pédiatrie","Rue de Lyon 89, 1203 Genf",Rue de Lyon 89,1203,Genf,Genf,022 319 25 29,Pädiatrie,https://www.magellan.ch/centre/centre-medical-charmilles/,"https://www.google.ch/search?q=Centre+Médical+des+Charmilles,+Pédiatrie+Genf",Gruppenpraxis,https://www.onedoc.ch/de/medizinisches-zentrum/genf/ete1/centre-medical-des-charmilles-pediatrie,0,
Centre Médical du Grand-Saconnex,"Rue Sonnex 23, 1218 Le Grand-Saconnex",Rue Sonnex 23,1218,Le Grand-Saconnex,Genf,022 319 18 18,"Gynäkologie und Geburtshilfe, Hausarztmedizin (Allgemeinmedizin), Physiotherapie, Pädiatrie",https://www.magellan.ch/centre/centre-medical-grand-saconnex/,https://www.google.ch/search?q=Centre+Médical+du+Grand-Saconnex+Le+Grand-Saconnex,Gruppenpraxis,https://www.onedoc.ch/de/medizinisches-zentrum/le-grand-saconnex/epy5/centre-medical-du-grand-saconnex,0,
Centre Médical de Plainpalais,"Rue de Carouge 24, 1205 Genf",Rue de Carouge 24,1205,Genf,Genf,022 339 89 89,"Allgemeine Innere Medizin, Gynäkologie und Geburtshilfe, Hausarztmedizin (Allgemeinmedizin), Physiotherapie, Pädiatrie, Humane Papillomaviren Impfung (HPV) | Gebärmutterhalskrebsimpfung",https://www.cmplainpalais.ch/,https://www.google.ch/search?q=Centre+Médical+de+Plainpalais+Genf,Gruppenpraxis,https://www.onedoc.ch/de/medizinisches-zentrum/genf/ei0z/centre-medical-de-plainpalais,0,
