name,address,street,postal_code,city,canton,phone,professions,official_website,google_search_url,type,url,Zuweisung,Triggered_Keywords
360° Kinderwunsch Zentrum Zürich,"Alte Landstrasse 112, 8702 Zollikon",Alte Landstrasse 112,8702,Zollikon,Zürich,044 392 11 11,"Anästhesiologie, Gynäkologie und Geburtshilfe",https://360grad.ch/de/angebot/,https://www.google.ch/search?q=360°+Kinderwunsch+Zentrum+Zürich+Zollikon,Gruppenpraxis,https://www.onedoc.ch/de/gruppenpraxis/zollikon/ewkw/360-kinderwunsch-zentrum-zurich,0,
ACAMED Ärztezentrum Binz,"Gassacherstrasse 12, 8122 Binz",Gassacherstrasse 12,8122,Binz,Zürich,044 980 21 21,Allgemeine Innere Medizin,https://acamed.ch/aerztezentrum-binz/,https://www.google.ch/search?q=ACAMED+Ärztezentrum+Binz+Binz,Gruppenpraxis,https://www.onedoc.ch/de/gruppenpraxis/binz/ewo7/acamed-arztezentrum-binz,1,"Zuweisung, Überweisung"
ACAMED Ärztezentrum Zürich-Luchswiesen,"Winterthurerstrasse 689, 8051 Zürich",Winterthurerstrasse 689,8051,Zürich,Zürich,044 325 12 12,Allgemeine Innere Medizin,https://acamed.ch/aerztezentrum-zuerich-luchswiesen/,https://www.google.ch/search?q=ACAMED+Ärztezentrum+Zürich-Luchswiesen+Zürich,Gruppenpraxis,https://www.onedoc.ch/de/gruppenpraxis/zurich/exzw/acamed-arztezentrum-zurich-luchswiesen,1,"Zuweisung, Überweisung"
ACAMED Arztpraxis Zürich-Altwiesen,"Altwiesenstrasse 222, 8051 Zürich",Altwiesenstrasse 222,8051,Zürich,Zürich,044 322 22 18,"Allgemeine Innere Medizin, Hausarztmedizin (Allgemeinmedizin)",https://acamed.ch/aerztezentrum-zuerich-luchswiesen/,https://www.google.ch/search?q=ACAMED+Arztpraxis+Zürich-Altwiesen+Zürich,Gruppenpraxis,https://www.onedoc.ch/de/gruppenpraxis/zurich/ewm2/acamed-arztpraxis-zurich-altwiesen,1,"Zuweisung, Überweisung"
Activmed Arztpraxis,"Badenerstrasse 21, 8953 Dietikon",Badenerstrasse 21,8953,Dietikon,Zürich,044 740 37 40,Allgemeine Innere Medizin,,https://www.google.ch/search?q=Activmed+Arztpraxis+Dietikon,Gruppenpraxis,https://www.onedoc.ch/de/gruppenpraxis/dietikon/epqu/activmed-arztpraxis,0,
Adimed Zentrum für Adipositas- und Stoffwechselmedizin Winterthur,"Lagerhausstrasse 9, 8400 Winterthur",Lagerhausstrasse 9,8400,Winterthur,Zürich,052 235 05 00,Allgemeine Innere Medizin,https://www.adimed.ch/kontakt,https://www.google.ch/search?q=Adimed+Zentrum+für+Adipositas-+und+Stoffwechselmedizin+Winterthur+Winterthur,Gruppenpraxis,https://www.onedoc.ch/de/gruppenpraxis/winterthur/exbo/adimed-zentrum-fur-adipositas-und-stoffwechselmedizin-winterthur,1,für Ärzte
Adipositas & Stoffwechselzentrum Zürich,"Witellikerstrasse 36, 8008 Zürich",Witellikerstrasse 36,8008,Zürich,Zürich,044 387 40 00,Allgemeine Innere Medizin,https://www.asz-hirslanden.ch/,https://www.google.ch/search?q=Adipositas+&+Stoffwechselzentrum+Zürich+Zürich,Gruppenpraxis,https://www.onedoc.ch/de/gruppenpraxis/zurich/exvp/adipositas-stoffwechselzentrum-zurich,1,"Zuweisung, Zuweiser"
ADUS Klinik,"Breitestrasse 11, 8157 Dielsdorf",Breitestrasse 11,8157,Dielsdorf,Zürich,044 854 64 95,"Chirurgie, Orthopädische Chirurgie, Schmerztherapie, Sportmedizin, Traumatologie, Fusschirurgie | Fussoperation, Fussspezialist, Hüftarthroskopie, Hüftchirurgie | Hüftoperation, Hüftspezialist, Kniearthroskopie, Kniespezialist, Schulterchirurgie | Schulteroperation, Schulterspezialist, Sprunggelenkchirurgie | Sprunggelenkoperation, Sprunggelenksspezialist | Fussgelenksspezialist",https://www.adus-klinik.ch/,https://www.google.ch/search?q=ADUS+Klinik+Dielsdorf,Gruppenpraxis,https://www.onedoc.ch/de/gruppenpraxis/dielsdorf/e73m/adus-klinik,1,"Zuweisung, Überweisung, Zuweiser"
aeromedical.ch,"Dällikerstrasse 15, 8105 Regensdorf",Dällikerstrasse 15,8105,Regensdorf,Zürich,044 840 04 50,Flugmedizin,http://aeromedical.ch/,https://www.google.ch/search?q=aeromedical.ch+Regensdorf,Gruppenpraxis,https://www.onedoc.ch/de/gruppenpraxis/regensdorf/e46z/aeromedical-ch,0,
Aerztehaus Fluntern,"Zürichbergstrasse 70, 8044 Zürich",Zürichbergstrasse 70,8044,Zürich,Zürich,044 256 88 22,"Allgemeine Innere Medizin, Endokrinologie und Diabetologie",,https://www.google.ch/search?q=Aerztehaus+Fluntern+Zürich,Gruppenpraxis,https://www.onedoc.ch/de/gruppenpraxis/zurich/ewht/aerztehaus-fluntern,0,
Age Medical,"Hardturmstrasse 131, 8005 Zürich",Hardturmstrasse 131,8005,Zürich,Zürich,044 342 50 00,Allgemeine Innere Medizin,https://age-medical.ch/,https://www.google.ch/search?q=Age+Medical+Zürich,Gruppenpraxis,https://www.onedoc.ch/de/gruppenpraxis/zurich/exr0/age-medical,1,für Ärzte
Akupunktur Ärztegemeinschaft,"Minervastrasse 10, 8032 Zürich",Minervastrasse 10,8032,Zürich,Zürich,044 834 00 01,"Allgemeine Innere Medizin, Hausarztmedizin (Allgemeinmedizin)",https://www.akupunkturvergleich.ch/d/akupunkturpraxen/akupunktur-aerztegemeinschaft-d:3eh1S8Xed,https://www.google.ch/search?q=Akupunktur+Ärztegemeinschaft+Zürich,Gruppenpraxis,https://www.onedoc.ch/de/gruppenpraxis/zurich/ew2m/akupunktur-arztegemeinschaft,0,
Albispraxis,"Zürichstrasse 16, 8134 Adliswil",Zürichstrasse 16,8134,Adliswil,Zürich,044 712 30 13,"Allgemeine Innere Medizin, Kieferorthopädie, Zahnmedizin",https://www.albispraxis.ch/,https://www.google.ch/search?q=Albispraxis+Adliswil,Gruppenpraxis,https://www.onedoc.ch/de/gruppenpraxis/adliswil/ekkx/albispraxis,0,
allcare.ch Arzt- und Notfallzentrum,"Hardstrasse 221, 8005 Zürich",Hardstrasse 221,8005,Zürich,Zürich,043 311 20 20,Allgemeine Innere Medizin,,https://www.google.ch/search?q=allcare.ch+Arzt-+und+Notfallzentrum+Zürich,Gruppenpraxis,https://www.onedoc.ch/de/gruppenpraxis/zurich/ewmt/allcare-ch-arzt-und-notfallzentrum,0,
allderm,"Guyer-Zeller-Strasse 10, 8620 Wetzikon",Guyer-Zeller-Strasse 10,8620,Wetzikon,Zürich,044 933 55 33,"Allergologie und Immunologie, Dermatologie und Venerologie",https://www.allderm.ch/,https://www.google.ch/search?q=allderm+Wetzikon,Gruppenpraxis,https://www.onedoc.ch/de/gruppenpraxis/wetzikon/exyl/allderm,0,
"allergie+haut2 Facharztklinik für Haut, Allergie und Immunsystem Loren-Allee 22 Uster","Loren-Allee 22, 8610 Uster",Loren-Allee 22,8610,Uster,Zürich,044 515 47 87,"Allergologie und Immunologie, Dermatologie und Venerologie",https://allergie-haut.ch/,"https://www.google.ch/search?q=allergie+haut2+Facharztklinik+für+Haut,+Allergie+und+Immunsystem+Loren-Allee+22+Uster+Uster",Gruppenpraxis,https://www.onedoc.ch/de/gruppenpraxis/uster/exwd/allergie-haut2-facharztklinik-fur-haut-allergie-und-immunsystem-loren-allee-22-uster,0,
AlphaClinic Zürich,"Seidengasse 16, 8001 Zürich",Seidengasse 16,8001,Zürich,Zürich,044 296 96 96,"Manuelle Medizin, Orthopädie, Orthopädische Chirurgie, Schmerztherapie, Sportmedizin, Traumatologie, Wirbelsäulenchirurgie, Fusschirurgie | Fussoperation, Fussspezialist, Hüftarthroskopie, Hüftchirurgie | Hüftoperation, Hüftprothese, Hüftspezialist, Kniearthroskopie, Kniespezialist, Schulterchirurgie | Schulteroperation, Schulterspezialist, Sprunggelenkchirurgie | Sprunggelenkoperation, Sprunggelenksspezialist | Fussgelenksspezialist",https://www.alphaclinic.ch/,https://www.google.ch/search?q=AlphaClinic+Zürich+Zürich,Gruppenpraxis,https://www.onedoc.ch/de/gruppenpraxis/zurich/exho/alphaclinic-zurich,0,
Altstadtpraxis,"Technikumstrasse 90, 8400 Winterthur",Technikumstrasse 90,8400,Winterthur,Zürich,052 260 04 60,"Allgemeine Innere Medizin, Pneumologie",https://www.altstadtpraxis-winterthur.ch/,https://www.google.ch/search?q=Altstadtpraxis+Winterthur,Gruppenpraxis,https://www.onedoc.ch/de/gruppenpraxis/winterthur/ewxr/altstadtpraxis,0,
Ambulatorium Kanonengasse,"Kanonengasse 18, 8004 Zürich",Kanonengasse 18,8004,Zürich,Zürich,044 415 76 10,"Allgemeine Innere Medizin, Hausarztmedizin (Allgemeinmedizin), Kinder- und Jugendpsychiatrie",https://www.stadt-zuerich.ch/de/gesundheit/medizinische-versorgung/medizinische-versorgung-fuer-vulnerable/stadtaerztlicher-dienst/allgemeinmedizinische-sprechstunde.html,https://www.google.ch/search?q=Ambulatorium+Kanonengasse+Zürich,Gruppenpraxis,https://www.onedoc.ch/de/gruppenpraxis/zurich/exor/ambulatorium-kanonengasse,1,Überweisung
angioclinic® Venenzentrum,"Seestrasse 455b, 8038 Zürich",Seestrasse 455b,8038,Zürich,Zürich,044 482 30 30,"Gefässchirurgie, Hausarztmedizin (Allgemeinmedizin), Radiologie, Krampfadern | Besenreiser | Varikosis | Varikose",https://www.angioclinic.ch/de/,https://www.google.ch/search?q=angioclinic®+Venenzentrum+Zürich,Gruppenpraxis,https://www.onedoc.ch/de/gruppenpraxis/zurich/exd8/angioclinic-venenzentrum,1,für Ärzte
Antagon AG,"Lessingstrasse 3, 8002 Zürich",Lessingstrasse 3,8002,Zürich,Zürich,076 580 80 02,"Klassische Massage, Manuelle Lymphdrainage, Medizinische Massage, Reflexologie",https://www.antagon.ch/therapeuten-massagen,https://www.google.ch/search?q=Antagon+AG+Zürich,Gruppenpraxis,https://www.onedoc.ch/de/gruppenpraxis/zurich/e8v0/antagon-ag,0,
apad Arztpraxis auf Dorf,"Allenbergstrasse 2, 8708 Männedorf",Allenbergstrasse 2,8708,Männedorf,Zürich,043 843 30 35,Allgemeine Innere Medizin,https://www.apad.ch/,https://www.google.ch/search?q=apad+Arztpraxis+auf+Dorf+Männedorf,Gruppenpraxis,https://www.onedoc.ch/de/gruppenpraxis/mannedorf/exxw/apad-arztpraxis-auf-dorf,0,
Ärzte am Graben,"Unterer Graben 29, 8400 Winterthur",Unterer Graben 29,8400,Winterthur,Zürich,052 630 07 07,"Allergologie und Immunologie, Allgemeine Innere Medizin, Dermatologie und Venerologie, Gynäkologie und Geburtshilfe, Hausarztmedizin (Allgemeinmedizin), Neurologie, Pädiatrie, Akne, Allergie | AllergoTest | Allergieabklärung, Die Pille danach, Hautcheck, Hautkrebs, Kopfschmerzen und Migräne, Muttermalkontrolle, Neurologische Störungen | Neurologische Probleme, Verhütung, Verkehrsmedizinische Kontrolluntersuchung STUFE 1, Verkehrsmedizinische Kontrolluntersuchung STUFE 2, Vorsorgeuntersuchung Humane Papillomaviren (HPV) | PAP Abstrich",https://arzt-winterthur.ch/,https://www.google.ch/search?q=Ärzte+am+Graben+Winterthur,Gruppenpraxis,https://www.onedoc.ch/de/gruppenpraxis/winterthur/ew14/arzte-am-graben,0,
Ärzte am Grossmünsterplatz,"Grossmünsterplatz 9, 8001 Zürich",Grossmünsterplatz 9,8001,Zürich,Zürich,044 251 93 23,"Allgemeine Innere Medizin, Kardiologie, Physikalische und Rehabilitative Medizin, Rheumatologie",https://www.aerzteamgrossmuensterplatz.ch/,https://www.google.ch/search?q=Ärzte+am+Grossmünsterplatz+Zürich,Gruppenpraxis,https://www.onedoc.ch/de/gruppenpraxis/zurich/ewux/arzte-am-grossmunsterplatz,0,
Ärzte am Rosenberg,"Schaffhauserstrasse 115, 8400 Winterthur",Schaffhauserstrasse 115,8400,Winterthur,Zürich,052 213 55 02,"Allgemeine Innere Medizin, Gynäkologie und Geburtshilfe, Aktualisierung des Impfbuchs, Impfberatung, Reiseberatung, Schwangerschaftsvorsorge | Schwangerschaftsuntersuchung, Verhütung, Verkehrsmedizinische Kontrolluntersuchung STUFE 1, Verkehrsmedizinische Kontrolluntersuchung STUFE 2, Vorsorgeuntersuchung Humane Papillomaviren (HPV) | PAP Abstrich, Vorsorgeuntersuchung | Check up",http://www.aerzte-am-rosenberg.ch/,https://www.google.ch/search?q=Ärzte+am+Rosenberg+Winterthur,Gruppenpraxis,https://www.onedoc.ch/de/gruppenpraxis/winterthur/ewjp/arzte-am-rosenberg,0,
Ärzte Bellevuepraxis Zürich,"Theaterstrasse 14, 8001 Zürich",Theaterstrasse 14,8001,Zürich,Zürich,044 262 44 44,Allgemeine Innere Medizin,http://www.bellevuepraxis.ch/,https://www.google.ch/search?q=Ärzte+Bellevuepraxis+Zürich+Zürich,Gruppenpraxis,https://www.onedoc.ch/de/gruppenpraxis/zurich/exkp/arzte-bellevuepraxis-zurich,0,
Ärzteduo Leuehuus,"Zugerstrasse 37, 8810 Horgen",Zugerstrasse 37,8810,Horgen,Zürich,044 725 04 04,Allgemeine Innere Medizin,http://www.aerzteduo.ch/,https://www.google.ch/search?q=Ärzteduo+Leuehuus+Horgen,Gruppenpraxis,https://www.onedoc.ch/de/gruppenpraxis/horgen/ew94/arzteduo-leuehuus,0,
Ärztegemeinschaft Herrliberg,"Rebhaldenstrasse 25, 8704 Herrliberg",Rebhaldenstrasse 25,8704,Herrliberg,Zürich,044 915 37 27,"Allgemeine Innere Medizin, Hausarztmedizin (Allgemeinmedizin)",https://www.drbaebler.com/,https://www.google.ch/search?q=Ärztegemeinschaft+Herrliberg+Herrliberg,Gruppenpraxis,https://www.onedoc.ch/de/gruppenpraxis/herrliberg/epjb/arztegemeinschaft-herrliberg,0,
Ärztegemeinschaft Reussli,"Reusslistrasse 10, 8172 Niederglatt ZH",Reusslistrasse 10,8172,Niederglatt ZH,Zürich,044 851 06 06,Hausarztmedizin (Allgemeinmedizin),https://www.reusslidoc.ch/,https://www.google.ch/search?q=Ärztegemeinschaft+Reussli+Niederglatt+ZH,Gruppenpraxis,https://www.onedoc.ch/de/gruppenpraxis/niederglatt/ex3m/arztegemeinschaft-reussli,0,
Ärztehaus Fuhr,"Fuhrstrasse 15, 8820 Wädenswil",Fuhrstrasse 15,8820,Wädenswil,Zürich,044 780 17 27,"Allgemeine Innere Medizin, Hausarztmedizin (Allgemeinmedizin)",https://praxisfuhr.ch/,https://www.google.ch/search?q=Ärztehaus+Fuhr+Wädenswil,Gruppenpraxis,https://www.onedoc.ch/de/gruppenpraxis/wadenswil/exae/arztehaus-fuhr,0,
Ärztehaus Küsnacht,"Untere Dorfstrasse 2, 8700 Küsnacht",Untere Dorfstrasse 2,8700,Küsnacht,Zürich,044 912 25 45,Allgemeine Innere Medizin,https://aerztehaus-kuesnacht.ch/,https://www.google.ch/search?q=Ärztehaus+Küsnacht+Küsnacht,Gruppenpraxis,https://www.onedoc.ch/de/gruppenpraxis/kusnacht/ewnd/arztehaus-kusnacht,0,
Ärztehaus Milchbuck,"Schaffhauserstrasse 124, 8057 Zürich",Schaffhauserstrasse 124,8057,Zürich,Zürich,044 362 14 11,"Allgemeine Innere Medizin, Kardiologie",https://www.praxismilchbuck.ch/,https://www.google.ch/search?q=Ärztehaus+Milchbuck+Zürich,Gruppenpraxis,https://www.onedoc.ch/de/gruppenpraxis/zurich/exq1/arztehaus-milchbuck,0,
Ärztehaus Oberdorf,"Usterstrasse 2, 8620 Wetzikon",Usterstrasse 2,8620,Wetzikon,Zürich,044 930 44 44,"Allgemeine Innere Medizin, Hausarztmedizin (Allgemeinmedizin)",https://aerztehaus-oberdorf.ch/praxis,https://www.google.ch/search?q=Ärztehaus+Oberdorf+Wetzikon,Gruppenpraxis,https://www.onedoc.ch/de/gruppenpraxis/wetzikon/ewyz/arztehaus-oberdorf,0,
Ärztehaus Rosenau,"Gladbachstrasse 95, 8044 Zürich",Gladbachstrasse 95,8044,Zürich,Zürich,043 244 93 90,"Chirurgie, Orthopädische Chirurgie",,https://www.google.ch/search?q=Ärztehaus+Rosenau+Zürich,Gruppenpraxis,https://www.onedoc.ch/de/gruppenpraxis/zurich/exre/arztehaus-rosenau,0,
Ärztehaus Seen,"Arbergstrasse 7, 8405 Winterthur",Arbergstrasse 7,8405,Winterthur,Zürich,052 233 41 41,Allgemeine Innere Medizin,https://aerztehaus-seen.ch/,https://www.google.ch/search?q=Ärztehaus+Seen+Winterthur,Gruppenpraxis,https://www.onedoc.ch/de/gruppenpraxis/winterthur/ew0e/arztehaus-seen,0,
Ärzte im Sternen Oerlikon,"Franklinstrasse 1, 8050 Zürich",Franklinstrasse 1,8050,Zürich,Zürich,044 315 65 55,Allgemeine Innere Medizin,https://www.aerzteimsternenoerlikon.ch/,https://www.google.ch/search?q=Ärzte+im+Sternen+Oerlikon+Zürich,Gruppenpraxis,https://www.onedoc.ch/de/gruppenpraxis/zurich/ewwg/arzte-im-sternen-oerlikon,0,
Ärztepraxis am Albis,"Zürichstrasse 67, 8910 Affoltern am Albis",Zürichstrasse 67,8910,Affoltern am Albis,Zürich,044 761 20 80,Allgemeine Innere Medizin,https://www.aerztepraxisamalbis.ch/,https://www.google.ch/search?q=Ärztepraxis+am+Albis+Affoltern+am+Albis,Gruppenpraxis,https://www.onedoc.ch/de/gruppenpraxis/affoltern-am-albis/ew6h/arztepraxis-am-albis,0,
Ärztepraxis Kern,"Adlerstrasse 1, 8600 Dübendorf",Adlerstrasse 1,8600,Dübendorf,Zürich,044 820 30 55,"Allgemeine Innere Medizin, Hausarztmedizin (Allgemeinmedizin)",https://www.aerztepraxiskern.ch/,https://www.google.ch/search?q=Ärztepraxis+Kern+Dübendorf,Gruppenpraxis,https://www.onedoc.ch/de/gruppenpraxis/dubendorf/ewm5/arztepraxis-kern,0,
Ärztepraxis zum Citronenbaum,"Untertor 1, 8400 Winterthur",Untertor 1,8400,Winterthur,Zürich,052 212 60 00,"Allgemeine Innere Medizin, Hausarztmedizin (Allgemeinmedizin)",,https://www.google.ch/search?q=Ärztepraxis+zum+Citronenbaum+Winterthur,Gruppenpraxis,https://www.onedoc.ch/de/gruppenpraxis/winterthur/ewl1/arztepraxis-zum-citronenbaum,0,
Arztpraxis am Bahnhof,"Seestrasse 117, 8810 Horgen",Seestrasse 117,8810,Horgen,Zürich,043 244 20 40,"Allgemeine Innere Medizin, Endokrinologie und Diabetologie, Kardiologie",,https://www.google.ch/search?q=Arztpraxis+am+Bahnhof+Horgen,Gruppenpraxis,https://www.onedoc.ch/de/gruppenpraxis/horgen/ewz4/arztpraxis-am-bahnhof,0,
Arztpraxis Dr. Ilic,"Güterstrasse 10, 8952 Schlieren",Güterstrasse 10,8952,Schlieren,Zürich,044 733 55 33,"Allgemeine Innere Medizin, Hausarztmedizin (Allgemeinmedizin)",https://www.arztpraxis-ilic.ch/,https://www.google.ch/search?q=Arztpraxis+Dr.+Ilic+Schlieren,Gruppenpraxis,https://www.onedoc.ch/de/gruppenpraxis/schlieren/ex05/arztpraxis-dr-ilic,0,
Arztpraxis Friesenberg,"Borrweg 65, 8055 Zürich",Borrweg 65,8055,Zürich,Zürich,044 462 22 32,Allgemeine Innere Medizin,https://praxisfriesenberg.ch/,https://www.google.ch/search?q=Arztpraxis+Friesenberg+Zürich,Gruppenpraxis,https://www.onedoc.ch/de/gruppenpraxis/zurich/ex0e/arztpraxis-friesenberg,0,
Arztpraxis für Frauen und Kinder,"Geissacher 8, 8126 Zumikon",Geissacher 8,8126,Zumikon,Zürich,043 288 07 80,"Hausarztmedizin (Allgemeinmedizin), Pädiatrie",https://www.zumimed.ch/,https://www.google.ch/search?q=Arztpraxis+für+Frauen+und+Kinder+Zumikon,Gruppenpraxis,https://www.onedoc.ch/de/gruppenpraxis/zumikon/ewpg/arztpraxis-fur-frauen-und-kinder,0,
Arztpraxis für Kinder und Jugendliche,"Oberdorfstrasse 21, 8820 Wädenswil",Oberdorfstrasse 21,8820,Wädenswil,Zürich,044 780 41 50,Pädiatrie,https://www.oberdorfpraxis.ch/,https://www.google.ch/search?q=Arztpraxis+für+Kinder+und+Jugendliche+Wädenswil,Gruppenpraxis,https://www.onedoc.ch/de/gruppenpraxis/wadenswil/ew3f/arztpraxis-fur-kinder-und-jugendliche,0,
Arztpraxis Glattpark,"Thurgauerstrasse 106, 8152 Opfikon",Thurgauerstrasse 106,8152,Opfikon,Zürich,044 301 32 50,"Allgemeine Innere Medizin, Gynäkologie und Geburtshilfe, Hausarztmedizin (Allgemeinmedizin)",,https://www.google.ch/search?q=Arztpraxis+Glattpark+Opfikon,Gruppenpraxis,https://www.onedoc.ch/de/gruppenpraxis/opfikon/ewwb/arztpraxis-glattpark,0,
Arztpraxis Hirschwiesen,"Schaffhauserstrasse 188, 8057 Zürich",Schaffhauserstrasse 188,8057,Zürich,Zürich,044 362 70 80,"Allergologie und Immunologie, Allgemeine Innere Medizin, Gynäkologie und Geburtshilfe, Pädiatrie",http://www.arztpraxis-hirschwiesen.ch/,https://www.google.ch/search?q=Arztpraxis+Hirschwiesen+Zürich,Gruppenpraxis,https://www.onedoc.ch/de/gruppenpraxis/zurich/ewq2/arztpraxis-hirschwiesen,0,
Arztpraxis Kreis 9,"Dennlerstrasse 25, 8047 Zürich",Dennlerstrasse 25,8047,Zürich,Zürich,043 311 10 30,Allgemeine Innere Medizin,https://www.arztpraxis-kreis9.ch/,https://www.google.ch/search?q=Arztpraxis+Kreis+9+Zürich,Gruppenpraxis,https://www.onedoc.ch/de/gruppenpraxis/zurich/ewgc/arztpraxis-kreis-9,0,
Arztpraxis Laupen,"Hauptstrasse 36c, 8637 Laupen ZH",Hauptstrasse 36c,8637,Laupen ZH,Zürich,055 246 47 37,"Allgemeine Innere Medizin, Hausarztmedizin (Allgemeinmedizin)",https://arztpraxis-laupen.ch/,https://www.google.ch/search?q=Arztpraxis+Laupen+Laupen+ZH,Gruppenpraxis,https://www.onedoc.ch/de/gruppenpraxis/laupen/eo36/arztpraxis-laupen,0,
Arztpraxis Limmatplatz,"Limmatplatz 1, 8005 Zürich",Limmatplatz 1,8005,Zürich,Zürich,044 272 26 33,Allgemeine Innere Medizin,https://arztpraxis-limmatplatz.ch/,https://www.google.ch/search?q=Arztpraxis+Limmatplatz+Zürich,Gruppenpraxis,https://www.onedoc.ch/de/gruppenpraxis/zurich/ewh0/arztpraxis-limmatplatz,0,
Arztpraxis Ossingen,"Truttikerstrasse 19, 8475 Ossingen",Truttikerstrasse 19,8475,Ossingen,Zürich,052 304 32 11,"Allgemeine Innere Medizin, Hausarztmedizin (Allgemeinmedizin)",https://arztpraxis-ossingen.ch/,https://www.google.ch/search?q=Arztpraxis+Ossingen+Ossingen,Gruppenpraxis,https://www.onedoc.ch/de/gruppenpraxis/ossingen/ewqi/arztpraxis-ossingen,0,
Arztpraxis Riedholz,"Bleulerstrasse 80a, 8008 Zürich",Bleulerstrasse 80a,8008,Zürich,Zürich,044 387 63 98,"Allgemeine Innere Medizin, Hausarztmedizin (Allgemeinmedizin)",https://www.swissepi.ch/wohnwerk/angebote/arztpraxis.html,https://www.google.ch/search?q=Arztpraxis+Riedholz+Zürich,Gruppenpraxis,https://www.onedoc.ch/de/gruppenpraxis/zurich/ewzq/arztpraxis-riedholz,0,
ARZTPRAXIS RÜMLANG,"Obermattenstrasse 7, 8153 Rümlang",Obermattenstrasse 7,8153,Rümlang,Zürich,044 817 29 51,"Allgemeine Innere Medizin, Rheumatologie",https://www.gemeinschaftspraxis-ruemlang.ch/,https://www.google.ch/search?q=ARZTPRAXIS+RÜMLANG+Rümlang,Gruppenpraxis,https://www.onedoc.ch/de/gruppenpraxis/rumlang/exqp/arztpraxis-rumlang,0,
Arztpraxis Schaffner Nikmo,"Grütstrasse 34, 8704 Herrliberg",Grütstrasse 34,8704,Herrliberg,Zürich,044 915 14 15,Allgemeine Innere Medizin,,https://www.google.ch/search?q=Arztpraxis+Schaffner+Nikmo+Herrliberg,Gruppenpraxis,https://www.onedoc.ch/de/gruppenpraxis/herrliberg/ewi4/arztpraxis-schaffner-nikmo,0,
Arztpraxis Schmid Florastrasse 2 Adliswil,"Florastrasse 2, 8134 Adliswil",Florastrasse 2,8134,Adliswil,Zürich,044 710 38 35,Allgemeine Innere Medizin,https://www.arztpraxis-schmid.ch/,https://www.google.ch/search?q=Arztpraxis+Schmid+Florastrasse+2+Adliswil+Adliswil,Gruppenpraxis,https://www.onedoc.ch/de/gruppenpraxis/adliswil/ewvx/arztpraxis-schmid-florastrasse-2-adliswil,0,
Arztpraxis Seebach,"Schaffhauserstrasse 470, 8052 Zürich",Schaffhauserstrasse 470,8052,Zürich,Zürich,043 811 43 46,"Allgemeine Innere Medizin, Pädiatrie",https://www.arztpraxis-seebach.ch/,https://www.google.ch/search?q=Arztpraxis+Seebach+Zürich,Gruppenpraxis,https://www.onedoc.ch/de/gruppenpraxis/zurich/ewpc/arztpraxis-seebach,0,
Arztpraxis-Stadelhofen,"Goethestrasse 22, 8001 Zürich",Goethestrasse 22,8001,Zürich,Zürich,044 252 55 45,"Allgemeine Innere Medizin, Hausarztmedizin (Allgemeinmedizin), Psychiatrie, Psychotherapie",http://www.arztpraxis-stadelhofen.ch/,https://www.google.ch/search?q=Arztpraxis-Stadelhofen+Zürich,Gruppenpraxis,https://www.onedoc.ch/de/gruppenpraxis/zurich/ewr7/arztpraxis-stadelhofen,0,
Arztpraxis Wangen,"Hegnaustrasse 30, 8602 Wangen-Brüttisellen",Hegnaustrasse 30,8602,Wangen-Brüttisellen,Zürich,044 835 25 00,"Allgemeine Innere Medizin, Humane Papillomaviren Impfung (HPV) | Gebärmutterhalskrebsimpfung",https://acamed.ch/arztpraxis-wangen/,https://www.google.ch/search?q=Arztpraxis+Wangen+Wangen-Brüttisellen,Gruppenpraxis,https://www.onedoc.ch/de/gruppenpraxis/wangen-bruttisellen/ew7o/arztpraxis-wangen,1,Zuweisung
Arztpraxis Wiedikon,"Birmensdorferstrasse 51, 8004 Zürich",Birmensdorferstrasse 51,8004,Zürich,Zürich,044 241 82 72,Allgemeine Innere Medizin,https://www.arztpraxis-wiedikon.ch/,https://www.google.ch/search?q=Arztpraxis+Wiedikon+Zürich,Gruppenpraxis,https://www.onedoc.ch/de/gruppenpraxis/zurich/ewix/arztpraxis-wiedikon,0,
Arztpraxis Winkel,"Embracherstrasse 10, 8185 Winkel",Embracherstrasse 10,8185,Winkel,Zürich,044 860 68 88,"Allgemeine Innere Medizin, Anästhesiologie, Intensivmedizin, Notfallmedizin, Verkehrsmedizinische Kontrolluntersuchung STUFE 1, Verkehrsmedizinische Kontrolluntersuchung STUFE 2, Vorsorgeuntersuchung | Check up",https://www.arzt-winkel.ch/,https://www.google.ch/search?q=Arztpraxis+Winkel+Winkel,Gruppenpraxis,https://www.onedoc.ch/de/gruppenpraxis/winkel/exrx/arztpraxis-winkel,0,
Arztzentrum Glattbrugg,"Schaffhauserstrasse 124, 8152 Glattbrugg",Schaffhauserstrasse 124,8152,Glattbrugg,Zürich,044 810 19 19,"Allgemeine Innere Medizin, Chirurgie, Hausarztmedizin (Allgemeinmedizin)",https://arztzentrum-glattbrugg.ch/,https://www.google.ch/search?q=Arztzentrum+Glattbrugg+Glattbrugg,Gruppenpraxis,https://www.onedoc.ch/de/gruppenpraxis/glattbrugg/ewju/arztzentrum-glattbrugg,0,
Ärztzentrum Töss,"Zürcherstrasse 120, 8406 Winterthur",Zürcherstrasse 120,8406,Winterthur,Zürich,052 208 99 11,Allgemeine Innere Medizin,https://www.aerztezentrumtoess.ch/,https://www.google.ch/search?q=Ärztzentrum+Töss+Winterthur,Gruppenpraxis,https://www.onedoc.ch/de/gruppenpraxis/winterthur/exdz/arztzentrum-toss,0,
Ästhetik- und Laserzentrum Zürichsee AG,"Dorfstrasse 94, 8706 Meilen",Dorfstrasse 94,8706,Meilen,Zürich,044 925 20 20,"Allergologie und Immunologie, Dermatologie und Venerologie, Lasermedizin, Ästhetische Medizin, Akne, Behandlung von Narben, Couperose | Rosacea, Hyperhidrose | Übermässiges Schwitzen, Injektion von Botulinumtoxin | Botox, Injektion von Hyaluronsäure, Injektion von plättchenreichem Plasma | PRP | Vampire Lift, Laser Haarentfernung, Mesotherapie, Ästhetischer Laser",https://www.laserepilation.ch/,https://www.google.ch/search?q=Ästhetik-+und+Laserzentrum+Zürichsee+AG+Meilen,Gruppenpraxis,https://www.onedoc.ch/de/gruppenpraxis/meilen/ewxp/asthetik-und-laserzentrum-zurichsee-ag,0,
Augenärzte Parkside,"Bahnhofstrasse 9, 8952 Schlieren",Bahnhofstrasse 9,8952,Schlieren,Zürich,044 733 70 20,"Augenheilkunde, Altersbedingte Makuladegeneration | AMD, Augencheck | Untersuchung der Sehkraft | Visustest, Glaukom | Grüner Star, Katarakt | Grauer Star, Katarakt-Chirurgie | Grauer Star-Operation, Kurzsichtigkeit | Myopie, Pädiatrische Ophthalmologie, Strabismus | Schielen, Vorsorgeuntersuchung Diabetische Retinopathie",https://augenärzteparkside.ch/,https://www.google.ch/search?q=Augenärzte+Parkside+Schlieren,Gruppenpraxis,https://www.onedoc.ch/de/gruppenpraxis/schlieren/ewwp/augenarzte-parkside,0,
Augenärzte Stäfa - Zentrum Bahnhof,"Bahnhofstrasse 25, 8712 Stäfa",Bahnhofstrasse 25,8712,Stäfa,Zürich,044 926 30 90,Unknown,https://www.augenaerzte-staefa.ch/augenarzt/,https://www.google.ch/search?q=Augenärzte+Stäfa+-+Zentrum+Bahnhof+Stäfa,Gruppenpraxis,https://www.onedoc.ch/de/gruppenpraxis/stafa/eq4d/augenarzte-stafa-zentrum-bahnhof,1,Zuweiser
Augenärzte Wetzikon - Zentrum Leue,"Bahnhofstrasse 150, 8620 Wetzikon",Bahnhofstrasse 150,8620,Wetzikon,Zürich,044 930 44 14,Unknown,https://www.augenaerzte-wetzikon.ch/augenarzt/,https://www.google.ch/search?q=Augenärzte+Wetzikon+-+Zentrum+Leue+Wetzikon,Gruppenpraxis,https://www.onedoc.ch/de/gruppenpraxis/wetzikon/eq4c/augenarzte-wetzikon-zentrum-leue,1,Zuweiser
Augenärztliche Praxis,"Gerichtsstrasse 4, 8610 Uster",Gerichtsstrasse 4,8610,Uster,Zürich,043 399 12 21,Augenheilkunde,https://augenzentrum-uster.ch/,https://www.google.ch/search?q=Augenärztliche+Praxis+Uster,Gruppenpraxis,https://www.onedoc.ch/de/gruppenpraxis/uster/ewqz/augenarztliche-praxis,0,
Augenarztpraxis Bahnhofpassage,"Bankstrasse 8, 8610 Uster",Bankstrasse 8,8610,Uster,Zürich,044 940 25 50,Augenheilkunde,,https://www.google.ch/search?q=Augenarztpraxis+Bahnhofpassage+Uster,Gruppenpraxis,https://www.onedoc.ch/de/gruppenpraxis/uster/epja/augenarztpraxis-bahnhofpassage,0,
Augenarztpraxis Degen,"Schaffhauserstrasse 95, 8057 Zürich",Schaffhauserstrasse 95,8057,Zürich,Zürich,044 361 33 34,Augenheilkunde,https://augenarztpraxis-degen.ch/,https://www.google.ch/search?q=Augenarztpraxis+Degen+Zürich,Gruppenpraxis,https://www.onedoc.ch/de/gruppenpraxis/zurich/ewt7/augenarztpraxis-degen,0,
Augenarztpraxis Dr.med. Peter Haydon,"Albisstrasse 12, 8134 Adliswil",Albisstrasse 12,8134,Adliswil,Zürich,044 710 53 53,Augenheilkunde,https://www.haydon.ch/,https://www.google.ch/search?q=Augenarztpraxis+Dr.med.+Peter+Haydon+Adliswil,Gruppenpraxis,https://www.onedoc.ch/de/gruppenpraxis/adliswil/ew5m/augenarztpraxis-dr-med-peter-haydon,0,
Augenarztpraxis Dr. med. univ. Judit Apli Erlenbach,"Bahnhofstrasse 20, 8703 Erlenbach",Bahnhofstrasse 20,8703,Erlenbach,Zürich,044 400 92 77,"Augenheilkunde, Brille, Glaukom | Grüner Star, Pädiatrische Ophthalmologie, Sehtest für den Führerschein, Trockene Augen",https://www.augen-erlenbach.ch/,https://www.google.ch/search?q=Augenarztpraxis+Dr.+med.+univ.+Judit+Apli+Erlenbach+Erlenbach,Gruppenpraxis,https://www.onedoc.ch/de/gruppenpraxis/erlenbach/e8tj/augenarztpraxis-dr-med-univ-judit-apli-erlenbach,0,
Augenarztpraxis Dr. med. univ. Judit Apli Wädenswil,"Gerbestrasse 4, 8820 Wädenswil",Gerbestrasse 4,8820,Wädenswil,Zürich,043 477 81 22,"Augenheilkunde, Brille, Glaukom | Grüner Star, Pädiatrische Ophthalmologie, Sehtest für den Führerschein, Trockene Augen",https://www.augen-waedenswil.ch/,https://www.google.ch/search?q=Augenarztpraxis+Dr.+med.+univ.+Judit+Apli+Wädenswil+Wädenswil,Gruppenpraxis,https://www.onedoc.ch/de/gruppenpraxis/wadenswil/e2qu/augenarztpraxis-dr-med-univ-judit-apli-wadenswil,0,
Augenarztpraxis Effretikon,"Bahnhofstrasse 13, 8307 Effretikon",Bahnhofstrasse 13,8307,Effretikon,Zürich,052 343 23 33,Augenheilkunde,https://www.augenaerztinnen.ch/,https://www.google.ch/search?q=Augenarztpraxis+Effretikon+Effretikon,Gruppenpraxis,https://www.onedoc.ch/de/gruppenpraxis/effretikon/ewnv/augenarztpraxis-effretikon,0,
Augenchirurgie.ch Winterthur,"Stadthausstrasse 51, 8400 Winterthur",Stadthausstrasse 51,8400,Winterthur,Zürich,052 213 70 50,Augenheilkunde,https://www.augenchirurgie.ch/,https://www.google.ch/search?q=Augenchirurgie.ch+Winterthur+Winterthur,Gruppenpraxis,https://www.onedoc.ch/de/gruppenpraxis/winterthur/etin/augenchirurgie-ch-winterthur,1,Zuweisung
Augenklinik Zürich West,"Rautistrasse 55, 8047 Zürich",Rautistrasse 55,8047,Zürich,Zürich,044 545 17 00,Augenheilkunde,https://www.augenklinik-zh.ch/,https://www.google.ch/search?q=Augenklinik+Zürich+West+Zürich,Gruppenpraxis,https://www.onedoc.ch/de/gruppenpraxis/zurich/ewgu/augenklinik-zurich-west,1,Zuweiser
Augenmobil AG,"Engelstrasse 6, 8004 Zürich",Engelstrasse 6,8004,Zürich,Zürich,044 240 10 10,Augenheilkunde,https://www.augenmobil.ch/,https://www.google.ch/search?q=Augenmobil+AG+Zürich,Gruppenpraxis,https://www.onedoc.ch/de/gruppenpraxis/zurich/ewjn/augenmobil-ag,0,
Augenmobil AG Standort Praxis Claridenhof,"Beethovenstrasse 24, 8002 Zürich",Beethovenstrasse 24,8002,Zürich,Zürich,044 242 44 00,Augenheilkunde,https://www.augenpraxis-claridenhof.ch/kontakt/,https://www.google.ch/search?q=Augenmobil+AG+Standort+Praxis+Claridenhof+Zürich,Gruppenpraxis,https://www.onedoc.ch/de/gruppenpraxis/zurich/e80c/augenmobil-ag-standort-praxis-claridenhof,0,
Augenpraxis beim Schauspielhaus,"Hottingerstrasse 2, 8032 Zürich",Hottingerstrasse 2,8032,Zürich,Zürich,044 261 00 76,Augenheilkunde,,https://www.google.ch/search?q=Augenpraxis+beim+Schauspielhaus+Zürich,Gruppenpraxis,https://www.onedoc.ch/de/gruppenpraxis/zurich/eto5/augenpraxis-beim-schauspielhaus,0,
Augenpraxis Weinbergstrasse,"Weinbergstrasse 112, 8006 Zürich",Weinbergstrasse 112,8006,Zürich,Zürich,044 252 73 00,"Augenchirurgie, Augenheilkunde, Altersbedingte Makuladegeneration | AMD, Blepharoplastik | Augenlidchirurgie, Brille, Gesichtsfeld, Glaukom | Grüner Star, Katarakt | Grauer Star, Katarakt-Chirurgie | Grauer Star-Operation, Konjunktivitis | Bindehautentzündung, Okuloplastik, Sehstörung, Sehtest für den Führerschein, Trockene Augen, Vorsorgeuntersuchung Diabetische Retinopathie",https://www.augenpraxis-weinbergstrasse.ch/,https://www.google.ch/search?q=Augenpraxis+Weinbergstrasse+Zürich,Gruppenpraxis,https://www.onedoc.ch/de/gruppenpraxis/zurich/epsd/augenpraxis-weinbergstrasse,0,
Augentagespraxis Bülach,"Sonnenhof 1, 8180 Bülach",Sonnenhof 1,8180,Bülach,Zürich,044 872 90 40,Augenheilkunde,https://augenklinik-buelach.ch/,https://www.google.ch/search?q=Augentagespraxis+Bülach+Bülach,Gruppenpraxis,https://www.onedoc.ch/de/gruppenpraxis/bulach/ewtt/augentagespraxis-bulach,1,Zuweisung
Augen Zentrum Dietikon,"Kirchstrasse 20, 8953 Dietikon",Kirchstrasse 20,8953,Dietikon,Zürich,044 741 06 07,Augenheilkunde,,https://www.google.ch/search?q=Augen+Zentrum+Dietikon+Dietikon,Gruppenpraxis,https://www.onedoc.ch/de/gruppenpraxis/dietikon/eq0a/augen-zentrum-dietikon,0,
AugenZentrumWitikon,"Witikonerstrasse 295, 8053 Zürich",Witikonerstrasse 295,8053,Zürich,Zürich,044 381 58 77,"Augenchirurgie, Augenheilkunde, Altersbedingte Makuladegeneration | AMD, Blepharoplastik | Augenlidchirurgie, Glaukom | Grüner Star, Katarakt | Grauer Star, Katarakt-Chirurgie | Grauer Star-Operation, Kurzsichtigkeit | Myopie, Strabismus | Schielen, Trockene Augen",https://augen-zentrum-witikon.ch/,https://www.google.ch/search?q=AugenZentrumWitikon+Zürich,Gruppenpraxis,https://www.onedoc.ch/de/gruppenpraxis/zurich/ewio/augenzentrumwitikon,0,
AvariMed Medical Center,"Wright-Strasse 7, 8152 Opfikon",Wright-Strasse 7,8152,Opfikon,Zürich,041 552 11 11,"Dermatologie und Venerologie, Akne, Hautcheck, Hautkrebs, Muttermalkontrolle",https://www.avarimed.ch/,https://www.google.ch/search?q=AvariMed+Medical+Center+Opfikon,Gruppenpraxis,https://www.onedoc.ch/de/gruppenpraxis/opfikon/ew4y/avarimed-medical-center,0,
Baermed. Zentrum für Bauchchirurgie,"Witellikerstrasse 40, 8008 Zürich",Witellikerstrasse 40,8008,Zürich,Zürich,044 387 30 70,Chirurgie,https://baermed.ch/,https://www.google.ch/search?q=Baermed.+Zentrum+für+Bauchchirurgie+Zürich,Gruppenpraxis,https://www.onedoc.ch/de/gruppenpraxis/zurich/extn/baermed-zentrum-fur-bauchchirurgie,0,
Bahnhofpraxis Winterthur,"Bahnhofplatz 5a, 8400 Winterthur",Bahnhofplatz 5a,8400,Winterthur,Zürich,052 209 05 90,"Allgemeine Innere Medizin, Hausarztmedizin (Allgemeinmedizin)",https://www.bahnhof-praxis.ch/,https://www.google.ch/search?q=Bahnhofpraxis+Winterthur+Winterthur,Gruppenpraxis,https://www.onedoc.ch/de/gruppenpraxis/winterthur/ew2n/bahnhofpraxis-winterthur,0,
Bauchzentrum Rüti,"Neuwiesenstrasse 9, 8630 Rüti ZH",Neuwiesenstrasse 9,8630,Rüti ZH,Zürich,055 251 50 20,"Allgemeine Innere Medizin, Gastroenterologie",https://www.derbauch.ch/,https://www.google.ch/search?q=Bauchzentrum+Rüti+Rüti+ZH,Gruppenpraxis,https://www.onedoc.ch/de/gruppenpraxis/ruti/eurs/bauchzentrum-ruti,1,"Zuweisung, Zuweiser"
B. Braun Medical Care AG - Nephrologie und Dialysezentrum,"Langmattstrasse 10, 8182 Hochfelden",Langmattstrasse 10,8182,Hochfelden,Zürich,044 872 14 14,"Allgemeine Innere Medizin, Intensivmedizin, Nephrologie",https://www.bbraun.ch/de/patienten/services/dialysezentren/hochfelden.html,https://www.google.ch/search?q=B.+Braun+Medical+Care+AG+-+Nephrologie+und+Dialysezentrum+Hochfelden,Gruppenpraxis,https://www.onedoc.ch/de/gruppenpraxis/hochfelden/eptx/b-braun-medical-care-ag-nephrologie-und-dialysezentrum,0,
B. Braun Medical Care - Nephrologie und Dialysezentrum,"Bahnhofstrasse 104, 8902 Urdorf",Bahnhofstrasse 104,8902,Urdorf,Zürich,044 734 11 77,"Allgemeine Innere Medizin, Nephrologie",https://www.bbraun.ch/de/patienten/services/dialysezentren/urdorf.html,https://www.google.ch/search?q=B.+Braun+Medical+Care+-+Nephrologie+und+Dialysezentrum+Urdorf,Gruppenpraxis,https://www.onedoc.ch/de/gruppenpraxis/urdorf/ewlp/b-braun-medical-care-nephrologie-und-dialysezentrum,0,
Beauty and Dental M,"Ringstrasse 26, 8600 Dübendorf",Ringstrasse 26,8600,Dübendorf,Zürich,044 593 93 03,"Dentalhygiene, Zahnaufhellung | Bleaching, Zahnreinigung, Zahnsteinentfernung",https://www.beautyanddental.ch/,https://www.google.ch/search?q=Beauty+and+Dental+M+Dübendorf,Gruppenpraxis,https://www.onedoc.ch/de/gruppenpraxis/dubendorf/ebatn/beauty-and-dental-m,0,
BEAUTYCLINIC DRS OTTE & OTTE,"Goethestrasse 16, 8001 Zürich",Goethestrasse 16,8001,Zürich,Zürich,044 262 90 00,"Plastische, rekonstruktive und ästhetische Chirurgie, Zahnmedizin",https://www.dr-otte.ch/,https://www.google.ch/search?q=BEAUTYCLINIC+DRS+OTTE+&+OTTE+Zürich,Gruppenpraxis,https://www.onedoc.ch/de/gruppenpraxis/zurich/ewj1/beautyclinic-drs-otte-otte,0,
Bellevue Medical Center Zurich,"Rämistrasse 4, 8001 Zürich",Rämistrasse 4,8001,Zürich,Zürich,044 240 14 54,"Anästhesiologie, Augenheilkunde, Plastische, rekonstruktive und ästhetische Chirurgie",https://www.bellevue-medicalcenter.com/,https://www.google.ch/search?q=Bellevue+Medical+Center+Zurich+Zürich,Gruppenpraxis,https://www.onedoc.ch/de/gruppenpraxis/zurich/erkw/bellevue-medical-center-zurich,0,
Blasenzentrum Zürich,"Gottfried Keller-Strasse 7, 8001 Zürich",Gottfried Keller-Strasse 7,8001,Zürich,Zürich,044 253 24 40,Gynäkologie und Geburtshilfe,https://www.blasenzentrum.ch/,https://www.google.ch/search?q=Blasenzentrum+Zürich+Zürich,Gruppenpraxis,https://www.onedoc.ch/de/gruppenpraxis/zurich/ewya/blasenzentrum-zurich,0,
Bolada,"Franklinstrasse 31, 8050 Zürich",Franklinstrasse 31,8050,Zürich,Zürich,044 310 19 96,Gynäkologie und Geburtshilfe,,https://www.google.ch/search?q=Bolada+Zürich,Gruppenpraxis,https://www.onedoc.ch/de/gruppenpraxis/zurich/ewow/bolada,0,
brunner & bonesso,"Helenastrasse 3, 8008 Zürich",Helenastrasse 3,8008,Zürich,Zürich,044 422 51 10,"Allgemeine Innere Medizin, Physikalische und Rehabilitative Medizin",,https://www.google.ch/search?q=brunner+&+bonesso+Zürich,Gruppenpraxis,https://www.onedoc.ch/de/gruppenpraxis/zurich/ewn0/brunner-bonesso,0,
Brust-Zentrum AG,"Seefeldstrasse 214, 8008 Zürich",Seefeldstrasse 214,8008,Zürich,Zürich,044 533 81 00,Medizinische Onkologie,https://brust-zentrum.ch/,https://www.google.ch/search?q=Brust-Zentrum+AG+Zürich,Gruppenpraxis,https://www.onedoc.ch/de/gruppenpraxis/zurich/ebbnc/brust-zentrum-ag,0,
Cardiopark AG,"Seestrasse 247, 8038 Zürich",Seestrasse 247,8038,Zürich,Zürich,044 201 80 20,"Kardiologie, Herz-Kreislauf-Prävention | CardioCheck",https://cardiopark.ch/,https://www.google.ch/search?q=Cardiopark+AG+Zürich,Gruppenpraxis,https://www.onedoc.ch/de/gruppenpraxis/zurich/ew18/cardiopark-ag,0,
Center Eleven,"Sophie Taeuber-Strasse 4, 8050 Zürich",Sophie Taeuber-Strasse 4,8050,Zürich,Zürich,044 315 18 48,Allgemeine Innere Medizin,https://center-eleven-oerlikon.ch/de,https://www.google.ch/search?q=Center+Eleven+Zürich,Gruppenpraxis,https://www.onedoc.ch/de/gruppenpraxis/zurich/ewqd/center-eleven,0,
Central-Praxis - Löwenstrasse,"Löwenstrasse 32, 8001 Zürich",Löwenstrasse 32,8001,Zürich,Zürich,044 251 52 62,"Gastroenterologie, Analkrebs | Analkarzinom, Darmkrebs | Colonkarzinom, Koloskopie | Darmspiegelung, Magenkrebs | Magenkarzinom, Rektumkrebs | Rektumkarzinom, Screening auf Kolorektalkrebs | Darmkrebs, Speiseröhrenkrebs | Ösophaguskarzinom",https://www.central-praxis.ch/,https://www.google.ch/search?q=Central-Praxis+-+Löwenstrasse+Zürich,Gruppenpraxis,https://www.onedoc.ch/de/gruppenpraxis/zurich/ewj3/central-praxis-lowenstrasse,0,
Central-Praxis - Oerlikon,"Hofwiesenstrasse 376, 8050 Zürich",Hofwiesenstrasse 376,8050,Zürich,Zürich,044 251 52 62,"Gastroenterologie, Analkrebs | Analkarzinom, Darmkrebs | Colonkarzinom, Koloskopie | Darmspiegelung, Magenkrebs | Magenkarzinom, Rektumkrebs | Rektumkarzinom, Screening auf Kolorektalkrebs | Darmkrebs, Speiseröhrenkrebs | Ösophaguskarzinom",https://www.central-praxis.ch/,https://www.google.ch/search?q=Central-Praxis+-+Oerlikon+Zürich,Gruppenpraxis,https://www.onedoc.ch/de/gruppenpraxis/zurich/e9b0/central-praxis-oerlikon,0,
checkin Praxis checkin Helvetiaplatz,"Stauffacherstrasse 94, 8004 Zürich",Stauffacherstrasse 94,8004,Zürich,Zürich,044 500 46 46,"Allgemeine Innere Medizin, Gynäkologie und Geburtshilfe, Hausarztmedizin (Allgemeinmedizin), Infektiologie",,https://www.google.ch/search?q=checkin+Praxis+checkin+Helvetiaplatz+Zürich,Gruppenpraxis,https://www.onedoc.ch/de/gruppenpraxis/zurich/ewxy/checkin-praxis-checkin-helvetiaplatz,0,
Checkup Center Zürich,"Römerhofplatz 5, 8032 Zürich",Römerhofplatz 5,8032,Zürich,Zürich,043 243 79 69,"Allgemeine Innere Medizin, Kardiologie",https://www.medbase.ch/standorte/detail/medbase-checkup-center/,https://www.google.ch/search?q=Checkup+Center+Zürich+Zürich,Gruppenpraxis,https://www.onedoc.ch/de/gruppenpraxis/zurich/exal/checkup-center-zurich,0,
Check-up Zentrum Hirslanden,"Forchstrasse 420, 8702 Zollikon",Forchstrasse 420,8702,Zollikon,Zürich,044 387 20 50,"Allgemeine Innere Medizin, Arbeitsmedizin, Ernährungsberatung, Hausarztmedizin (Allgemeinmedizin), Sportphysiotherapie, Ästhetische Beratung",https://www.hirslanden.ch/de/klinik-hirslanden/centers/checkupzentrum-hirslanden.html,https://www.google.ch/search?q=Check-up+Zentrum+Hirslanden+Zollikon,Gruppenpraxis,https://www.onedoc.ch/de/gruppenpraxis/zollikon/ew1y/check-up-zentrum-hirslanden,1,"Zuweiser, für Ärzte"
Chiropraktik am Schaffhauserplatz,"Hotzestrasse 65, 8006 Zürich",Hotzestrasse 65,8006,Zürich,Zürich,044 362 49 00,Chiropraktik,https://www.chirozh.ch/,https://www.google.ch/search?q=Chiropraktik+am+Schaffhauserplatz+Zürich,Gruppenpraxis,https://www.onedoc.ch/de/gruppenpraxis/zurich/exfj/chiropraktik-am-schaffhauserplatz,0,
Chirurgie Lindenpark,"Lindenstrasse 23, 8302 Kloten",Lindenstrasse 23,8302,Kloten,Zürich,044 804 44 00,"Chirurgie, Handchirurgie",,https://www.google.ch/search?q=Chirurgie+Lindenpark+Kloten,Gruppenpraxis,https://www.onedoc.ch/de/gruppenpraxis/kloten/exdt/chirurgie-lindenpark,0,
Clienia Gruppenpraxen Dietikon,"Neumattstrasse 7, 8953 Dietikon",Neumattstrasse 7,8953,Dietikon,Zürich,044 744 77 00,"Hausarztmedizin (Allgemeinmedizin), Psychiatrie, Psychotherapie",,https://www.google.ch/search?q=Clienia+Gruppenpraxen+Dietikon+Dietikon,Gruppenpraxis,https://www.onedoc.ch/de/gruppenpraxis/dietikon/ewyf/clienia-gruppenpraxen-dietikon,0,
Clienia Gruppenpraxen Oerlikon,"Schulstrasse 28, 8050 Zürich",Schulstrasse 28,8050,Zürich,Zürich,044 319 77 00,"Psychiatrie, Psychotherapie",https://www.clienia.ch/de/standorte/clienia-zuerich-oerlikon/,https://www.google.ch/search?q=Clienia+Gruppenpraxen+Oerlikon+Zürich,Gruppenpraxis,https://www.onedoc.ch/de/gruppenpraxis/zurich/exxl/clienia-gruppenpraxen-oerlikon,0,
Clienia Gruppenpraxen Uster,"Schachenweg 2, 8610 Uster",Schachenweg 2,8610,Uster,Zürich,044 905 50 00,"Hausarztmedizin (Allgemeinmedizin), Psychiatrie, Psychotherapie",,https://www.google.ch/search?q=Clienia+Gruppenpraxen+Uster+Uster,Gruppenpraxis,https://www.onedoc.ch/de/gruppenpraxis/uster/ewyq/clienia-gruppenpraxen-uster,0,
Clienia Gruppenpraxen Zürich,"Seefeldstrasse 214, 8008 Zürich",Seefeldstrasse 214,8008,Zürich,Zürich,044 269 60 70,"Hausarztmedizin (Allgemeinmedizin), Psychiatrie, Psychotherapie",https://www.clienia.ch/de/standorte/clienia-zuerich-oerlikon/,https://www.google.ch/search?q=Clienia+Gruppenpraxen+Zürich+Zürich,Gruppenpraxis,https://www.onedoc.ch/de/gruppenpraxis/zurich/ewq3/clienia-gruppenpraxen-zurich,0,
Clinic Utoquai,"Utoquai 41, 8008 Zürich",Utoquai 41,8008,Zürich,Zürich,043 268 10 60,"Chirurgie, Dermatologie und Venerologie, Plastische, rekonstruktive und ästhetische Chirurgie",https://www.clinicutoquai.ch/,https://www.google.ch/search?q=Clinic+Utoquai+Zürich,Gruppenpraxis,https://www.onedoc.ch/de/gruppenpraxis/zurich/etw5/clinic-utoquai,0,
Clinius,"Im Feld 34, 8424 Embrach",Im Feld 34,8424,Embrach,Zürich,044 865 77 77,"Akupunktur, Allgemeine Innere Medizin, Chirurgie",https://www.imfeldpraxis.care/start,https://www.google.ch/search?q=Clinius+Embrach,Gruppenpraxis,https://www.onedoc.ch/de/gruppenpraxis/embrach/exb6/clinius,0,
Clinius Praxis Neerach,"Alte Badenerstrasse 30, 8173 Neerach",Alte Badenerstrasse 30,8173,Neerach,Zürich,044 858 10 44,Unknown,,https://www.google.ch/search?q=Clinius+Praxis+Neerach+Neerach,Gruppenpraxis,https://www.onedoc.ch/de/gruppenpraxis/neerach/ewmf/clinius-praxis-neerach,0,
Curana Wallisellen,"Bahnhofplatz 1D, 8304 Wallisellen",Bahnhofplatz 1D,8304,Wallisellen,Zürich,044 533 77 70,"Gastroenterologie, Darmkrebs | Colonkarzinom, Koloskopie | Darmspiegelung, Screening auf Kolorektalkrebs | Darmkrebs",https://www.curana.ch/de/gastroenterologie/,https://www.google.ch/search?q=Curana+Wallisellen+Wallisellen,Gruppenpraxis,https://www.onedoc.ch/de/gruppenpraxis/wallisellen/e99j/curana-wallisellen,1,Zuweiser
Decamed Haut- und Laserzentrum,"Feldeggstrasse 69, 8008 Zürich",Feldeggstrasse 69,8008,Zürich,Zürich,044 806 20 00,"Dermatologie und Venerologie, Ästhetische Beratung, Ästhetische Medizin, Akne, CO2 Laserbehandlung | Fraktionierte CO2 Laserbehandlung, Hautcheck, Hyperhidrose | Übermässiges Schwitzen, Muttermalkontrolle, Peeling, Ästhetischer Laser",https://www.decamed.ch/,https://www.google.ch/search?q=Decamed+Haut-+und+Laserzentrum+Zürich,Gruppenpraxis,https://www.onedoc.ch/de/gruppenpraxis/zurich/e7kn/decamed-haut-und-laserzentrum,1,"Überweisung, Zuweiser"
Decaspa Medical Beauty,"Feldeggstrasse 69, 8008 Zürich",Feldeggstrasse 69,8008,Zürich,Zürich,044 806 20 02,Kosmetik,https://www.decaspa.ch/,https://www.google.ch/search?q=Decaspa+Medical+Beauty+Zürich,Gruppenpraxis,https://www.onedoc.ch/de/gruppenpraxis/zurich/e7kp/decaspa-medical-beauty,0,
Dermanence,"Bahnhofstrasse 104, 8001 Zürich",Bahnhofstrasse 104,8001,Zürich,Zürich,044 482 09 09,Dermatologie und Venerologie,https://dermanence.ch/,https://www.google.ch/search?q=Dermanence+Zürich,Gruppenpraxis,https://www.onedoc.ch/de/gruppenpraxis/zurich/ew4c/dermanence,1,Zuweisung
Dermapraxis,"Oberdorfstrasse 20, 8820 Wädenswil",Oberdorfstrasse 20,8820,Wädenswil,Zürich,044 789 00 00,"Allergologie und Immunologie, Dermatologie und Venerologie, Kosmetik, Lasermedizin, Microdermabrasion, Microneedling",https://dermapraxis.ch/kontakt/,https://www.google.ch/search?q=Dermapraxis+Wädenswil,Gruppenpraxis,https://www.onedoc.ch/de/gruppenpraxis/wadenswil/ew2w/dermapraxis,0,
Derm Art,"Untertor 33, 8400 Winterthur",Untertor 33,8400,Winterthur,Zürich,052 521 21 21,"Dermatologie und Venerologie, Kosmetik, Ästhetische Medizin, Akne, Anti-Falten-Behandlung, Behandlung von Narben, Behandlung von Pigmentflecken, Blepharoplastik | Augenlidchirurgie, Couperose | Rosacea, Ekzem, Entfernung von Muttermalen | Naevus Exzision, Hautkrebs, Hyperhidrose | Übermässiges Schwitzen, Injektion von Botulinumtoxin | Botox, Injektion von Hyaluronsäure, Laser Haarentfernung, Mesotherapie, Microdermabrasion, Microneedling, Muttermalkontrolle, Peeling, Urtikaria | Nesselsucht | Nesselfieber, Vitiligo | Weissfleckenkrankheit, Ästhetischer Laser",,https://www.google.ch/search?q=Derm+Art+Winterthur,Gruppenpraxis,https://www.onedoc.ch/de/gruppenpraxis/winterthur/e33o/derm-art,0,
Dermatologie am See,"General-Wille-Strasse 59, 8706 Meilen",General-Wille-Strasse 59,8706,Meilen,Zürich,044 925 30 31,Dermatologie und Venerologie,,https://www.google.ch/search?q=Dermatologie+am+See+Meilen,Gruppenpraxis,https://www.onedoc.ch/de/gruppenpraxis/meilen/ew38/dermatologie-am-see,0,
Dermatologie Zentrum,"Zeltweg 67, 8032 Zürich",Zeltweg 67,8032,Zürich,Zürich,043 268 80 00,"Dermatologie und Venerologie, Akne, Hautkrebs, Injektion von Botulinumtoxin | Botox, Muttermalkontrolle, Psoriasis | Schuppenflechte, Ästhetischer Laser",https://dermatologiezentrum.ch/,https://www.google.ch/search?q=Dermatologie+Zentrum+Zürich,Gruppenpraxis,https://www.onedoc.ch/de/gruppenpraxis/zurich/ewf7/dermatologie-zentrum,0,
Dermis - Hautklinik – Zürich - Seefeld,"Dufourstrasse 101, 8008 Zürich",Dufourstrasse 101,8008,Zürich,Zürich,044 555 08 00,"Dermatologie und Venerologie, Kosmetik, Ästhetische Beratung, Ästhetische Medizin, Akne, Allergie | AllergoTest | Allergieabklärung, Fusspilz | Nagelpilz, Hautcheck, Hautpilz | Hautmykose, Injektion von Botulinumtoxin | Botox, Laser Haarentfernung, Muttermalkontrolle, Peeling, Psoriasis | Schuppenflechte, Sexuell übertragbare Krankheiten | Sexuell übertragbare Infektionen (STD/STI), Tattooentfernung, Ästhetischer Laser",https://www.dermis-hautklinik.ch/standorte/hautklinik-zuerich-seefeld/,https://www.google.ch/search?q=Dermis+-+Hautklinik+–+Zürich+-+Seefeld+Zürich,Gruppenpraxis,https://www.onedoc.ch/de/gruppenpraxis/zurich/e70l/dermis-hautklinik-zurich-seefeld,1,Zuweisung
Dialyse-Center Zimmerberg,"Weingartenstrasse 7, 8803 Rüschlikon",Weingartenstrasse 7,8803,Rüschlikon,Zürich,044 720 06 01,"Allgemeine Innere Medizin, Nephrologie",https://dialysis.ch/,https://www.google.ch/search?q=Dialyse-Center+Zimmerberg+Rüschlikon,Gruppenpraxis,https://www.onedoc.ch/de/gruppenpraxis/ruschlikon/exin/dialyse-center-zimmerberg,0,
die praxis für psychotherapie,"Untere Bahnhofstrasse 4, 8932 Mettmenstetten",Untere Bahnhofstrasse 4,8932,Mettmenstetten,Zürich,079 262 79 99,"Psychiatrie, Psychotherapie",https://www.diepraxis-mettmenstetten.ch/,https://www.google.ch/search?q=die+praxis+für+psychotherapie+Mettmenstetten,Gruppenpraxis,https://www.onedoc.ch/de/gruppenpraxis/mettmenstetten/ew9d/die-praxis-fur-psychotherapie,0,
Die SehKlinik,"Mühlebachstrasse 25, 8008 Zürich",Mühlebachstrasse 25,8008,Zürich,Zürich,044 422 25 55,Augenheilkunde,https://www.sehklinik.com/,https://www.google.ch/search?q=Die+SehKlinik+Zürich,Gruppenpraxis,https://www.onedoc.ch/de/gruppenpraxis/zurich/ex9d/die-sehklinik,0,
Doktorhuus Bachenbülach,"Grabenstrasse 4b, 8184 Bachenbülach",Grabenstrasse 4b,8184,Bachenbülach,Zürich,044 863 70 00,"Hausarztmedizin (Allgemeinmedizin), Kardiologie, Herz-Kreislauf-Prävention | CardioCheck, Vorsorgeuntersuchung | Check up",https://bachenbuelach.doktor-huus.ch/,https://www.google.ch/search?q=Doktorhuus+Bachenbülach+Bachenbülach,Gruppenpraxis,https://www.onedoc.ch/de/gruppenpraxis/bachenbulach/e823/doktorhuus-bachenbulach,1,Zuweisung
Doktorhuus Mönchaltorf,"Lindhofstrasse 7, 8617 Mönchaltorf",Lindhofstrasse 7,8617,Mönchaltorf,Zürich,044 949 20 20,"Hausarztmedizin (Allgemeinmedizin), Vorsorgeuntersuchung | Check up",https://moenchaltorf.doktor-huus.ch/,https://www.google.ch/search?q=Doktorhuus+Mönchaltorf+Mönchaltorf,Gruppenpraxis,https://www.onedoc.ch/de/gruppenpraxis/monchaltorf/ewqb/doktorhuus-monchaltorf,0,
Doktorhuus Praxis Forch,"Aeschstrasse 8a, 8127 Forch",Aeschstrasse 8a,8127,Forch,Zürich,044 980 88 11,Hausarztmedizin (Allgemeinmedizin),,https://www.google.ch/search?q=Doktorhuus+Praxis+Forch+Forch,Gruppenpraxis,https://www.onedoc.ch/de/gruppenpraxis/forch/ewuz/doktorhuus-praxis-forch,0,
Doktorhuus Praxis Knonau,"Schlossmattstrasse 28, 8934 Knonau",Schlossmattstrasse 28,8934,Knonau,Zürich,044 776 88 00,"Endokrinologie und Diabetologie, Hausarztmedizin (Allgemeinmedizin), Hausärztlicher Notfall, Vorsorgeuntersuchung | Check up",,https://www.google.ch/search?q=Doktorhuus+Praxis+Knonau+Knonau,Gruppenpraxis,https://www.onedoc.ch/de/gruppenpraxis/knonau/e8uc/doktorhuus-praxis-knonau,0,
Doktorhuus Praxis Lufingen,"Moosbrunnenstrasse 14, 8426 Lufingen",Moosbrunnenstrasse 14,8426,Lufingen,Zürich,044 813 02 20,"Allgemeine Innere Medizin, Kardiologie",,https://www.google.ch/search?q=Doktorhuus+Praxis+Lufingen+Lufingen,Gruppenpraxis,https://www.onedoc.ch/de/gruppenpraxis/lufingen/ew3k/doktorhuus-praxis-lufingen,0,
Doktorhuus Praxis Zürich-Affoltern,"Wehntalerstrasse 453a, 8046 Zürich",Wehntalerstrasse 453a,8046,Zürich,Zürich,044 371 66 40,"Hausarztmedizin (Allgemeinmedizin), Ästhetische Medizin, Hyperhidrose | Übermässiges Schwitzen, Injektion von Botulinumtoxin | Botox, Injektion von Hyaluronsäure, Mesotherapie, Microneedling, Peeling, Vorsorgeuntersuchung | Check up",https://affoltern.doktor-huus.ch/,https://www.google.ch/search?q=Doktorhuus+Praxis+Zürich-Affoltern+Zürich,Gruppenpraxis,https://www.onedoc.ch/de/gruppenpraxis/zurich/exau/doktorhuus-praxis-zurich-affoltern,0,
Doktorhuus Schlieren,"Zürcherstrasse 4, 8952 Schlieren",Zürcherstrasse 4,8952,Schlieren,Zürich,044 755 44 44,Hausarztmedizin (Allgemeinmedizin),https://schlieren.doktor-huus.ch/,https://www.google.ch/search?q=Doktorhuus+Schlieren+Schlieren,Gruppenpraxis,https://www.onedoc.ch/de/gruppenpraxis/schlieren/eba3q/doktorhuus-schlieren,0,
Dorfpraxis Bonstetten,"Chilestrasse 11, 8906 Bonstetten",Chilestrasse 11,8906,Bonstetten,Zürich,044 700 04 52,"Allgemeine Innere Medizin, Homöopathie",https://www.dorfpraxis.ch/,https://www.google.ch/search?q=Dorfpraxis+Bonstetten+Bonstetten,Gruppenpraxis,https://www.onedoc.ch/de/gruppenpraxis/bonstetten/ew1s/dorfpraxis-bonstetten,0,
Dorfpraxis Rüschlikon,"Vordere Dorfstrasse 14, 8803 Rüschlikon",Vordere Dorfstrasse 14,8803,Rüschlikon,Zürich,044 724 21 10,Allgemeine Innere Medizin,https://dorfpraxis-rueschlikon.ch/,https://www.google.ch/search?q=Dorfpraxis+Rüschlikon+Rüschlikon,Gruppenpraxis,https://www.onedoc.ch/de/gruppenpraxis/ruschlikon/epp6/dorfpraxis-ruschlikon,0,
Double Check,"Zolliker Strasse 60, 8702 Zollikon",Zolliker Strasse 60,8702,Zollikon,Zürich,044 212 11 00,"Psychiatrie, Psychotherapie",,https://www.google.ch/search?q=Double+Check+Zollikon,Gruppenpraxis,https://www.onedoc.ch/de/gruppenpraxis/zollikon/ex3h/double-check,0,
Dr.med. A. Hunsicker-Schneider | Schwerpunkt Viszeralchirurgie,"Hottingerstrasse 14, 8032 Zürich",Hottingerstrasse 14,8032,Zürich,Zürich,044 286 20 20,Chirurgie,https://www.dr-hunsicker-schneider.ch/,https://www.google.ch/search?q=Dr.med.+A.+Hunsicker-Schneider+|+Schwerpunkt+Viszeralchirurgie+Zürich,Gruppenpraxis,https://www.onedoc.ch/de/gruppenpraxis/zurich/ewlu/dr-med-a-hunsicker-schneider-schwerpunkt-viszeralchirurgie,0,
Dr. med. Jasminka Kunz & Dr. med. Alexander Landolt,"Bleicherweg 52 / Ecke Stockerstrasse, 8002 Zürich",Bleicherweg 52 / Ecke Stockerstrasse,8002,Zürich,Zürich,044 201 18 28,Gynäkologie und Geburtshilfe,https://www.topgyn.ch/,https://www.google.ch/search?q=Dr.+med.+Jasminka+Kunz+&+Dr.+med.+Alexander+Landolt+Zürich,Gruppenpraxis,https://www.onedoc.ch/de/gruppenpraxis/zurich/ew9v/dr-med-jasminka-kunz-dr-med-alexander-landolt,0,
Dr. Patrice Holzer,"Rössligasse 1, 8484 Weisslingen",Rössligasse 1,8484,Weisslingen,Zürich,052 397 30 97,"Allgemeine Innere Medizin, Kardiologie",http://www.praxis-weisslingen.ch/about-us/praxispersonal/dr-med-patrice-holzer/,https://www.google.ch/search?q=Dr.+Patrice+Holzer+Weisslingen,Gruppenpraxis,https://www.onedoc.ch/de/gruppenpraxis/weisslingen/eutf/dr-patrice-holzer,0,
DRT Medical GmbH - Praxis Adliswil,"Kilchbergstrasse 6, 8134 Adliswil",Kilchbergstrasse 6,8134,Adliswil,Zürich,044 710 60 44,"Allgemeine Innere Medizin, Hausarztmedizin (Allgemeinmedizin)",,https://www.google.ch/search?q=DRT+Medical+GmbH+-+Praxis+Adliswil+Adliswil,Gruppenpraxis,https://www.onedoc.ch/de/gruppenpraxis/adliswil/ew1p/drt-medical-gmbh-praxis-adliswil,0,
Dr. Volpov,"Untere Rheingasse 3, 8245 Feuerthalen",Untere Rheingasse 3,8245,Feuerthalen,Zürich,052 659 35 00,Dermatologie und Venerologie,https://www.hautarzt-schaffhausen.ch/,https://www.google.ch/search?q=Dr.+Volpov+Feuerthalen,Gruppenpraxis,https://www.onedoc.ch/de/gruppenpraxis/feuerthalen/eudz/dr-volpov,0,
DZW - Zürich Nord (Oerlikon),"Hofwiesenstrasse 350, 8050 Zürich",Hofwiesenstrasse 350,8050,Zürich,Zürich,044 520 60 60,"Allgemeine Innere Medizin, Nephrologie",https://www.zuerinordpraxis.ch/,https://www.google.ch/search?q=DZW+-+Zürich+Nord+(Oerlikon)+Zürich,Gruppenpraxis,https://www.onedoc.ch/de/gruppenpraxis/zurich/exap/dzw-zurich-nord-oerlikon,0,
"Ebovis Augenpraxis in der mediX altstetten, 3. Stock, Zimmer Y","Hohlstrasse 556, 8048 Zürich",Hohlstrasse 556,8048,Zürich,Zürich,044 500 66 55,"Augenheilkunde, Astigmatismus, Augencheck | Untersuchung der Sehkraft | Visustest, Brille, Gesichtsfeld, Glaukom | Grüner Star, Hyperopie | Weitsichtigkeit, Katarakt | Grauer Star, Kurzsichtigkeit | Myopie, Ophthalmo-Diabetologie, Presbyopie | Alterssichtigkeit, Sehstörung, Sehtest für den Führerschein",,"https://www.google.ch/search?q=Ebovis+Augenpraxis+in+der+mediX+altstetten,+3.+Stock,+Zimmer+Y+Zürich",Gruppenpraxis,https://www.onedoc.ch/de/gruppenpraxis/zurich/ewvw/ebovis-augenpraxis-in-der-medix-altstetten-3-stock-zimmer-y,0,
ELZA Institute,"Webereistrasse 2, 8953 Dietikon",Webereistrasse 2,8953,Dietikon,Zürich,044 741 81 81,"Augenheilkunde, Optometrie, Augencheck | Untersuchung der Sehkraft | Visustest, Brille, Glaukom | Grüner Star, Katarakt | Grauer Star, Keratokonus | Hornhautkegel, Kontaktlinsen, Sehtest für den Führerschein, Trockene Augen",https://www.elza-institute.com/,https://www.google.ch/search?q=ELZA+Institute+Dietikon,Gruppenpraxis,https://www.onedoc.ch/de/gruppenpraxis/dietikon/exjy/elza-institute,0,
Facharztpraxis klein-gross,"Adlerstrasse 1, 8600 Dübendorf",Adlerstrasse 1,8600,Dübendorf,Zürich,044 389 10 10,Pädiatrie,https://www.klein-gross.ch/de,https://www.google.ch/search?q=Facharztpraxis+klein-gross+Dübendorf,Gruppenpraxis,https://www.onedoc.ch/de/gruppenpraxis/dubendorf/etqe/facharztpraxis-klein-gross,1,"Zuweisung, Überweisung"
Fauenpraxis 55,"Sonneggstrasse 55, 8006 Zürich",Sonneggstrasse 55,8006,Zürich,Zürich,044 362 55 55,Gynäkologie und Geburtshilfe,https://frauenpraxis55.ch/,https://www.google.ch/search?q=Fauenpraxis+55+Zürich,Gruppenpraxis,https://www.onedoc.ch/de/gruppenpraxis/zurich/ewot/fauenpraxis-55,0,
FineEsthetics Clinic Bellevue,"Sankt Urbangasse 4, 8001 Zürich",Sankt Urbangasse 4,8001,Zürich,Zürich,044 578 44 44,Dermatologie und Venerologie,,https://www.google.ch/search?q=FineEsthetics+Clinic+Bellevue+Zürich,Gruppenpraxis,https://www.onedoc.ch/de/gruppenpraxis/zurich/e261/fineesthetics-clinic-bellevue,0,
FineEsthetics Clinic Glatt,"Neue Winterthurerstrasse 99, 8304 Wallisellen",Neue Winterthurerstrasse 99,8304,Wallisellen,Zürich,044 578 44 40,"Plastische, rekonstruktive und ästhetische Chirurgie, Ästhetische Medizin",,https://www.google.ch/search?q=FineEsthetics+Clinic+Glatt+Wallisellen,Gruppenpraxis,https://www.onedoc.ch/de/gruppenpraxis/wallisellen/e262/fineesthetics-clinic-glatt,0,
Fliegerärztliches Institut,"Bettlistrasse 16, 8600 Dübendorf",Bettlistrasse 16,8600,Dübendorf,Zürich,058 460 25 19,Allgemeine Innere Medizin,"https://en.wikipedia.org/wiki/Aeromedical_Center,_Dübendorf",https://www.google.ch/search?q=Fliegerärztliches+Institut+Dübendorf,Gruppenpraxis,https://www.onedoc.ch/de/gruppenpraxis/dubendorf/ewzp/fliegerarztliches-institut,0,
focus on spine Winterthur,"Stadthausstrasse 12, 8400 Winterthur",Stadthausstrasse 12,8400,Winterthur,Zürich,052 212 50 10,Neurochirurgie,,https://www.google.ch/search?q=focus+on+spine+Winterthur+Winterthur,Gruppenpraxis,https://www.onedoc.ch/de/gruppenpraxis/winterthur/euv0/focus-on-spine-winterthur,0,
Frauenambulatorium,"Mattengasse 27, 8005 Zürich",Mattengasse 27,8005,Zürich,Zürich,044 272 77 50,Gynäkologie und Geburtshilfe,https://frauenambulatorium.ch/,https://www.google.ch/search?q=Frauenambulatorium+Zürich,Gruppenpraxis,https://www.onedoc.ch/de/gruppenpraxis/zurich/epnx/frauenambulatorium,0,
Frauenarzt Bellevue Dr. med. Andrés Uzeda,"Theaterstrasse 18, 8001 Zürich",Theaterstrasse 18,8001,Zürich,Zürich,044 261 70 88,Gynäkologie und Geburtshilfe,https://frauenarztbellevue.ch/,https://www.google.ch/search?q=Frauenarzt+Bellevue+Dr.+med.+Andrés+Uzeda+Zürich,Gruppenpraxis,https://www.onedoc.ch/de/gruppenpraxis/zurich/e3oe/frauenarzt-bellevue-dr-med-andres-uzeda,0,
Frauenarztpraxis Dielsdorf,"Früeblistrasse 3, 8157 Dielsdorf",Früeblistrasse 3,8157,Dielsdorf,Zürich,044 885 50 50,Gynäkologie und Geburtshilfe,https://frauenarzt-dielsdorf.ch/,https://www.google.ch/search?q=Frauenarztpraxis+Dielsdorf+Dielsdorf,Gruppenpraxis,https://www.onedoc.ch/de/gruppenpraxis/dielsdorf/ew5e/frauenarztpraxis-dielsdorf,0,
Frauenarztpraxis Drs. Eichler,"Universitätstrasse 120, 8006 Zürich",Universitätstrasse 120,8006,Zürich,Zürich,044 363 80 33,Gynäkologie und Geburtshilfe,https://gyn-med.ch/,https://www.google.ch/search?q=Frauenarztpraxis+Drs.+Eichler+Zürich,Gruppenpraxis,https://www.onedoc.ch/de/gruppenpraxis/zurich/ew1h/frauenarztpraxis-drs-eichler,0,
Frauenarztpraxis Dr. Vollenweider,"Bergstrasse 37, 8708 Männedorf",Bergstrasse 37,8708,Männedorf,Zürich,044 922 40 70,Gynäkologie und Geburtshilfe,https://www.praxis-dr-vollenweider.ch/,https://www.google.ch/search?q=Frauenarztpraxis+Dr.+Vollenweider+Männedorf,Gruppenpraxis,https://www.onedoc.ch/de/gruppenpraxis/mannedorf/ewm9/frauenarztpraxis-dr-vollenweider,0,
Frauenarztpraxis Uster,"Freie Strasse 44, 8610 Uster",Freie Strasse 44,8610,Uster,Zürich,044 932 37 40,Gynäkologie und Geburtshilfe,https://www.frauenpraxis-uster.ch/,https://www.google.ch/search?q=Frauenarztpraxis+Uster+Uster,Gruppenpraxis,https://www.onedoc.ch/de/gruppenpraxis/uster/ewxg/frauenarztpraxis-uster,0,
Frauenarztpraxis Zollikon,"Alte Landstrasse 112, 8702 Zollikon",Alte Landstrasse 112,8702,Zollikon,Zürich,044 252 45 43,"Allgemeine Innere Medizin, Gynäkologie und Geburtshilfe",https://www.frauenaerzte-zollikon.ch/,https://www.google.ch/search?q=Frauenarztpraxis+Zollikon+Zollikon,Gruppenpraxis,https://www.onedoc.ch/de/gruppenpraxis/zollikon/ew6s/frauenarztpraxis-zollikon,0,
Frauenarzt Zürich Stadelhofen,"Stadelhoferstrasse 8, 8001 Zürich",Stadelhoferstrasse 8,8001,Zürich,Zürich,044 252 24 24,"Gynäkologie und Geburtshilfe, Die Pille danach, Harnwegsinfektion | Zystitis | Blasenentzündung, Kinderwunsch | Fertilitätsbehandlung, Verhütung, Vorsorgeuntersuchung Brustkrebs, Vorsorgeuntersuchung Humane Papillomaviren (HPV) | PAP Abstrich, Wechseljahre | Menopause",https://www.frauenpermanence.ch/,https://www.google.ch/search?q=Frauenarzt+Zürich+Stadelhofen+Zürich,Gruppenpraxis,https://www.onedoc.ch/de/gruppenpraxis/zurich/ex3g/frauenarzt-zurich-stadelhofen,0,
Frauenpraxis Affoltern,"Bahnhofplatz 11, 8910 Affoltern am Albis",Bahnhofplatz 11,8910,Affoltern am Albis,Zürich,044 763 50 70,Gynäkologie und Geburtshilfe,,https://www.google.ch/search?q=Frauenpraxis+Affoltern+Affoltern+am+Albis,Gruppenpraxis,https://www.onedoc.ch/de/gruppenpraxis/affoltern-am-albis/ewpj/frauenpraxis-affoltern,0,
Frauenpraxis Bülach,"Kasernenstrasse 8, 8180 Bülach",Kasernenstrasse 8,8180,Bülach,Zürich,044 861 18 88,"Gynäkologie und Geburtshilfe, Harnwegsinfektion | Zystitis | Blasenentzündung, Schwangerschaftsvorsorge | Schwangerschaftsuntersuchung, Verhütung, Vorsorgeuntersuchung Humane Papillomaviren (HPV) | PAP Abstrich, Wechseljahre | Menopause",https://www.frauenpraxis-buelach.ch/,https://www.google.ch/search?q=Frauenpraxis+Bülach+Bülach,Gruppenpraxis,https://www.onedoc.ch/de/gruppenpraxis/bulach/e3ue/frauenpraxis-bulach,0,
Frauenpraxis Dres. Ohlsson und Dedial,"Lindstrasse 40, 8400 Winterthur",Lindstrasse 40,8400,Winterthur,Zürich,052 202 48 56,"Gynäkologie und Geburtshilfe, Hausarztmedizin (Allgemeinmedizin)",,https://www.google.ch/search?q=Frauenpraxis+Dres.+Ohlsson+und+Dedial+Winterthur,Gruppenpraxis,https://www.onedoc.ch/de/gruppenpraxis/winterthur/ewjh/frauenpraxis-dres-ohlsson-und-dedial,0,
Frauenpraxis Dr. med. Michaela Schmid,"Forchstrasse 289, 8008 Zürich",Forchstrasse 289,8008,Zürich,Zürich,044 389 10 50,"Gynäkologie und Geburtshilfe, Psychosomatische und psychosoziale Medizin, Sexologie, Humane Papillomaviren Impfung (HPV) | Gebärmutterhalskrebsimpfung",https://michaelaschmid.ch/,https://www.google.ch/search?q=Frauenpraxis+Dr.+med.+Michaela+Schmid+Zürich,Gruppenpraxis,https://www.onedoc.ch/de/gruppenpraxis/zurich/e3ym/frauenpraxis-dr-med-michaela-schmid,0,
Frauenpraxis Fischer und Ostapiuk,"Dorfstrasse 44, 8630 Rüti ZH",Dorfstrasse 44,8630,Rüti ZH,Zürich,055 240 53 13,"Allgemeine Innere Medizin, Gynäkologie und Geburtshilfe",https://www.frauenpraxisrueti.ch/,https://www.google.ch/search?q=Frauenpraxis+Fischer+und+Ostapiuk+Rüti+ZH,Gruppenpraxis,https://www.onedoc.ch/de/gruppenpraxis/ruti/ewtg/frauenpraxis-fischer-und-ostapiuk,0,
Frauenpraxis Lindspitz,"Lindstrasse 40, 8400 Winterthur",Lindstrasse 40,8400,Winterthur,Zürich,052 202 48 56,Gynäkologie und Geburtshilfe,,https://www.google.ch/search?q=Frauenpraxis+Lindspitz+Winterthur,Gruppenpraxis,https://www.onedoc.ch/de/gruppenpraxis/winterthur/ebbbg/frauenpraxis-lindspitz,0,
Frauenpraxis Regensdorf,"Holenbachstrasse 3, 8105 Regensdorf",Holenbachstrasse 3,8105,Regensdorf,Zürich,044 840 16 06,Gynäkologie und Geburtshilfe,https://www.drkratzer.ch/,https://www.google.ch/search?q=Frauenpraxis+Regensdorf+Regensdorf,Gruppenpraxis,https://www.onedoc.ch/de/gruppenpraxis/regensdorf/ew81/frauenpraxis-regensdorf,0,
Frauenpraxis Stäfa,"Häldelistrasse 9, 8712 Stäfa",Häldelistrasse 9,8712,Stäfa,Zürich,044 796 22 00,Gynäkologie und Geburtshilfe,https://frauenpraxis-staefa.ch/,https://www.google.ch/search?q=Frauenpraxis+Stäfa+Stäfa,Gruppenpraxis,https://www.onedoc.ch/de/gruppenpraxis/stafa/ewvu/frauenpraxis-stafa,0,
Frauenpraxis Thalwil,"Florastrasse 14, 8800 Thalwil",Florastrasse 14,8800,Thalwil,Zürich,044 720 02 22,Gynäkologie und Geburtshilfe,https://frauenpraxis.info/,https://www.google.ch/search?q=Frauenpraxis+Thalwil+Thalwil,Gruppenpraxis,https://www.onedoc.ch/de/gruppenpraxis/thalwil/ewu3/frauenpraxis-thalwil,0,
Frauenpraxis Uster,"Uster-West 32, 8610 Uster",Uster-West 32,8610,Uster,Zürich,044 940 06 31,Gynäkologie und Geburtshilfe,https://www.frauenpraxis-uster.ch/,https://www.google.ch/search?q=Frauenpraxis+Uster+Uster,Gruppenpraxis,https://www.onedoc.ch/de/gruppenpraxis/uster/ewzx/frauenpraxis-uster,0,
Functiomed,"Langgrütstrasse 112, 8047 Zürich",Langgrütstrasse 112,8047,Zürich,Zürich,044 401 15 15,"Allgemeine Innere Medizin, Hausarztmedizin (Allgemeinmedizin), Orthopädische Chirurgie",https://www.functiomed.ch/,https://www.google.ch/search?q=Functiomed+Zürich,Gruppenpraxis,https://www.onedoc.ch/de/gruppenpraxis/zurich/ewsj/functiomed,0,
Fusschirurgie Zürich,"Bahnhofstrasse 56, 8001 Zürich",Bahnhofstrasse 56,8001,Zürich,Zürich,044 215 20 10,Orthopädische Chirurgie,https://www.fusschirurgie-zuerich.ch/,https://www.google.ch/search?q=Fusschirurgie+Zürich+Zürich,Gruppenpraxis,https://www.onedoc.ch/de/gruppenpraxis/zurich/ew6a/fusschirurgie-zurich,1,Zuweisung
Gartenhofpraxis Richterswil,"Seestrasse 17b, 8805 Richterswil",Seestrasse 17b,8805,Richterswil,Zürich,044 787 81 81,"Allgemeine Innere Medizin, Hausarztmedizin (Allgemeinmedizin)",,https://www.google.ch/search?q=Gartenhofpraxis+Richterswil+Richterswil,Gruppenpraxis,https://www.onedoc.ch/de/gruppenpraxis/richterswil/ew5d/gartenhofpraxis-richterswil,0,
Gastroenterologie im Zentrum,"Kasernenstrasse 1, 8180 Bülach",Kasernenstrasse 1,8180,Bülach,Zürich,044 864 19 18,"Allgemeine Innere Medizin, Gastroenterologie",https://www.gastroenterologie-buelach.ch/,https://www.google.ch/search?q=Gastroenterologie+im+Zentrum+Bülach,Gruppenpraxis,https://www.onedoc.ch/de/gruppenpraxis/bulach/exxy/gastroenterologie-im-zentrum,1,für Ärzte
Gastroenterologie Praxis Limmattower,"Ueberlandstrasse 18, 8953 Dietikon",Ueberlandstrasse 18,8953,Dietikon,Zürich,044 515 52 00,"Allgemeine Innere Medizin, Gastroenterologie",,https://www.google.ch/search?q=Gastroenterologie+Praxis+Limmattower+Dietikon,Gruppenpraxis,https://www.onedoc.ch/de/gruppenpraxis/dietikon/exjh/gastroenterologie-praxis-limmattower,0,
Gastropark,"Seestrasse 90, 8002 Zürich",Seestrasse 90,8002,Zürich,Zürich,044 201 77 50,"Allgemeine Innere Medizin, Gastroenterologie",https://gastropark.ch/,https://www.google.ch/search?q=Gastropark+Zürich,Gruppenpraxis,https://www.onedoc.ch/de/gruppenpraxis/zurich/exel/gastropark,1,für Ärzte
Gastropraxis am See,"General-Wille-Strasse 59, 8706 Meilen",General-Wille-Strasse 59,8706,Meilen,Zürich,044 922 70 90,"Allgemeine Innere Medizin, Gastroenterologie",,https://www.google.ch/search?q=Gastropraxis+am+See+Meilen,Gruppenpraxis,https://www.onedoc.ch/de/gruppenpraxis/meilen/ewur/gastropraxis-am-see,0,
gastropraxis Bülach,"Bahnhofstrasse 22, 8180 Bülach",Bahnhofstrasse 22,8180,Bülach,Zürich,044 864 19 20,"Allgemeine Innere Medizin, Gastroenterologie",https://www.gastropraxis.ch/,https://www.google.ch/search?q=gastropraxis+Bülach+Bülach,Gruppenpraxis,https://www.onedoc.ch/de/gruppenpraxis/bulach/exq4/gastropraxis-bulach,1,für Ärzte
GastroPraxis Enge,"Lavaterstrasse 40, 8002 Zürich",Lavaterstrasse 40,8002,Zürich,Zürich,044 201 15 55,"Allgemeine Innere Medizin, Gastroenterologie",https://gastropraxis-enge.ch/,https://www.google.ch/search?q=GastroPraxis+Enge+Zürich,Gruppenpraxis,https://www.onedoc.ch/de/gruppenpraxis/zurich/ew5b/gastropraxis-enge,0,
GastroZentrum Hirslanden,"Witellikerstrasse 40, 8008 Zürich",Witellikerstrasse 40,8008,Zürich,Zürich,044 387 39 55,"Allgemeine Innere Medizin, Gastroenterologie",https://www.hirslanden.ch/de/klinik-hirslanden/centers/gastrozentrum-hirslanden.html,https://www.google.ch/search?q=GastroZentrum+Hirslanden+Zürich,Gruppenpraxis,https://www.onedoc.ch/de/gruppenpraxis/zurich/exnc/gastrozentrum-hirslanden,1,"Zuweiser, für Ärzte"
Gemeinschaftspraxis 75,"Badenerstrasse 75, 8004 Zürich",Badenerstrasse 75,8004,Zürich,Zürich,044 291 15 07,"Hausarztmedizin (Allgemeinmedizin), Kinder- und Jugendpsychiatrie, Psychiatrie, Psychotherapie",https://praxis75.ch/,https://www.google.ch/search?q=Gemeinschaftspraxis+75+Zürich,Gruppenpraxis,https://www.onedoc.ch/de/gruppenpraxis/zurich/exvi/gemeinschaftspraxis-75,0,
Gemeinschaftspraxis am Dorfplatz,"Schlossmattstrasse 28, 8934 Knonau",Schlossmattstrasse 28,8934,Knonau,Zürich,044 776 88 00,Allgemeine Innere Medizin,,https://www.google.ch/search?q=Gemeinschaftspraxis+am+Dorfplatz+Knonau,Gruppenpraxis,https://www.onedoc.ch/de/gruppenpraxis/knonau/ewnn/gemeinschaftspraxis-am-dorfplatz,0,
Gemeinschaftspraxis am Etzbergpark,"Etzbergweg 2, 8405 Winterthur",Etzbergweg 2,8405,Winterthur,Zürich,052 232 88 55,Allgemeine Innere Medizin,,https://www.google.ch/search?q=Gemeinschaftspraxis+am+Etzbergpark+Winterthur,Gruppenpraxis,https://www.onedoc.ch/de/gruppenpraxis/winterthur/exet/gemeinschaftspraxis-am-etzbergpark,0,
Gemeinschaftspraxis Baurwiese,"Albisriederstrasse 80, 8003 Zürich",Albisriederstrasse 80,8003,Zürich,Zürich,044 383 72 15,"Psychiatrie, Psychotherapie",,https://www.google.ch/search?q=Gemeinschaftspraxis+Baurwiese+Zürich,Gruppenpraxis,https://www.onedoc.ch/de/gruppenpraxis/zurich/ewoq/gemeinschaftspraxis-baurwiese,0,
Gemeinschaftspraxis Bülach,"Kasernenstrasse 33, 8180 Bülach",Kasernenstrasse 33,8180,Bülach,Zürich,044 860 71 71,Allgemeine Innere Medizin,https://praxis-buelachsued.ch/,https://www.google.ch/search?q=Gemeinschaftspraxis+Bülach+Bülach,Gruppenpraxis,https://www.onedoc.ch/de/gruppenpraxis/bulach/ewv7/gemeinschaftspraxis-bulach,0,
Gemeinschaftspraxis Bülach Süd,"Feldstrasse 60, 8180 Bülach",Feldstrasse 60,8180,Bülach,Zürich,044 886 38 05,Allgemeine Innere Medizin,https://praxis-buelachsued.ch/,https://www.google.ch/search?q=Gemeinschaftspraxis+Bülach+Süd+Bülach,Gruppenpraxis,https://www.onedoc.ch/de/gruppenpraxis/bulach/ewga/gemeinschaftspraxis-bulach-sud,0,
Gemeinschaftspraxis Dietlikerstrasse 44,"Dietlikerstrasse 44, 8302 Kloten",Dietlikerstrasse 44,8302,Kloten,Zürich,044 813 49 49,"Allgemeine Innere Medizin, Rheumatologie",,https://www.google.ch/search?q=Gemeinschaftspraxis+Dietlikerstrasse+44+Kloten,Gruppenpraxis,https://www.onedoc.ch/de/gruppenpraxis/kloten/exm8/gemeinschaftspraxis-dietlikerstrasse-44,0,
Gemeinschaftspraxis Felsenrain,"Schaffhauserstrasse 432, 8050 Zürich",Schaffhauserstrasse 432,8050,Zürich,Zürich,044 305 10 00,Allgemeine Innere Medizin,https://www.praxisfelsenrain.ch/,https://www.google.ch/search?q=Gemeinschaftspraxis+Felsenrain+Zürich,Gruppenpraxis,https://www.onedoc.ch/de/gruppenpraxis/zurich/epuh/gemeinschaftspraxis-felsenrain,0,
Gemeinschaftspraxis für Gynäkologie und Geburtshilfe,"Witikonerstrasse 289, 8053 Zürich",Witikonerstrasse 289,8053,Zürich,Zürich,043 499 70 00,Gynäkologie und Geburtshilfe,https://gyn-witikon.ch/,https://www.google.ch/search?q=Gemeinschaftspraxis+für+Gynäkologie+und+Geburtshilfe+Zürich,Gruppenpraxis,https://www.onedoc.ch/de/gruppenpraxis/zurich/ewo8/gemeinschaftspraxis-fur-gynakologie-und-geburtshilfe,0,
Gemeinschaftspraxis für Innere Medizin,"Schiffliweg 7, 8700 Küsnacht",Schiffliweg 7,8700,Küsnacht,Zürich,044 910 10 52,Allgemeine Innere Medizin,https://viwi.ch/home3,https://www.google.ch/search?q=Gemeinschaftspraxis+für+Innere+Medizin+Küsnacht,Gruppenpraxis,https://www.onedoc.ch/de/gruppenpraxis/kusnacht/ewu8/gemeinschaftspraxis-fur-innere-medizin,0,
Gemeinschaftspraxis Glattbrugg,"Wallisellerstrasse 11, 8152 Glattbrugg",Wallisellerstrasse 11,8152,Glattbrugg,Zürich,044 810 22 12,"Allgemeine Innere Medizin, Gynäkologie und Geburtshilfe, Hausarztmedizin (Allgemeinmedizin)",https://arztzentrum-glattbrugg.ch/,https://www.google.ch/search?q=Gemeinschaftspraxis+Glattbrugg+Glattbrugg,Gruppenpraxis,https://www.onedoc.ch/de/gruppenpraxis/glattbrugg/ew3g/gemeinschaftspraxis-glattbrugg,0,
Gemeinschaftspraxis Leepünt,"Leepüntstrasse 18, 8600 Dübendorf",Leepüntstrasse 18,8600,Dübendorf,Zürich,044 823 90 90,Allgemeine Innere Medizin,,https://www.google.ch/search?q=Gemeinschaftspraxis+Leepünt+Dübendorf,Gruppenpraxis,https://www.onedoc.ch/de/gruppenpraxis/dubendorf/ew7l/gemeinschaftspraxis-leepunt,0,
Gemeinschaftspraxis Oberweningen,"Chlupfwisstrasse 34, 8165 Oberweningen",Chlupfwisstrasse 34,8165,Oberweningen,Zürich,044 857 80 80,Allgemeine Innere Medizin,https://www.oberweningen.ch/sehenswuerdigkeiten/25952,https://www.google.ch/search?q=Gemeinschaftspraxis+Oberweningen+Oberweningen,Gruppenpraxis,https://www.onedoc.ch/de/gruppenpraxis/oberweningen/ew89/gemeinschaftspraxis-oberweningen,0,
Gemeinschaftspraxis PIONIERPARK,"Zürcherstrasse 7 Pionierpark, 8400 Winterthur",Zürcherstrasse 7 Pionierpark,8400,Winterthur,Zürich,052 209 07 07,"Mund-, Kiefer- und Gesichtschirurgie, Oralchirurgie",,https://www.google.ch/search?q=Gemeinschaftspraxis+PIONIERPARK+Winterthur,Gruppenpraxis,https://www.onedoc.ch/de/gruppenpraxis/winterthur/ej6x/gemeinschaftspraxis-pionierpark,0,
Gemeinschaftspraxis Rössligasse,"Rössligasse 11, 8180 Bülach",Rössligasse 11,8180,Bülach,Zürich,044 860 11 14,Allgemeine Innere Medizin,http://praxis-roessligasse.ch/,https://www.google.ch/search?q=Gemeinschaftspraxis+Rössligasse+Bülach,Gruppenpraxis,https://www.onedoc.ch/de/gruppenpraxis/bulach/exh4/gemeinschaftspraxis-rossligasse,0,
Gemeinschaftspraxis Vordergasse 9,"Vordergasse 9, 8353 Elgg",Vordergasse 9,8353,Elgg,Zürich,052 364 10 00,Allgemeine Innere Medizin,http://www.praxis-vordergasse9.ch/medizin,https://www.google.ch/search?q=Gemeinschaftspraxis+Vordergasse+9+Elgg,Gruppenpraxis,https://www.onedoc.ch/de/gruppenpraxis/elgg/exbm/gemeinschaftspraxis-vordergasse-9,0,
Gemeinschaftspraxis Wiesendangen,"Schulstrasse 8c, 8542 Wiesendangen",Schulstrasse 8c,8542,Wiesendangen,Zürich,052 338 23 23,"Allgemeine Innere Medizin, Gynäkologie und Geburtshilfe, Hausarztmedizin (Allgemeinmedizin)",https://gemeinschaftspraxis-wiesendangen.ch/,https://www.google.ch/search?q=Gemeinschaftspraxis+Wiesendangen+Wiesendangen,Gruppenpraxis,https://www.onedoc.ch/de/gruppenpraxis/wiesendangen/ewp9/gemeinschaftspraxis-wiesendangen,0,
Gemeinschaftspraxis Züri Nord,"Schulstrasse 37, 8050 Zürich",Schulstrasse 37,8050,Zürich,Zürich,044 318 80 10,"Allgemeine Innere Medizin, Rheumatologie",https://www.zuerinordpraxis.ch/,https://www.google.ch/search?q=Gemeinschaftspraxis+Züri+Nord+Zürich,Gruppenpraxis,https://www.onedoc.ch/de/gruppenpraxis/zurich/ewo9/gemeinschaftspraxis-zuri-nord,0,
Gesundheit im Zentrum,"Kirchgasse 1, 8320 Fehraltorf",Kirchgasse 1,8320,Fehraltorf,Zürich,044 954 15 54,"Allgemeine Innere Medizin, Hausarztmedizin (Allgemeinmedizin)",,https://www.google.ch/search?q=Gesundheit+im+Zentrum+Fehraltorf,Gruppenpraxis,https://www.onedoc.ch/de/gruppenpraxis/fehraltorf/ewz5/gesundheit-im-zentrum,0,
Gesundheitshalt Praxisgemeinschaft,"Bahnhofstrasse 5, 8953 Dietikon",Bahnhofstrasse 5,8953,Dietikon,Zürich,044 744 50 20,"Allgemeine Innere Medizin, Gynäkologie und Geburtshilfe, Rheumatologie",,https://www.google.ch/search?q=Gesundheitshalt+Praxisgemeinschaft+Dietikon,Gruppenpraxis,https://www.onedoc.ch/de/gruppenpraxis/dietikon/ewtz/gesundheitshalt-praxisgemeinschaft,0,
Glattaler Praxis,"Adlerstrasse 1, 8600 Dübendorf",Adlerstrasse 1,8600,Dübendorf,Zürich,043 343 50 50,"HNO (Hals-, Nasen-, Ohrenheilkunde)",,https://www.google.ch/search?q=Glattaler+Praxis+Dübendorf,Gruppenpraxis,https://www.onedoc.ch/de/gruppenpraxis/dubendorf/ew1c/glattaler-praxis,0,
GO 87- Praxis für Gynäkologie & Geburtshilfe,"Goldbrunnenstrasse 87, 8055 Zürich",Goldbrunnenstrasse 87,8055,Zürich,Zürich,044 461 48 38,"Gynäkologie und Geburtshilfe, Kinderwunsch | Fertilitätsbehandlung, Sexuell übertragbare Krankheiten | Sexuell übertragbare Infektionen (STD/STI), Verhütung, Vorsorgeuntersuchung Humane Papillomaviren (HPV) | PAP Abstrich, Wechseljahre | Menopause",https://www.go87.ch/,https://www.google.ch/search?q=GO+87-+Praxis+für+Gynäkologie+&+Geburtshilfe+Zürich,Gruppenpraxis,https://www.onedoc.ch/de/gruppenpraxis/zurich/e9di/go-87-praxis-fur-gynakologie-geburtshilfe,0,
Gruppenpraxis,"Obergasse 19, 8400 Winterthur",Obergasse 19,8400,Winterthur,Zürich,052 203 31 81,"Hausarztmedizin (Allgemeinmedizin), Psychiatrie, Psychotherapie",https://www.sanacare.ch/gruppenpraxen/standorte/sanacare-winterthur/,https://www.google.ch/search?q=Gruppenpraxis+Winterthur,Gruppenpraxis,https://www.onedoc.ch/de/gruppenpraxis/winterthur/epl1/gruppenpraxis,0,
Gruppenpraxis Altstetterstrasse 118,"Altstetterstrasse 118, 8048 Zürich",Altstetterstrasse 118,8048,Zürich,Zürich,044 431 51 00,"Allgemeine Innere Medizin, Pädiatrie",https://www.arztpraxis-zurich.ch/,https://www.google.ch/search?q=Gruppenpraxis+Altstetterstrasse+118+Zürich,Gruppenpraxis,https://www.onedoc.ch/de/gruppenpraxis/zurich/ewp2/gruppenpraxis-altstetterstrasse-118,0,
Gruppenpraxis Dr. Ansel / Dr. Hranac / Dr. Mentzel / Dr. Schaub / Dr. Zehnder,"Bahnhofplatz 5, 8400 Winterthur",Bahnhofplatz 5,8400,Winterthur,Zürich,052 213 05 50,"Psychiatrie, Psychotherapie",,https://www.google.ch/search?q=Gruppenpraxis+Dr.+Ansel+/+Dr.+Hranac+/+Dr.+Mentzel+/+Dr.+Schaub+/+Dr.+Zehnder+Winterthur,Gruppenpraxis,https://www.onedoc.ch/de/gruppenpraxis/winterthur/exbv/gruppenpraxis-dr-ansel-dr-hranac-dr-mentzel-dr-schaub-dr-zehnder,0,
Gruppenpraxis Dr. Aslan / Dr. Gruhler,"Riedtlistrasse 1, 8006 Zürich",Riedtlistrasse 1,8006,Zürich,Zürich,044 361 86 65,Allgemeine Innere Medizin,,https://www.google.ch/search?q=Gruppenpraxis+Dr.+Aslan+/+Dr.+Gruhler+Zürich,Gruppenpraxis,https://www.onedoc.ch/de/gruppenpraxis/zurich/epin/gruppenpraxis-dr-aslan-dr-gruhler,0,
Gruppenpraxis Dr. A. und. Z. Bokor,"Kaiserstuhlerstrasse 52, 8187 Weiach",Kaiserstuhlerstrasse 52,8187,Weiach,Zürich,043 433 00 60,"Allgemeine Innere Medizin, Hausarztmedizin (Allgemeinmedizin), Pädiatrie",,https://www.google.ch/search?q=Gruppenpraxis+Dr.+A.+und.+Z.+Bokor+Weiach,Gruppenpraxis,https://www.onedoc.ch/de/gruppenpraxis/weiach/ewy6/gruppenpraxis-dr-a-und-z-bokor,0,
Gruppenpraxis Dr. Bächtold / Dr. Reger,"Liebestrasse 1, 8400 Winterthur",Liebestrasse 1,8400,Winterthur,Zürich,052 203 38 90,"Psychiatrie, Psychotherapie",,https://www.google.ch/search?q=Gruppenpraxis+Dr.+Bächtold+/+Dr.+Reger+Winterthur,Gruppenpraxis,https://www.onedoc.ch/de/gruppenpraxis/winterthur/epr7/gruppenpraxis-dr-bachtold-dr-reger,0,
Gruppenpraxis Dr. Baranec / Dr. Kappeler,"Hauptstrasse 2, 8477 Oberstammheim",Hauptstrasse 2,8477,Oberstammheim,Zürich,052 745 13 00,"Allgemeine Innere Medizin, Hausarztmedizin (Allgemeinmedizin)",,https://www.google.ch/search?q=Gruppenpraxis+Dr.+Baranec+/+Dr.+Kappeler+Oberstammheim,Gruppenpraxis,https://www.onedoc.ch/de/gruppenpraxis/oberstammheim/exl7/gruppenpraxis-dr-baranec-dr-kappeler,0,
Gruppenpraxis Dr. Bäuerle / Dr. Voigt,"Schachenstrasse 4, 8907 Wettswil",Schachenstrasse 4,8907,Wettswil,Zürich,044 700 11 44,"Allgemeine Innere Medizin, Hausarztmedizin (Allgemeinmedizin)",,https://www.google.ch/search?q=Gruppenpraxis+Dr.+Bäuerle+/+Dr.+Voigt+Wettswil,Gruppenpraxis,https://www.onedoc.ch/de/gruppenpraxis/wettswil/epqo/gruppenpraxis-dr-bauerle-dr-voigt,0,
Gruppenpraxis Dr. Bellorini / Dr. Schmidt,"Ziegelstrasse 2, 8038 Zürich",Ziegelstrasse 2,8038,Zürich,Zürich,044 482 33 33,Pädiatrie,,https://www.google.ch/search?q=Gruppenpraxis+Dr.+Bellorini+/+Dr.+Schmidt+Zürich,Gruppenpraxis,https://www.onedoc.ch/de/gruppenpraxis/zurich/epla/gruppenpraxis-dr-bellorini-dr-schmidt,0,
Gruppenpraxis Dr. Bernheim / Dr. Hoff,"Asylstrasse 82, 8032 Zürich",Asylstrasse 82,8032,Zürich,Zürich,044 422 56 11,"Allgemeine Innere Medizin, Endokrinologie und Diabetologie",,https://www.google.ch/search?q=Gruppenpraxis+Dr.+Bernheim+/+Dr.+Hoff+Zürich,Gruppenpraxis,https://www.onedoc.ch/de/gruppenpraxis/zurich/epub/gruppenpraxis-dr-bernheim-dr-hoff,0,
Gruppenpraxis Dr. Bonfiglio-Kägi / Dr. Grete-Wenger / Dr. Kägi Bonfiglio,"Heuackerstrasse 3, 8135 Langnau am Albis",Heuackerstrasse 3,8135,Langnau am Albis,Zürich,044 713 30 69,"Allgemeine Innere Medizin, Kinder- und Jugendpsychiatrie",,https://www.google.ch/search?q=Gruppenpraxis+Dr.+Bonfiglio-Kägi+/+Dr.+Grete-Wenger+/+Dr.+Kägi+Bonfiglio+Langnau+am+Albis,Gruppenpraxis,https://www.onedoc.ch/de/gruppenpraxis/langnau-am-albis/ew7u/gruppenpraxis-dr-bonfiglio-kagi-dr-grete-wenger-dr-kagi-bonfiglio,0,
Gruppenpraxis Dr. Bonsaver Meier / Dr. Kisgyörgy,"In der Fadmatt 112, 8902 Urdorf",In der Fadmatt 112,8902,Urdorf,Zürich,044 734 42 90,"Allgemeine Innere Medizin, Physikalische und Rehabilitative Medizin",,https://www.google.ch/search?q=Gruppenpraxis+Dr.+Bonsaver+Meier+/+Dr.+Kisgyörgy+Urdorf,Gruppenpraxis,https://www.onedoc.ch/de/gruppenpraxis/urdorf/exc6/gruppenpraxis-dr-bonsaver-meier-dr-kisgyorgy,0,
Gruppenpraxis Dr. Brandenberger / Dr. Brandenberger,"Bergstrasse 37, 8708 Männedorf",Bergstrasse 37,8708,Männedorf,Zürich,044 920 06 70,Allgemeine Innere Medizin,,https://www.google.ch/search?q=Gruppenpraxis+Dr.+Brandenberger+/+Dr.+Brandenberger+Männedorf,Gruppenpraxis,https://www.onedoc.ch/de/gruppenpraxis/mannedorf/eprt/gruppenpraxis-dr-brandenberger-dr-brandenberger,0,
Gruppenpraxis Dr. Broger / Dr. Ulmer,"Zolliker Strasse 79, 8702 Zollikon",Zolliker Strasse 79,8702,Zollikon,Zürich,044 391 80 80,Allgemeine Innere Medizin,,https://www.google.ch/search?q=Gruppenpraxis+Dr.+Broger+/+Dr.+Ulmer+Zollikon,Gruppenpraxis,https://www.onedoc.ch/de/gruppenpraxis/zollikon/ewzj/gruppenpraxis-dr-broger-dr-ulmer,0,
Gruppenpraxis Dr. Buri / Dr. Stephan / Dr. Tasci-Buck,"Schönenwerdstrasse 7, 8902 Urdorf",Schönenwerdstrasse 7,8902,Urdorf,Zürich,044 735 31 11,Pädiatrie,,https://www.google.ch/search?q=Gruppenpraxis+Dr.+Buri+/+Dr.+Stephan+/+Dr.+Tasci-Buck+Urdorf,Gruppenpraxis,https://www.onedoc.ch/de/gruppenpraxis/urdorf/ewtw/gruppenpraxis-dr-buri-dr-stephan-dr-tasci-buck,0,
Gruppenpraxis Dr. Bürklin / Dr. Geiger,"Minervastrasse 13, 8032 Zürich",Minervastrasse 13,8032,Zürich,Zürich,044 262 13 23,"Hausarztmedizin (Allgemeinmedizin), Neurologie, Psychiatrie, Psychotherapie",,https://www.google.ch/search?q=Gruppenpraxis+Dr.+Bürklin+/+Dr.+Geiger+Zürich,Gruppenpraxis,https://www.onedoc.ch/de/gruppenpraxis/zurich/ew3q/gruppenpraxis-dr-burklin-dr-geiger,0,
Gruppenpraxis Dr. Cerletti / Dr. Schlegel / Dr. Spillmann,"Olgastrasse 6, 8001 Zürich",Olgastrasse 6,8001,Zürich,Zürich,043 243 71 25,"Psychiatrie, Psychotherapie",,https://www.google.ch/search?q=Gruppenpraxis+Dr.+Cerletti+/+Dr.+Schlegel+/+Dr.+Spillmann+Zürich,Gruppenpraxis,https://www.onedoc.ch/de/gruppenpraxis/zurich/ewpb/gruppenpraxis-dr-cerletti-dr-schlegel-dr-spillmann,0,
Gruppenpraxis Dr. Chassé / Dr. Eriksson-Durrer,"Witikonerstrasse 15, 8032 Zürich",Witikonerstrasse 15,8032,Zürich,Zürich,044 422 65 05,Allgemeine Innere Medizin,,https://www.google.ch/search?q=Gruppenpraxis+Dr.+Chassé+/+Dr.+Eriksson-Durrer+Zürich,Gruppenpraxis,https://www.onedoc.ch/de/gruppenpraxis/zurich/epu7/gruppenpraxis-dr-chasse-dr-eriksson-durrer,0,
Gruppenpraxis Dr. Dätwyler / Dr. Meister,"Löwenstrasse 17, 8953 Dietikon",Löwenstrasse 17,8953,Dietikon,Zürich,044 745 35 35,Pädiatrie,,https://www.google.ch/search?q=Gruppenpraxis+Dr.+Dätwyler+/+Dr.+Meister+Dietikon,Gruppenpraxis,https://www.onedoc.ch/de/gruppenpraxis/dietikon/exhc/gruppenpraxis-dr-datwyler-dr-meister,0,
Gruppenpraxis Dr. Deseö / Dr. Deseö-Schütz / Dr. Lorger,"Dufourstrasse 143, 8008 Zürich",Dufourstrasse 143,8008,Zürich,Zürich,044 387 80 91,Allgemeine Innere Medizin,,https://www.google.ch/search?q=Gruppenpraxis+Dr.+Deseö+/+Dr.+Deseö-Schütz+/+Dr.+Lorger+Zürich,Gruppenpraxis,https://www.onedoc.ch/de/gruppenpraxis/zurich/eppp/gruppenpraxis-dr-deseo-dr-deseo-schutz-dr-lorger,0,
Gruppenpraxis Dr. Diener / Dr. Steger,"Falkenstrasse 26, 8008 Zürich",Falkenstrasse 26,8008,Zürich,Zürich,043 244 92 93,Allgemeine Innere Medizin,,https://www.google.ch/search?q=Gruppenpraxis+Dr.+Diener+/+Dr.+Steger+Zürich,Gruppenpraxis,https://www.onedoc.ch/de/gruppenpraxis/zurich/exp7/gruppenpraxis-dr-diener-dr-steger,0,
Gruppenpraxis Dr. Djahanschahi / Dr. Djahanschahi,"Zeunerstrasse 19, 8037 Zürich",Zeunerstrasse 19,8037,Zürich,Zürich,043 321 30 30,Allgemeine Innere Medizin,,https://www.google.ch/search?q=Gruppenpraxis+Dr.+Djahanschahi+/+Dr.+Djahanschahi+Zürich,Gruppenpraxis,https://www.onedoc.ch/de/gruppenpraxis/zurich/epoo/gruppenpraxis-dr-djahanschahi-dr-djahanschahi,0,
Gruppenpraxis Dr. Doldt-Damann / Dr. Zimmermann-Hösli,"Trichtenhauser Strasse 24, 8125 Zollikerberg",Trichtenhauser Strasse 24,8125,Zollikerberg,Zürich,044 397 31 12,Allgemeine Innere Medizin,,https://www.google.ch/search?q=Gruppenpraxis+Dr.+Doldt-Damann+/+Dr.+Zimmermann-Hösli+Zollikerberg,Gruppenpraxis,https://www.onedoc.ch/de/gruppenpraxis/zollikerberg/ewx8/gruppenpraxis-dr-doldt-damann-dr-zimmermann-hosli,0,
Gruppenpraxis Dr. Doromond / Dr. Fröhlich / Dr. Peter,"Zürcherstrasse 6, 8142 Uitikon Waldegg",Zürcherstrasse 6,8142,Uitikon Waldegg,Zürich,044 491 45 55,"Allgemeine Innere Medizin, Hausarztmedizin (Allgemeinmedizin)",,https://www.google.ch/search?q=Gruppenpraxis+Dr.+Doromond+/+Dr.+Fröhlich+/+Dr.+Peter+Uitikon+Waldegg,Gruppenpraxis,https://www.onedoc.ch/de/gruppenpraxis/uitikon-waldegg/ew25/gruppenpraxis-dr-doromond-dr-frohlich-dr-peter,0,
Gruppenpraxis Dr. Dudli / Dr. Gossweiler,"Schindlerstrasse 2, 8006 Zürich",Schindlerstrasse 2,8006,Zürich,Zürich,044 350 40 40,"Psychiatrie, Psychotherapie",,https://www.google.ch/search?q=Gruppenpraxis+Dr.+Dudli+/+Dr.+Gossweiler+Zürich,Gruppenpraxis,https://www.onedoc.ch/de/gruppenpraxis/zurich/exxf/gruppenpraxis-dr-dudli-dr-gossweiler,0,
Gruppenpraxis Dr. Enderlin / Dr. Holzinger-Schultheis / Dr. Riess,"Seefeldstrasse 4, 8008 Zürich",Seefeldstrasse 4,8008,Zürich,Zürich,044 262 19 29,"Angiologie, Dermatologie und Venerologie",https://www.derm.ch/,https://www.google.ch/search?q=Gruppenpraxis+Dr.+Enderlin+/+Dr.+Holzinger-Schultheis+/+Dr.+Riess+Zürich,Gruppenpraxis,https://www.onedoc.ch/de/gruppenpraxis/zurich/ewpf/gruppenpraxis-dr-enderlin-dr-holzinger-schultheis-dr-riess,0,
Gruppenpraxis Dr. Erni-Treier / Dr. Jaros,"Obstgartenstrasse 4, 8450 Andelfingen",Obstgartenstrasse 4,8450,Andelfingen,Zürich,052 317 26 75,Allgemeine Innere Medizin,,https://www.google.ch/search?q=Gruppenpraxis+Dr.+Erni-Treier+/+Dr.+Jaros+Andelfingen,Gruppenpraxis,https://www.onedoc.ch/de/gruppenpraxis/andelfingen/ew7h/gruppenpraxis-dr-erni-treier-dr-jaros,0,
Gruppenpraxis Dr. Floersheim / Dr. Gajic,"Gloriastrasse 57, 8044 Zürich",Gloriastrasse 57,8044,Zürich,Zürich,044 261 21 00,Gynäkologie und Geburtshilfe,,https://www.google.ch/search?q=Gruppenpraxis+Dr.+Floersheim+/+Dr.+Gajic+Zürich,Gruppenpraxis,https://www.onedoc.ch/de/gruppenpraxis/zurich/ew2q/gruppenpraxis-dr-floersheim-dr-gajic,0,
Gruppenpraxis Dr. Frey / Dr. Frey-Rindlisbacher,"Bahnhofstrasse 46, 8712 Stäfa",Bahnhofstrasse 46,8712,Stäfa,Zürich,044 796 33 88,"Allgemeine Innere Medizin, Hausarztmedizin (Allgemeinmedizin)",,https://www.google.ch/search?q=Gruppenpraxis+Dr.+Frey+/+Dr.+Frey-Rindlisbacher+Stäfa,Gruppenpraxis,https://www.onedoc.ch/de/gruppenpraxis/stafa/ew22/gruppenpraxis-dr-frey-dr-frey-rindlisbacher,0,
Gruppenpraxis Dr. Friedrich / Dr. Sgarbi-Bauhofer,"Birchstrasse 2, 8472 Seuzach",Birchstrasse 2,8472,Seuzach,Zürich,052 335 19 19,Allgemeine Innere Medizin,,https://www.google.ch/search?q=Gruppenpraxis+Dr.+Friedrich+/+Dr.+Sgarbi-Bauhofer+Seuzach,Gruppenpraxis,https://www.onedoc.ch/de/gruppenpraxis/seuzach/ewq0/gruppenpraxis-dr-friedrich-dr-sgarbi-bauhofer,0,
Gruppenpraxis Dr. Füllemann / Dr. Füllemann / Dr. Volkart,"Nauengasse 18, 8427 Rorbas",Nauengasse 18,8427,Rorbas,Zürich,044 865 37 37,Allgemeine Innere Medizin,https://arztpraxis-rorbas.ch/,https://www.google.ch/search?q=Gruppenpraxis+Dr.+Füllemann+/+Dr.+Füllemann+/+Dr.+Volkart+Rorbas,Gruppenpraxis,https://www.onedoc.ch/de/gruppenpraxis/rorbas/ewvc/gruppenpraxis-dr-fullemann-dr-fullemann-dr-volkart,0,
Gruppenpraxis Dr. Gautschi / Dr. Lattmann / Dr. Mühlemann,"Lindbergstrasse 15, 8404 Winterthur",Lindbergstrasse 15,8404,Winterthur,Zürich,052 242 25 50,Allgemeine Innere Medizin,,https://www.google.ch/search?q=Gruppenpraxis+Dr.+Gautschi+/+Dr.+Lattmann+/+Dr.+Mühlemann+Winterthur,Gruppenpraxis,https://www.onedoc.ch/de/gruppenpraxis/winterthur/exfd/gruppenpraxis-dr-gautschi-dr-lattmann-dr-muhlemann,0,
Gruppenpraxis Dr. Geiser / Dr. Thomann Bataillard,"Spitalstrasse 32, 8952 Schlieren",Spitalstrasse 32,8952,Schlieren,Zürich,044 730 21 88,Pädiatrie,,https://www.google.ch/search?q=Gruppenpraxis+Dr.+Geiser+/+Dr.+Thomann+Bataillard+Schlieren,Gruppenpraxis,https://www.onedoc.ch/de/gruppenpraxis/schlieren/ewt3/gruppenpraxis-dr-geiser-dr-thomann-bataillard,0,
Gruppenpraxis Dr. Gerber / Dr. Loy,"Breitackerstrasse 27, 8106 Adlikon b. Regensdorf",Breitackerstrasse 27,8106,Adlikon b. Regensdorf,Zürich,044 841 07 87,"Allgemeine Innere Medizin, Hausarztmedizin (Allgemeinmedizin), Homöopathie",,https://www.google.ch/search?q=Gruppenpraxis+Dr.+Gerber+/+Dr.+Loy+Adlikon+b.+Regensdorf,Gruppenpraxis,https://www.onedoc.ch/de/gruppenpraxis/adlikon-b-regensdorf/ewy1/gruppenpraxis-dr-gerber-dr-loy,0,
Gruppenpraxis Dr. Gigon / Dr. Haller,"Bellerivestrasse 21, 8008 Zürich",Bellerivestrasse 21,8008,Zürich,Zürich,044 241 46 46,"Psychiatrie, Psychotherapie",,https://www.google.ch/search?q=Gruppenpraxis+Dr.+Gigon+/+Dr.+Haller+Zürich,Gruppenpraxis,https://www.onedoc.ch/de/gruppenpraxis/zurich/ewim/gruppenpraxis-dr-gigon-dr-haller,0,
Gruppenpraxis Dr. Grossenbacher / Dr. Kleinert,"Limmattalstrasse 167, 8049 Zürich",Limmattalstrasse 167,8049,Zürich,Zürich,044 341 31 31,"Physikalische und Rehabilitative Medizin, Rheumatologie",,https://www.google.ch/search?q=Gruppenpraxis+Dr.+Grossenbacher+/+Dr.+Kleinert+Zürich,Gruppenpraxis,https://www.onedoc.ch/de/gruppenpraxis/zurich/exdd/gruppenpraxis-dr-grossenbacher-dr-kleinert,0,
Gruppenpraxis Dr. Gross / Dr. Inauen / Dr. Oggenfuss Inauen,"Bahnhofstrasse 2, 8952 Schlieren",Bahnhofstrasse 2,8952,Schlieren,Zürich,044 730 66 46,Allgemeine Innere Medizin,,https://www.google.ch/search?q=Gruppenpraxis+Dr.+Gross+/+Dr.+Inauen+/+Dr.+Oggenfuss+Inauen+Schlieren,Gruppenpraxis,https://www.onedoc.ch/de/gruppenpraxis/schlieren/ewjf/gruppenpraxis-dr-gross-dr-inauen-dr-oggenfuss-inauen,0,
Gruppenpraxis Dr. Grosz-Kafka / Dr. Grosz-Kafka,"Sonneggstrasse 55, 8006 Zürich",Sonneggstrasse 55,8006,Zürich,Zürich,044 262 12 69,"Allgemeine Innere Medizin, Kinder- und Jugendpsychiatrie",,https://www.google.ch/search?q=Gruppenpraxis+Dr.+Grosz-Kafka+/+Dr.+Grosz-Kafka+Zürich,Gruppenpraxis,https://www.onedoc.ch/de/gruppenpraxis/zurich/ew4l/gruppenpraxis-dr-grosz-kafka-dr-grosz-kafka,0,
Gruppenpraxis Dr. Hany / Dr. Hany,"Marktgasse 45, 8400 Winterthur",Marktgasse 45,8400,Winterthur,Zürich,052 214 06 06,Allgemeine Innere Medizin,,https://www.google.ch/search?q=Gruppenpraxis+Dr.+Hany+/+Dr.+Hany+Winterthur,Gruppenpraxis,https://www.onedoc.ch/de/gruppenpraxis/winterthur/ex16/gruppenpraxis-dr-hany-dr-hany,0,
Gruppenpraxis Dr. Jeanneret Barz / Dr. Meister-Ganz,"Zielackerstrasse 11, 8603 Schwerzenbach",Zielackerstrasse 11,8603,Schwerzenbach,Zürich,044 825 17 55,"Allgemeine Innere Medizin, Rheumatologie",,https://www.google.ch/search?q=Gruppenpraxis+Dr.+Jeanneret+Barz+/+Dr.+Meister-Ganz+Schwerzenbach,Gruppenpraxis,https://www.onedoc.ch/de/gruppenpraxis/schwerzenbach/ew7j/gruppenpraxis-dr-jeanneret-barz-dr-meister-ganz,0,
Gruppenpraxis Dr. Jeggli / Dr. Widmeier,"Dorfstrasse 51, 8427 Freienstein-Teufen",Dorfstrasse 51,8427,Freienstein-Teufen,Zürich,044 865 26 01,"Allgemeine Innere Medizin, Arbeitsmedizin, Hausarztmedizin (Allgemeinmedizin)",,https://www.google.ch/search?q=Gruppenpraxis+Dr.+Jeggli+/+Dr.+Widmeier+Freienstein-Teufen,Gruppenpraxis,https://www.onedoc.ch/de/gruppenpraxis/freienstein-teufen/ew3j/gruppenpraxis-dr-jeggli-dr-widmeier,0,
Gruppenpraxis Dr. Joos / Dr. Jucker-Vella / Dr. Möller,"Im Heumoos 11, 8906 Bonstetten",Im Heumoos 11,8906,Bonstetten,Zürich,044 701 90 90,"Allgemeine Innere Medizin, Hausarztmedizin (Allgemeinmedizin)",,https://www.google.ch/search?q=Gruppenpraxis+Dr.+Joos+/+Dr.+Jucker-Vella+/+Dr.+Möller+Bonstetten,Gruppenpraxis,https://www.onedoc.ch/de/gruppenpraxis/bonstetten/ewg9/gruppenpraxis-dr-joos-dr-jucker-vella-dr-moller,0,
Gruppenpraxis Dr. Kindhauser / Dr. Kindhauser-Züger,"Thurhaldenweg 2, 8451 Kleinandelfingen",Thurhaldenweg 2,8451,Kleinandelfingen,Zürich,052 305 26 00,Allgemeine Innere Medizin,,https://www.google.ch/search?q=Gruppenpraxis+Dr.+Kindhauser+/+Dr.+Kindhauser-Züger+Kleinandelfingen,Gruppenpraxis,https://www.onedoc.ch/de/gruppenpraxis/kleinandelfingen/ewyv/gruppenpraxis-dr-kindhauser-dr-kindhauser-zuger,0,
Gruppenpraxis Dr. Klingler-Bigler / Dr. Martinez-Dehe,"Höhenring 7, 8052 Zürich",Höhenring 7,8052,Zürich,Zürich,044 300 36 00,Pädiatrie,,https://www.google.ch/search?q=Gruppenpraxis+Dr.+Klingler-Bigler+/+Dr.+Martinez-Dehe+Zürich,Gruppenpraxis,https://www.onedoc.ch/de/gruppenpraxis/zurich/ew8r/gruppenpraxis-dr-klingler-bigler-dr-martinez-dehe,0,
Gruppenpraxis Dr. Köhler / Dr. Lebeda,"Dorfstrasse 5, 8700 Küsnacht",Dorfstrasse 5,8700,Küsnacht,Zürich,044 910 55 21,Gynäkologie und Geburtshilfe,,https://www.google.ch/search?q=Gruppenpraxis+Dr.+Köhler+/+Dr.+Lebeda+Küsnacht,Gruppenpraxis,https://www.onedoc.ch/de/gruppenpraxis/kusnacht/ew8z/gruppenpraxis-dr-kohler-dr-lebeda,0,
Gruppenpraxis Dr. Krebs / Dr. Thiel,"Kalchengasse 7, 8302 Kloten",Kalchengasse 7,8302,Kloten,Zürich,044 813 14 14,"Allgemeine Innere Medizin, Rheumatologie",https://www.kloten.ch/firmenverzeichnis/138383,https://www.google.ch/search?q=Gruppenpraxis+Dr.+Krebs+/+Dr.+Thiel+Kloten,Gruppenpraxis,https://www.onedoc.ch/de/gruppenpraxis/kloten/ewt1/gruppenpraxis-dr-krebs-dr-thiel,0,
Gruppenpraxis Dr. Leudl / Dr. Meier,"Schaffhauserstrasse 7, 8400 Winterthur",Schaffhauserstrasse 7,8400,Winterthur,Zürich,052 209 00 33,"Hausarztmedizin (Allgemeinmedizin), Psychiatrie, Psychotherapie",,https://www.google.ch/search?q=Gruppenpraxis+Dr.+Leudl+/+Dr.+Meier+Winterthur,Gruppenpraxis,https://www.onedoc.ch/de/gruppenpraxis/winterthur/exfs/gruppenpraxis-dr-leudl-dr-meier,0,
Gruppenpraxis Dr. Maschio Andrist / Dr. Stamm,"Obere Schärerstrasse 2a, 8352 Elsau",Obere Schärerstrasse 2a,8352,Elsau,Zürich,052 363 16 33,Allgemeine Innere Medizin,,https://www.google.ch/search?q=Gruppenpraxis+Dr.+Maschio+Andrist+/+Dr.+Stamm+Elsau,Gruppenpraxis,https://www.onedoc.ch/de/gruppenpraxis/elsau/exbl/gruppenpraxis-dr-maschio-andrist-dr-stamm,0,
Gruppenpraxis Dr. med. Jiri Mach & Prof. Dr. med. Robert Steffen,"Obere Heslibachstrasse 42, 8700 Küsnacht",Obere Heslibachstrasse 42,8700,Küsnacht,Zürich,044 991 24 34,"Allgemeine Innere Medizin, Rheumatologie",,https://www.google.ch/search?q=Gruppenpraxis+Dr.+med.+Jiri+Mach+&+Prof.+Dr.+med.+Robert+Steffen+Küsnacht,Gruppenpraxis,https://www.onedoc.ch/de/gruppenpraxis/kusnacht/ebbof/gruppenpraxis-dr-med-jiri-mach-prof-dr-med-robert-steffen,0,
Gruppenpraxis Dr. Milvio Schalcher / Dr. Reiher,"Nansenstrasse 16, 8050 Zürich",Nansenstrasse 16,8050,Zürich,Zürich,044 313 00 01,"Allgemeine Innere Medizin, Chirurgie",,https://www.google.ch/search?q=Gruppenpraxis+Dr.+Milvio+Schalcher+/+Dr.+Reiher+Zürich,Gruppenpraxis,https://www.onedoc.ch/de/gruppenpraxis/zurich/eq5w/gruppenpraxis-dr-milvio-schalcher-dr-reiher,0,
Gruppenpraxis Dr. Müller / Dr. Plangger-Vavra,"Tödistrasse 3, 8634 Hombrechtikon",Tödistrasse 3,8634,Hombrechtikon,Zürich,055 244 42 88,Allgemeine Innere Medizin,,https://www.google.ch/search?q=Gruppenpraxis+Dr.+Müller+/+Dr.+Plangger-Vavra+Hombrechtikon,Gruppenpraxis,https://www.onedoc.ch/de/gruppenpraxis/hombrechtikon/ewk5/gruppenpraxis-dr-muller-dr-plangger-vavra,0,
Gruppenpraxis Dr. Nagel / Dr. Zagralioglu,"Gartematt 9, 8180 Bülach",Gartematt 9,8180,Bülach,Zürich,043 411 40 60,"Allgemeine Innere Medizin, Gynäkologie und Geburtshilfe",,https://www.google.ch/search?q=Gruppenpraxis+Dr.+Nagel+/+Dr.+Zagralioglu+Bülach,Gruppenpraxis,https://www.onedoc.ch/de/gruppenpraxis/bulach/ewxs/gruppenpraxis-dr-nagel-dr-zagralioglu,0,
Gruppenpraxis Dr. Oppliger / Dr. Oppliger,"Hardturmstrasse 202, 8005 Zürich",Hardturmstrasse 202,8005,Zürich,Zürich,044 272 84 61,Allgemeine Innere Medizin,,https://www.google.ch/search?q=Gruppenpraxis+Dr.+Oppliger+/+Dr.+Oppliger+Zürich,Gruppenpraxis,https://www.onedoc.ch/de/gruppenpraxis/zurich/ewjt/gruppenpraxis-dr-oppliger-dr-oppliger,0,
Gruppenpraxis Dr. Padrutt / Dr. Padrutt-Germann,"Klosbachstrasse 73, 8032 Zürich",Klosbachstrasse 73,8032,Zürich,Zürich,044 252 51 02,"Psychiatrie, Psychotherapie",,https://www.google.ch/search?q=Gruppenpraxis+Dr.+Padrutt+/+Dr.+Padrutt-Germann+Zürich,Gruppenpraxis,https://www.onedoc.ch/de/gruppenpraxis/zurich/ewj5/gruppenpraxis-dr-padrutt-dr-padrutt-germann,0,
Gruppenpraxis Dr. Pfarrwaller / Dr. Pfarrwaller,"Brühlgartenstrasse 10, 8400 Winterthur",Brühlgartenstrasse 10,8400,Winterthur,Zürich,052 212 88 82,"Psychiatrie, Psychotherapie",,https://www.google.ch/search?q=Gruppenpraxis+Dr.+Pfarrwaller+/+Dr.+Pfarrwaller+Winterthur,Gruppenpraxis,https://www.onedoc.ch/de/gruppenpraxis/winterthur/ewk0/gruppenpraxis-dr-pfarrwaller-dr-pfarrwaller,0,
Gruppenpraxis Dr. Press / Dr. Suter,"Obergasse 30, 8400 Winterthur",Obergasse 30,8400,Winterthur,Zürich,052 202 44 88,"Hausarztmedizin (Allgemeinmedizin), Psychiatrie, Psychotherapie",,https://www.google.ch/search?q=Gruppenpraxis+Dr.+Press+/+Dr.+Suter+Winterthur,Gruppenpraxis,https://www.onedoc.ch/de/gruppenpraxis/winterthur/exk3/gruppenpraxis-dr-press-dr-suter,0,
Gruppenpraxis Dr. Reich-Rutz / Dr. Ziehmann,"Schaffhauserstrasse 34, 8006 Zürich",Schaffhauserstrasse 34,8006,Zürich,Zürich,044 361 37 27,"Allgemeine Innere Medizin, Physikalische und Rehabilitative Medizin, Rheumatologie",,https://www.google.ch/search?q=Gruppenpraxis+Dr.+Reich-Rutz+/+Dr.+Ziehmann+Zürich,Gruppenpraxis,https://www.onedoc.ch/de/gruppenpraxis/zurich/exlo/gruppenpraxis-dr-reich-rutz-dr-ziehmann,0,
Gruppenpraxis Dr. Reinhold / pract. med. Reinhold,"Dorfstrasse 9, 8302 Kloten",Dorfstrasse 9,8302,Kloten,Zürich,044 813 33 50,"Allgemeine Innere Medizin, Chirurgie",,https://www.google.ch/search?q=Gruppenpraxis+Dr.+Reinhold+/+pract.+med.+Reinhold+Kloten,Gruppenpraxis,https://www.onedoc.ch/de/gruppenpraxis/kloten/ewmg/gruppenpraxis-dr-reinhold-pract-med-reinhold,0,
Gruppenpraxis Dr. Reller / Dr. Reller,"Bahnhofstrasse 228c, 8620 Wetzikon",Bahnhofstrasse 228c,8620,Wetzikon,Zürich,044 930 32 62,"Psychiatrie, Psychotherapie",,https://www.google.ch/search?q=Gruppenpraxis+Dr.+Reller+/+Dr.+Reller+Wetzikon,Gruppenpraxis,https://www.onedoc.ch/de/gruppenpraxis/wetzikon/ewmh/gruppenpraxis-dr-reller-dr-reller,0,
Gruppenpraxis Dr. Schmidt / Dr. Schneider,"Kirchfeld 2, 8910 Affoltern am Albis",Kirchfeld 2,8910,Affoltern am Albis,Zürich,044 762 20 00,"Allgemeine Innere Medizin, Hausarztmedizin (Allgemeinmedizin), Psychiatrie, Psychotherapie",,https://www.google.ch/search?q=Gruppenpraxis+Dr.+Schmidt+/+Dr.+Schneider+Affoltern+am+Albis,Gruppenpraxis,https://www.onedoc.ch/de/gruppenpraxis/affoltern-am-albis/ewpk/gruppenpraxis-dr-schmidt-dr-schneider,0,
Gruppenpraxis Dr. Senning / Dr. Senning,"Stettbachstrasse 12, 8702 Zollikon",Stettbachstrasse 12,8702,Zollikon,Zürich,044 391 45 55,Chirurgie,,https://www.google.ch/search?q=Gruppenpraxis+Dr.+Senning+/+Dr.+Senning+Zollikon,Gruppenpraxis,https://www.onedoc.ch/de/gruppenpraxis/zollikon/ewqw/gruppenpraxis-dr-senning-dr-senning,0,
Gruppenpraxis Dr. Stäger / Dr. Stäger-Kosinski,"Gladbachstrasse 32, 8006 Zürich",Gladbachstrasse 32,8006,Zürich,Zürich,044 362 99 11,"Allergologie und Immunologie, Allgemeine Innere Medizin, Dermatologie und Venerologie",,https://www.google.ch/search?q=Gruppenpraxis+Dr.+Stäger+/+Dr.+Stäger-Kosinski+Zürich,Gruppenpraxis,https://www.onedoc.ch/de/gruppenpraxis/zurich/ewr9/gruppenpraxis-dr-stager-dr-stager-kosinski,0,
Gruppenpraxis Dr. Staubli / Dr. Staubli-Sutter,"Birmensdorferstrasse 26, 8953 Dietikon",Birmensdorferstrasse 26,8953,Dietikon,Zürich,044 740 65 11,Allgemeine Innere Medizin,https://www.praxis-staubli.ch/,https://www.google.ch/search?q=Gruppenpraxis+Dr.+Staubli+/+Dr.+Staubli-Sutter+Dietikon,Gruppenpraxis,https://www.onedoc.ch/de/gruppenpraxis/dietikon/ewsh/gruppenpraxis-dr-staubli-dr-staubli-sutter,0,
Gruppenpraxis Dr. Tuma / Dr. Tuma,"Seilerweg 1, 8610 Uster",Seilerweg 1,8610,Uster,Zürich,044 940 58 12,"Allgemeine Innere Medizin, Hausarztmedizin (Allgemeinmedizin)",,https://www.google.ch/search?q=Gruppenpraxis+Dr.+Tuma+/+Dr.+Tuma+Uster,Gruppenpraxis,https://www.onedoc.ch/de/gruppenpraxis/uster/ewun/gruppenpraxis-dr-tuma-dr-tuma,0,
Gruppenpraxis Dr. Vacariu / Dr. Vass,"Schaffhauserstrasse 136, 8302 Kloten",Schaffhauserstrasse 136,8302,Kloten,Zürich,044 814 01 50,"Allgemeine Innere Medizin, Chirurgie, Hausarztmedizin (Allgemeinmedizin)",,https://www.google.ch/search?q=Gruppenpraxis+Dr.+Vacariu+/+Dr.+Vass+Kloten,Gruppenpraxis,https://www.onedoc.ch/de/gruppenpraxis/kloten/ewuv/gruppenpraxis-dr-vacariu-dr-vass,0,
Gruppenpraxis Dr. Weber / Dr. Weber,"Fierzgasse 16, 8005 Zürich",Fierzgasse 16,8005,Zürich,Zürich,044 271 51 41,Allgemeine Innere Medizin,,https://www.google.ch/search?q=Gruppenpraxis+Dr.+Weber+/+Dr.+Weber+Zürich,Gruppenpraxis,https://www.onedoc.ch/de/gruppenpraxis/zurich/ew1r/gruppenpraxis-dr-weber-dr-weber,0,
Gruppenpraxis Dr. Wellmann-Voiculescu / Dr. Wellmann-Voiculescu,"Frauenfelderstrasse 69, 8404 Winterthur",Frauenfelderstrasse 69,8404,Winterthur,Zürich,052 242 14 40,"Allgemeine Innere Medizin, Hausarztmedizin (Allgemeinmedizin), Orthopädische Chirurgie",,https://www.google.ch/search?q=Gruppenpraxis+Dr.+Wellmann-Voiculescu+/+Dr.+Wellmann-Voiculescu+Winterthur,Gruppenpraxis,https://www.onedoc.ch/de/gruppenpraxis/winterthur/ewwk/gruppenpraxis-dr-wellmann-voiculescu-dr-wellmann-voiculescu,0,
Gruppenpraxis Dr. Willimann / Dr. Willimann,"Schaffhauserstrasse 343, 8050 Zürich",Schaffhauserstrasse 343,8050,Zürich,Zürich,044 311 60 22,Allgemeine Innere Medizin,,https://www.google.ch/search?q=Gruppenpraxis+Dr.+Willimann+/+Dr.+Willimann+Zürich,Gruppenpraxis,https://www.onedoc.ch/de/gruppenpraxis/zurich/eww0/gruppenpraxis-dr-willimann-dr-willimann,0,
Gruppenpraxis Dr. Wyler / Dr. Wyler-Brem,"Altstetterstrasse 159, 8048 Zürich",Altstetterstrasse 159,8048,Zürich,Zürich,044 431 23 13,Allgemeine Innere Medizin,https://www.drwyler.ch/,https://www.google.ch/search?q=Gruppenpraxis+Dr.+Wyler+/+Dr.+Wyler-Brem+Zürich,Gruppenpraxis,https://www.onedoc.ch/de/gruppenpraxis/zurich/ewxn/gruppenpraxis-dr-wyler-dr-wyler-brem,0,
Gruppenpraxis Fritschi / Dr. Siccoli / Dr. Tscholl,"Oberer Graben 4, 8400 Winterthur",Oberer Graben 4,8400,Winterthur,Zürich,052 212 91 00,Neurologie,,https://www.google.ch/search?q=Gruppenpraxis+Fritschi+/+Dr.+Siccoli+/+Dr.+Tscholl+Winterthur,Gruppenpraxis,https://www.onedoc.ch/de/gruppenpraxis/winterthur/expe/gruppenpraxis-fritschi-dr-siccoli-dr-tscholl,0,
Gruppenpraxis Hirschen,"Winterthurerstrasse 511, 8051 Zürich",Winterthurerstrasse 511,8051,Zürich,Zürich,044 325 10 50,Allgemeine Innere Medizin,https://www.gruppenpraxis-hirschen.ch/,https://www.google.ch/search?q=Gruppenpraxis+Hirschen+Zürich,Gruppenpraxis,https://www.onedoc.ch/de/gruppenpraxis/zurich/ewvs/gruppenpraxis-hirschen,0,
Gruppenpraxis Höhenweg 20 Zürich,"Höhenweg 20, 8032 Zürich",Höhenweg 20,8032,Zürich,Zürich,044 383 00 15,"Psychiatrie, Psychotherapie",,https://www.google.ch/search?q=Gruppenpraxis+Höhenweg+20+Zürich+Zürich,Gruppenpraxis,https://www.onedoc.ch/de/gruppenpraxis/zurich/expx/gruppenpraxis-hohenweg-20-zurich,0,
Gruppenpraxis Kinder,"Albisriederplatz 10, 8004 Zürich",Albisriederplatz 10,8004,Zürich,Zürich,044 493 31 61,Pädiatrie,,https://www.google.ch/search?q=Gruppenpraxis+Kinder+Zürich,Gruppenpraxis,https://www.onedoc.ch/de/gruppenpraxis/zurich/ew2k/gruppenpraxis-kinder,0,
Gruppenpraxis Kreuzplatz 2 Zürich,"Kreuzplatz 2, 8032 Zürich",Kreuzplatz 2,8032,Zürich,Zürich,044 254 20 20,"Gynäkologie und Geburtshilfe, HNO (Hals-, Nasen-, Ohrenheilkunde)",,https://www.google.ch/search?q=Gruppenpraxis+Kreuzplatz+2+Zürich+Zürich,Gruppenpraxis,https://www.onedoc.ch/de/gruppenpraxis/zurich/ew4u/gruppenpraxis-kreuzplatz-2-zurich,0,
Gruppenpraxis Prof. Bajka-Djahanschahi / pract. med. Grazek,"Höhacher-Weg 5, 8604 Volketswil",Höhacher-Weg 5,8604,Volketswil,Zürich,044 946 20 00,Gynäkologie und Geburtshilfe,,https://www.google.ch/search?q=Gruppenpraxis+Prof.+Bajka-Djahanschahi+/+pract.+med.+Grazek+Volketswil,Gruppenpraxis,https://www.onedoc.ch/de/gruppenpraxis/volketswil/ew4e/gruppenpraxis-prof-bajka-djahanschahi-pract-med-grazek,0,
Gruppenpraxis Stöcklin / Dr. Hockenjos Hirsbrunner / Dr. Rieser,"Badenerstrasse 89, 8004 Zürich",Badenerstrasse 89,8004,Zürich,Zürich,044 242 84 80,Allgemeine Innere Medizin,,https://www.google.ch/search?q=Gruppenpraxis+Stöcklin+/+Dr.+Hockenjos+Hirsbrunner+/+Dr.+Rieser+Zürich,Gruppenpraxis,https://www.onedoc.ch/de/gruppenpraxis/zurich/ewmv/gruppenpraxis-stocklin-dr-hockenjos-hirsbrunner-dr-rieser,0,
Gruppenpraxis Strehlgasse 3,"Strehlgasse 3, 8600 Dübendorf",Strehlgasse 3,8600,Dübendorf,Zürich,044 882 44 20,"Allgemeine Innere Medizin, Rheumatologie",,https://www.google.ch/search?q=Gruppenpraxis+Strehlgasse+3+Dübendorf,Gruppenpraxis,https://www.onedoc.ch/de/gruppenpraxis/dubendorf/ewqf/gruppenpraxis-strehlgasse-3,0,
Gruppenpraxis Universitätstrasse 100 Zürich,"Universitätstrasse 100, 8006 Zürich",Universitätstrasse 100,8006,Zürich,Zürich,044 363 20 21,"Allgemeine Innere Medizin, Medizinische Onkologie",,https://www.google.ch/search?q=Gruppenpraxis+Universitätstrasse+100+Zürich+Zürich,Gruppenpraxis,https://www.onedoc.ch/de/gruppenpraxis/zurich/epj5/gruppenpraxis-universitatstrasse-100-zurich,0,
Gulmenmed,"Zugerstrasse 80, 8820 Wädenswil",Zugerstrasse 80,8820,Wädenswil,Zürich,044 780 55 00,Allgemeine Innere Medizin,https://www.gulmenmed.ch/,https://www.google.ch/search?q=Gulmenmed+Wädenswil,Gruppenpraxis,https://www.onedoc.ch/de/gruppenpraxis/wadenswil/ewjw/gulmenmed,0,
Gynäkologie Dübendorf,"Strehlgasse 3, 8600 Dübendorf",Strehlgasse 3,8600,Dübendorf,Zürich,044 820 25 45,Gynäkologie und Geburtshilfe,https://gynaekologie-duebendorf.ch/,https://www.google.ch/search?q=Gynäkologie+Dübendorf+Dübendorf,Gruppenpraxis,https://www.onedoc.ch/de/gruppenpraxis/dubendorf/epjn/gynakologie-dubendorf,0,
Gynäkologie Geburtshilfe Winterthur,"St. Gallerstrasse 39, 8400 Winterthur",St. Gallerstrasse 39,8400,Winterthur,Zürich,052 242 61 61,Gynäkologie und Geburtshilfe,https://www.praxis-medelle.ch/,https://www.google.ch/search?q=Gynäkologie+Geburtshilfe+Winterthur+Winterthur,Gruppenpraxis,https://www.onedoc.ch/de/gruppenpraxis/winterthur/ewry/gynakologie-geburtshilfe-winterthur,0,
Gynäkologie im Zentrum,"Seidengasse 15, 8001 Zürich",Seidengasse 15,8001,Zürich,Zürich,044 212 84 74,"Gynäkologie und Geburtshilfe, Verhütung, Vorsorgeuntersuchung | Check up, Wechseljahre | Menopause",https://giz-zuerich.ch/,https://www.google.ch/search?q=Gynäkologie+im+Zentrum+Zürich,Gruppenpraxis,https://www.onedoc.ch/de/gruppenpraxis/zurich/ew27/gynakologie-im-zentrum,0,
Gyn A.R.T.,"Hardturmstrasse 130, 8005 Zürich",Hardturmstrasse 130,8005,Zürich,Zürich,044 446 60 60,Gynäkologie und Geburtshilfe,,https://www.google.ch/search?q=Gyn+A.R.T.+Zürich,Gruppenpraxis,https://www.onedoc.ch/de/gruppenpraxis/zurich/ewg0/gyn-a-r-t,0,
GynCare,"Binzallee 6, 8055 Zürich",Binzallee 6,8055,Zürich,Zürich,044 552 40 85,Gynäkologie und Geburtshilfe,https://gyn.care/,https://www.google.ch/search?q=GynCare+Zürich,Gruppenpraxis,https://www.onedoc.ch/de/gruppenpraxis/zurich/ew00/gyncare,0,
Gyné am See,"Kohlrainstrasse 10, 8700 Küsnacht",Kohlrainstrasse 10,8700,Küsnacht,Zürich,044 912 25 25,Gynäkologie und Geburtshilfe,https://www.gyne-am-see.ch/CMS/de-CH/Praxisinfo-Singer/Praxisinformation-Dr-Michael-Singer.aspx?Sel=389,https://www.google.ch/search?q=Gyné+am+See+Küsnacht,Gruppenpraxis,https://www.onedoc.ch/de/gruppenpraxis/kusnacht/eqvs/gyne-am-see,0,
Gyn Praxis Stockerstrasse,"Stockerstrasse 45, 8002 Zürich",Stockerstrasse 45,8002,Zürich,Zürich,044 527 90 30,"Gynäkologie und Geburtshilfe, Urogynäkologie, Beckenbodenrehabilitation | Postpartale Rehabilitation | Urogenitale Rehabilitation, Blasenspiegelung | Urethrozystoskopie, Familienplanung, Harnwegsinfektion | Zystitis | Blasenentzündung, Hormonanalyse, Humane Papillomaviren Impfung (HPV) | Gebärmutterhalskrebsimpfung, Kindergynäkologie | Jugendgynäkologie, Kolposkopie | Scheidenspiegelung, Perinealer Ultraschall, Schwangerschaftsultraschall, Schwangerschaftsvorsorge | Schwangerschaftsuntersuchung, Sexuell übertragbare Krankheiten | Sexuell übertragbare Infektionen (STD/STI), Spirale | Spiraleinlage | Intrauterinpessar (IUP), Vaginalpilz, Verhütung, Vorsorgeuntersuchung Brustkrebs, Vorsorgeuntersuchung Humane Papillomaviren (HPV) | PAP Abstrich, Wechseljahre | Menopause",https://www.gynstockerstrasse.ch/,https://www.google.ch/search?q=Gyn+Praxis+Stockerstrasse+Zürich,Gruppenpraxis,https://www.onedoc.ch/de/gruppenpraxis/zurich/e9h1/gyn-praxis-stockerstrasse,0,
HämostaseThromboseZentrum Zürich,"Weinbergstrasse 157, 8006 Zürich",Weinbergstrasse 157,8006,Zürich,Zürich,044 360 80 70,Allgemeine Innere Medizin,https://www.blutgerinnung.ch/de/htz,https://www.google.ch/search?q=HämostaseThromboseZentrum+Zürich+Zürich,Gruppenpraxis,https://www.onedoc.ch/de/gruppenpraxis/zurich/ewss/hamostasethrombosezentrum-zurich,0,
Handclinic Rüti,"Dorfstrasse 43, 8630 Rüti ZH",Dorfstrasse 43,8630,Rüti ZH,Zürich,055 251 23 23,"Chirurgie, Handchirurgie, Orthopädische Chirurgie",https://www.handclinic.ch/,https://www.google.ch/search?q=Handclinic+Rüti+Rüti+ZH,Gruppenpraxis,https://www.onedoc.ch/de/gruppenpraxis/ruti/ew4s/handclinic-ruti,1,"Zuweisung, Zuweiser"
Handpraxis,"Dufourstrasse 95, 8008 Zürich",Dufourstrasse 95,8008,Zürich,Zürich,044 383 39 09,"Chirurgie, Handchirurgie",https://www.handinstitutzuerich.ch/,https://www.google.ch/search?q=Handpraxis+Zürich,Gruppenpraxis,https://www.onedoc.ch/de/gruppenpraxis/zurich/ew5y/handpraxis,0,
Hausärzte am Bahnhofplatz,"Bahnhofplatz 8, 8400 Winterthur",Bahnhofplatz 8,8400,Winterthur,Zürich,052 269 08 08,Allgemeine Innere Medizin,https://hab8.ch/,https://www.google.ch/search?q=Hausärzte+am+Bahnhofplatz+Winterthur,Gruppenpraxis,https://www.onedoc.ch/de/gruppenpraxis/winterthur/ewsr/hausarzte-am-bahnhofplatz,0,
Hausärzte Dachsen,"Dorfstrasse 2a, 8447 Dachsen",Dorfstrasse 2a,8447,Dachsen,Zürich,052 659 60 60,Allgemeine Innere Medizin,https://www.hausaerzte-dachsen.ch/,https://www.google.ch/search?q=Hausärzte+Dachsen+Dachsen,Gruppenpraxis,https://www.onedoc.ch/de/gruppenpraxis/dachsen/ewrv/hausarzte-dachsen,0,
Hausärzte Weiningen,"Badenerstrasse 11, 8104 Weiningen",Badenerstrasse 11,8104,Weiningen,Zürich,044 752 20 20,Allgemeine Innere Medizin,https://hausaerzte-weiningen.ch/,https://www.google.ch/search?q=Hausärzte+Weiningen+Weiningen,Gruppenpraxis,https://www.onedoc.ch/de/gruppenpraxis/weiningen/elz9/hausarzte-weiningen,0,
Hausärzte Zentrum Witikon,"Witikonerstrasse 295, 8053 Zürich",Witikonerstrasse 295,8053,Zürich,Zürich,043 549 00 00,"Allgemeine Innere Medizin, Homöopathie",https://www.hausaerzte-witikon.ch/de/,https://www.google.ch/search?q=Hausärzte+Zentrum+Witikon+Zürich,Gruppenpraxis,https://www.onedoc.ch/de/gruppenpraxis/zurich/ewu1/hausarzte-zentrum-witikon,0,
Hausarztpraxis Aeugst,"Oberdorfstrasse 20, 8914 Aeugst am Albis",Oberdorfstrasse 20,8914,Aeugst am Albis,Zürich,044 761 11 11,Allgemeine Innere Medizin,,https://www.google.ch/search?q=Hausarztpraxis+Aeugst+Aeugst+am+Albis,Gruppenpraxis,https://www.onedoc.ch/de/gruppenpraxis/aeugst-am-albis/exyy/hausarztpraxis-aeugst,0,
Hausarztpraxis am Bahnhof Oerlikon AG,"Nansenstrasse 16, 8050 Zürich",Nansenstrasse 16,8050,Zürich,Zürich,044 313 00 01,"Allgemeine Innere Medizin, COVID-19 Test, Hausarztmedizin (Allgemeinmedizin), Verkehrsmedizin, Humane Papillomaviren Impfung (HPV) | Gebärmutterhalskrebsimpfung",https://www.hausarztpraxisoerlikon.ch/,https://www.google.ch/search?q=Hausarztpraxis+am+Bahnhof+Oerlikon+AG+Zürich,Gruppenpraxis,https://www.onedoc.ch/de/gruppenpraxis/zurich/e5ny/hausarztpraxis-am-bahnhof-oerlikon-ag,0,
Hausarztpraxis am Mühleweiher,"Regensbergstrasse 22, 8157 Dielsdorf",Regensbergstrasse 22,8157,Dielsdorf,Zürich,044 853 09 21,"Allgemeine Innere Medizin, Pädiatrie",https://www.praxis-fatzer.ch/,https://www.google.ch/search?q=Hausarztpraxis+am+Mühleweiher+Dielsdorf,Gruppenpraxis,https://www.onedoc.ch/de/gruppenpraxis/dielsdorf/ewiw/hausarztpraxis-am-muhleweiher,0,
Hausarztpraxis Birchstrasse 2,"Birchstrasse 2, 8472 Seuzach",Birchstrasse 2,8472,Seuzach,Zürich,052 335 20 20,Allgemeine Innere Medizin,https://praxis-seuzach.ch/,https://www.google.ch/search?q=Hausarztpraxis+Birchstrasse+2+Seuzach,Gruppenpraxis,https://www.onedoc.ch/de/gruppenpraxis/seuzach/exjc/hausarztpraxis-birchstrasse-2,1,Zuweiser
Hausarztpraxis Brauereistrasse,"Brauereistrasse 3, 8610 Uster",Brauereistrasse 3,8610,Uster,Zürich,044 806 32 22,"Allgemeine Innere Medizin, Reiseberatung, Verkehrsmedizinische Kontrolluntersuchung STUFE 1, Vorsorgeuntersuchung | Check up",,https://www.google.ch/search?q=Hausarztpraxis+Brauereistrasse+Uster,Gruppenpraxis,https://www.onedoc.ch/de/gruppenpraxis/uster/e75q/hausarztpraxis-brauereistrasse,0,
Hausarztpraxis Egg,"Forchstrasse 143, 8132 Egg ZH",Forchstrasse 143,8132,Egg ZH,Zürich,044 984 06 07,"Allgemeine Innere Medizin, Hausarztmedizin (Allgemeinmedizin)",https://hausarztpraxis-plus.ch/de/,https://www.google.ch/search?q=Hausarztpraxis+Egg+Egg+ZH,Gruppenpraxis,https://www.onedoc.ch/de/gruppenpraxis/egg/ewtc/hausarztpraxis-egg,0,
Hausarztpraxis Eulach,"Eulachstrasse 8, 8408 Winterthur",Eulachstrasse 8,8408,Winterthur,Zürich,052 222 33 33,Allgemeine Innere Medizin,,https://www.google.ch/search?q=Hausarztpraxis+Eulach+Winterthur,Gruppenpraxis,https://www.onedoc.ch/de/gruppenpraxis/winterthur/exez/hausarztpraxis-eulach,0,
Hausarztpraxis Fällanden,"Maurstrasse 24a, 8117 Fällanden",Maurstrasse 24a,8117,Fällanden,Zürich,044 826 28 50,Allgemeine Innere Medizin,https://hausarztpraxis-faellanden.ch/,https://www.google.ch/search?q=Hausarztpraxis+Fällanden+Fällanden,Gruppenpraxis,https://www.onedoc.ch/de/gruppenpraxis/fallanden/exg6/hausarztpraxis-fallanden,0,
Hausarzt-Praxisgemeinschaft,"Schwizerstrasse 1, 8610 Uster",Schwizerstrasse 1,8610,Uster,Zürich,044 940 50 75,"Allgemeine Innere Medizin, Psychiatrie, Psychotherapie",https://praxiszentrum-uster.ch/,https://www.google.ch/search?q=Hausarzt-Praxisgemeinschaft+Uster,Gruppenpraxis,https://www.onedoc.ch/de/gruppenpraxis/uster/ewv6/hausarzt-praxisgemeinschaft,0,
Hausarztpraxis Hausen am Albis,"Zugerstrasse 1, 8915 Hausen am Albis",Zugerstrasse 1,8915,Hausen am Albis,Zürich,044 764 18 38,Allgemeine Innere Medizin,,https://www.google.ch/search?q=Hausarztpraxis+Hausen+am+Albis+Hausen+am+Albis,Gruppenpraxis,https://www.onedoc.ch/de/gruppenpraxis/hausen-am-albis/ew06/hausarztpraxis-hausen-am-albis,0,
Hausarztpraxis im Rosenfeld,"Betpurstrasse 32, 8910 Affoltern am Albis",Betpurstrasse 32,8910,Affoltern am Albis,Zürich,044 762 40 90,Allgemeine Innere Medizin,,https://www.google.ch/search?q=Hausarztpraxis+im+Rosenfeld+Affoltern+am+Albis,Gruppenpraxis,https://www.onedoc.ch/de/gruppenpraxis/affoltern-am-albis/ewzt/hausarztpraxis-im-rosenfeld,0,
Hausarztpraxis Meilen,"Dorfstrasse 116, 8706 Meilen",Dorfstrasse 116,8706,Meilen,Zürich,044 923 23 12,"Allgemeine Innere Medizin, Hausarztmedizin (Allgemeinmedizin)",https://www.arztpraxis-meilen.ch/,https://www.google.ch/search?q=Hausarztpraxis+Meilen+Meilen,Gruppenpraxis,https://www.onedoc.ch/de/gruppenpraxis/meilen/ew99/hausarztpraxis-meilen,0,
Hausarztpraxis Nelkenstrasse,"Nelkenstrasse 3, 8400 Winterthur",Nelkenstrasse 3,8400,Winterthur,Zürich,052 212 40 50,Allgemeine Innere Medizin,,https://www.google.ch/search?q=Hausarztpraxis+Nelkenstrasse+Winterthur,Gruppenpraxis,https://www.onedoc.ch/de/gruppenpraxis/winterthur/epju/hausarztpraxis-nelkenstrasse,0,
Hausarztpraxis Niederhasli,"Langackerweg 25, 8155 Niederhasli",Langackerweg 25,8155,Niederhasli,Zürich,044 850 37 77,Allgemeine Innere Medizin,https://www.hausarztpraxis-niederhasli.ch/,https://www.google.ch/search?q=Hausarztpraxis+Niederhasli+Niederhasli,Gruppenpraxis,https://www.onedoc.ch/de/gruppenpraxis/niederhasli/ewuf/hausarztpraxis-niederhasli,0,
Hausarztpraxis Volketswil - Im Tödiweg 1,"Im Tödiweg 1, 8604 Volketswil",Im Tödiweg 1,8604,Volketswil,Zürich,044 577 45 45,"Allgemeine Innere Medizin, Hausarztmedizin (Allgemeinmedizin)",,https://www.google.ch/search?q=Hausarztpraxis+Volketswil+-+Im+Tödiweg+1+Volketswil,Gruppenpraxis,https://www.onedoc.ch/de/gruppenpraxis/volketswil/ew5i/hausarztpraxis-volketswil-im-todiweg-1,0,
Hausarztpraxis Zollikon,"Zumikerstrasse 18, 8702 Zollikon",Zumikerstrasse 18,8702,Zollikon,Zürich,043 543 44 00,"Allgemeine Innere Medizin, Hausarztmedizin (Allgemeinmedizin)",https://arzt-zollikon.ch/,https://www.google.ch/search?q=Hausarztpraxis+Zollikon+Zollikon,Gruppenpraxis,https://www.onedoc.ch/de/gruppenpraxis/zollikon/ewjg/hausarztpraxis-zollikon,0,
Hautärzte am Graben,"Unterer Graben 25, 8400 Winterthur",Unterer Graben 25,8400,Winterthur,Zürich,052 566 11 01,"Dermatologie und Venerologie, Plastische, rekonstruktive und ästhetische Chirurgie, Venenheilkunde, Ästhetische Medizin, Akne, Hautcheck, Hautkrebs, Injektion von Botulinumtoxin | Botox, Muttermalkontrolle",https://www.haut-winterthur.ch/,https://www.google.ch/search?q=Hautärzte+am+Graben+Winterthur,Gruppenpraxis,https://www.onedoc.ch/de/gruppenpraxis/winterthur/epp0/hautarzte-am-graben,0,
Hautpraxis Gartenstrasse 23,"Gartenstrasse 23, 8002 Zürich",Gartenstrasse 23,8002,Zürich,Zürich,044 202 11 33,Dermatologie und Venerologie,https://unsere-haut.ch/de/kontakt/,https://www.google.ch/search?q=Hautpraxis+Gartenstrasse+23+Zürich,Gruppenpraxis,https://www.onedoc.ch/de/gruppenpraxis/zurich/exbb/hautpraxis-gartenstrasse-23,0,
Hautspezialisten am Glattpark,"Thurgauerstrasse 105, 8152 Opfikon",Thurgauerstrasse 105,8152,Opfikon,Zürich,044 310 12 40,"Dermatologie und Venerologie, Hautcheck, Hautkrebs, Injektion von Botulinumtoxin | Botox, Muttermalkontrolle",,https://www.google.ch/search?q=Hautspezialisten+am+Glattpark+Opfikon,Gruppenpraxis,https://www.onedoc.ch/de/gruppenpraxis/opfikon/ew47/hautspezialisten-am-glattpark,0,
Hautzentrum Horgen,"Zugerstrasse 35, 8810 Horgen",Zugerstrasse 35,8810,Horgen,Zürich,043 810 85 85,"Dermatologie und Venerologie, Hausarztmedizin (Allgemeinmedizin), Plastische, rekonstruktive und ästhetische Chirurgie",https://www.hautzentrumhorgen.ch/,https://www.google.ch/search?q=Hautzentrum+Horgen+Horgen,Gruppenpraxis,https://www.onedoc.ch/de/gruppenpraxis/horgen/ewx1/hautzentrum-horgen,0,
hegiprax,"Forchstrasse 106, 8032 Zürich",Forchstrasse 106,8032,Zürich,Zürich,044 381 40 80,"Allgemeine Innere Medizin, Hausarztmedizin (Allgemeinmedizin)",https://www.hegiprax.ch/,https://www.google.ch/search?q=hegiprax+Zürich,Gruppenpraxis,https://www.onedoc.ch/de/gruppenpraxis/zurich/ewiz/hegiprax,0,
Helvetiapraxis,"Anwandstrasse 2, 8004 Zürich",Anwandstrasse 2,8004,Zürich,Zürich,044 241 35 44,"Allgemeine Innere Medizin, Hausarztmedizin (Allgemeinmedizin), Tropen- und Reisemedizin",https://www.helvetiapraxis.ch/ch/,https://www.google.ch/search?q=Helvetiapraxis+Zürich,Gruppenpraxis,https://www.onedoc.ch/de/gruppenpraxis/zurich/ewro/helvetiapraxis,0,
HerzGefässZentrum Im Park,"Seestrasse 247, 8038 Zürich",Seestrasse 247,8038,Zürich,Zürich,044 209 20 20,"Allgemeine Innere Medizin, Kardiologie, Rhythmologie, Arrhythmie, Arterielle Hypertonie, Echokardiografie | Herzultraschall, Ergometrie | Belastungstest | Leistungstest, Herz-Kreislauf-Prävention | CardioCheck, Langzeit-Blutdruck | 24h Blutdruckmessung, Schrittmacherkontrolle | ICD-Kontrollen",https://www.hirslanden.ch/de/klinik-im-park/centers/herzgefaesszentrum-im-park.html,https://www.google.ch/search?q=HerzGefässZentrum+Im+Park+Zürich,Gruppenpraxis,https://www.onedoc.ch/de/gruppenpraxis/zurich/eoni/herzgefasszentrum-im-park,1,"Zuweiser, für Ärzte"
Herz Gefäss Zentrum Zürich,"Seestrasse 247, 8038 Zürich",Seestrasse 247,8038,Zürich,Zürich,044 209 29 30,"Kardiologie, Arterielle Hypertonie, Echokardiografie | Herzultraschall, Ergometrie | Belastungstest | Leistungstest, Herz-Kreislauf-Prävention | CardioCheck, Holter EKG | Langzeit-EKG",https://hgzz.ch/,https://www.google.ch/search?q=Herz+Gefäss+Zentrum+Zürich+Zürich,Gruppenpraxis,https://www.onedoc.ch/de/gruppenpraxis/zurich/e9rt/herz-gefass-zentrum-zurich,0,
Herzpraxis Enge,"Bleicherweg 47, 8002 Zürich",Bleicherweg 47,8002,Zürich,Zürich,044 201 50 60,"Allgemeine Innere Medizin, Kardiologie",https://www.herzpraxis-enge.ch/,https://www.google.ch/search?q=Herzpraxis+Enge+Zürich,Gruppenpraxis,https://www.onedoc.ch/de/gruppenpraxis/zurich/eo1v/herzpraxis-enge,0,
Herzpraxis Limmattal,"Zentralstrasse 19, 8953 Dietikon",Zentralstrasse 19,8953,Dietikon,Zürich,044 740 88 66,"Allgemeine Innere Medizin, Kardiologie",,https://www.google.ch/search?q=Herzpraxis+Limmattal+Dietikon,Gruppenpraxis,https://www.onedoc.ch/de/gruppenpraxis/dietikon/exkw/herzpraxis-limmattal,0,
Herzpraxis Stadelhofen,"Goethestrasse 20, 8001 Zürich",Goethestrasse 20,8001,Zürich,Zürich,044 266 99 00,"Allgemeine Innere Medizin, Kardiologie",https://www.kardio-zuerich.ch/,https://www.google.ch/search?q=Herzpraxis+Stadelhofen+Zürich,Gruppenpraxis,https://www.onedoc.ch/de/gruppenpraxis/zurich/exdb/herzpraxis-stadelhofen,1,Zuweiser
Herzpraxis Zollikon,"Zolliker Strasse 79, 8702 Zollikon",Zolliker Strasse 79,8702,Zollikon,Zürich,044 391 41 20,"Allgemeine Innere Medizin, Kardiologie",https://www.herzpraxis-zollikon.ch/,https://www.google.ch/search?q=Herzpraxis+Zollikon+Zollikon,Gruppenpraxis,https://www.onedoc.ch/de/gruppenpraxis/zollikon/ewpz/herzpraxis-zollikon,0,
Herzpraxis Zürich Nord,"Nansenstrasse 16, 8050 Zürich",Nansenstrasse 16,8050,Zürich,Zürich,043 205 15 15,"Allgemeine Innere Medizin, Kardiologie",https://herz-zuerich.ch/,https://www.google.ch/search?q=Herzpraxis+Zürich+Nord+Zürich,Gruppenpraxis,https://www.onedoc.ch/de/gruppenpraxis/zurich/exs9/herzpraxis-zurich-nord,0,
HNO Hardbrücke,"Naphtastrasse 4, 8005 Zürich",Naphtastrasse 4,8005,Zürich,Zürich,043 444 64 00,"Allgemeine Innere Medizin, HNO (Hals-, Nasen-, Ohrenheilkunde)",https://www.hnohardbruecke.ch/,https://www.google.ch/search?q=HNO+Hardbrücke+Zürich,Gruppenpraxis,https://www.onedoc.ch/de/gruppenpraxis/zurich/exgn/hno-hardbrucke,1,"Zuweiser, für Ärzte"
HNO medic,"Splügenstrasse 6, 8002 Zürich",Splügenstrasse 6,8002,Zürich,Zürich,044 202 22 82,"HNO (Hals-, Nasen-, Ohrenheilkunde)",https://www.hno-medic.ch/,https://www.google.ch/search?q=HNO+medic+Zürich,Gruppenpraxis,https://www.onedoc.ch/de/gruppenpraxis/zurich/epu1/hno-medic,0,
HNO Zentrum Affoltern am Albis,"Obstgartenstrasse 5, 8910 Affoltern am Albis",Obstgartenstrasse 5,8910,Affoltern am Albis,Zürich,044 763 14 14,"Allgemeine Innere Medizin, HNO (Hals-, Nasen-, Ohrenheilkunde), Hausarztmedizin (Allgemeinmedizin)",https://www.hno-aaa.ch/,https://www.google.ch/search?q=HNO+Zentrum+Affoltern+am+Albis+Affoltern+am+Albis,Gruppenpraxis,https://www.onedoc.ch/de/gruppenpraxis/affoltern-am-albis/eobs/hno-zentrum-affoltern-am-albis,0,
Huusarztpraxis Früebli,"Schulstrasse 12, 8157 Dielsdorf",Schulstrasse 12,8157,Dielsdorf,Zürich,044 853 37 37,Allgemeine Innere Medizin,https://www.huusarzt.ch/,https://www.google.ch/search?q=Huusarztpraxis+Früebli+Dielsdorf,Gruppenpraxis,https://www.onedoc.ch/de/gruppenpraxis/dielsdorf/extd/huusarztpraxis-fruebli,0,
IMZ Interdisziplinäre Medizin Zürich,"Seefeldstrasse 214, 8008 Zürich",Seefeldstrasse 214,8008,Zürich,Zürich,043 818 59 00,Gynäkologie und Geburtshilfe,https://imz-zh.ch/,https://www.google.ch/search?q=IMZ+Interdisziplinäre+Medizin+Zürich+Zürich,Gruppenpraxis,https://www.onedoc.ch/de/gruppenpraxis/zurich/eq7o/imz-interdisziplinare-medizin-zurich,1,"Überweisung, Zuweiser, für Ärzte"
Inara GmbH,"Hugostrasse 2, 8050 Zürich",Hugostrasse 2,8050,Zürich,Zürich,044 383 13 13,"Akupunktur, Aurikulotherapie, Bioenergie Therapie, Bioresonanz, Mentales Coaching",https://inara.ch/,https://www.google.ch/search?q=Inara+GmbH+Zürich,Gruppenpraxis,https://www.onedoc.ch/de/gruppenpraxis/zurich/e1yd/inara-gmbh,0,
IN MOTION,"Richtiarkade 23, 8304 Wallisellen",Richtiarkade 23,8304,Wallisellen,Zürich,043 233 40 90,"Neurochirurgie, Orthopädische Chirurgie",https://www.in-motion.ch/,https://www.google.ch/search?q=IN+MOTION+Wallisellen,Gruppenpraxis,https://www.onedoc.ch/de/gruppenpraxis/wallisellen/exgk/in-motion,1,Zuweisung
Integrative Medizin Winterthur,"Stadthausstrasse 45, 8400 Winterthur",Stadthausstrasse 45,8400,Winterthur,Zürich,052 260 06 60,"Allgemeine Innere Medizin, Psychiatrie, Psychotherapie",,https://www.google.ch/search?q=Integrative+Medizin+Winterthur+Winterthur,Gruppenpraxis,https://www.onedoc.ch/de/gruppenpraxis/winterthur/ewri/integrative-medizin-winterthur,0,
kardiologiepraxis winterthur,"Schaffhauserstrasse 61, 8400 Winterthur",Schaffhauserstrasse 61,8400,Winterthur,Zürich,052 212 44 33,"Allgemeine Innere Medizin, Kardiologie",https://herzarztpraxis.ch/,https://www.google.ch/search?q=kardiologiepraxis+winterthur+Winterthur,Gruppenpraxis,https://www.onedoc.ch/de/gruppenpraxis/winterthur/exno/kardiologiepraxis-winterthur,1,für Ärzte
Kardiologische Praxis Wädenswil,"Gerbestrasse 6, 8820 Wädenswil",Gerbestrasse 6,8820,Wädenswil,Zürich,044 783 15 80,"Allgemeine Innere Medizin, Kardiologie",https://kardio-waedenswil.ch/de/,https://www.google.ch/search?q=Kardiologische+Praxis+Wädenswil+Wädenswil,Gruppenpraxis,https://www.onedoc.ch/de/gruppenpraxis/wadenswil/ewhs/kardiologische-praxis-wadenswil,0,
kempf & pfaltz histologische diagnostik,"Affolternstrasse 56, 8050 Zürich",Affolternstrasse 56,8050,Zürich,Zürich,044 233 33 77,Dermatologie und Venerologie,https://kempf-pfaltz.ch/,https://www.google.ch/search?q=kempf+&+pfaltz+histologische+diagnostik+Zürich,Gruppenpraxis,https://www.onedoc.ch/de/gruppenpraxis/zurich/excu/kempf-pfaltz-histologische-diagnostik,0,
Kinder Allergie Doktor,"Stockerstrasse 42, 8002 Zürich",Stockerstrasse 42,8002,Zürich,Zürich,043 817 68 57,"Allergologie und Immunologie, Pädiatrie",,https://www.google.ch/search?q=Kinder+Allergie+Doktor+Zürich,Gruppenpraxis,https://www.onedoc.ch/de/gruppenpraxis/zurich/ewm7/kinder-allergie-doktor,0,
Kinderärzte am Untertor,"Erachfeldstrasse 2, 8180 Bülach",Erachfeldstrasse 2,8180,Bülach,Zürich,044 862 08 09,Pädiatrie,,https://www.google.ch/search?q=Kinderärzte+am+Untertor+Bülach,Gruppenpraxis,https://www.onedoc.ch/de/gruppenpraxis/bulach/ewr3/kinderarzte-am-untertor,0,
Kinderärzte in der Mühle,"Seefeldstrasse 225, 8008 Zürich",Seefeldstrasse 225,8008,Zürich,Zürich,044 545 10 10,"Allergologie und Immunologie, Pädiatrie",https://chinderarztpraxis.ch/kinderarzt/,https://www.google.ch/search?q=Kinderärzte+in+der+Mühle+Zürich,Gruppenpraxis,https://www.onedoc.ch/de/gruppenpraxis/zurich/ew3y/kinderarzte-in-der-muhle,1,Zuweisung
Kinderärzte Zollikon,"Dufourstrasse 66, 8702 Zollikon",Dufourstrasse 66,8702,Zollikon,Zürich,044 391 45 00,Pädiatrie,https://www.zollimed.ch/,https://www.google.ch/search?q=Kinderärzte+Zollikon+Zollikon,Gruppenpraxis,https://www.onedoc.ch/de/gruppenpraxis/zollikon/ewka/kinderarzte-zollikon,0,
Kinderarzt Nordmann Praxis Zürich,"Birmensdorferstrasse 377, 8055 Zürich",Birmensdorferstrasse 377,8055,Zürich,Zürich,044 463 66 66,Pädiatrie,https://www.kinderarzt-nordmann.ch/zurich,https://www.google.ch/search?q=Kinderarzt+Nordmann+Praxis+Zürich+Zürich,Gruppenpraxis,https://www.onedoc.ch/de/gruppenpraxis/zurich/exsy/kinderarzt-nordmann-praxis-zurich,0,
Kinderarztpraxis am Lindenplatz,"Badenerstrasse 681, 8048 Zürich",Badenerstrasse 681,8048,Zürich,Zürich,044 492 64 65,Pädiatrie,https://www.kinderarzt-zh.ch/,https://www.google.ch/search?q=Kinderarztpraxis+am+Lindenplatz+Zürich,Gruppenpraxis,https://www.onedoc.ch/de/gruppenpraxis/zurich/exeg/kinderarztpraxis-am-lindenplatz,1,für Ärzte
Kinderarztpraxis am Pfannenstiel,"Forchstrasse 143, 8132 Egg ZH",Forchstrasse 143,8132,Egg ZH,Zürich,043 277 05 70,Pädiatrie,https://kinderarztpraxisampfannenstiel.ch/,https://www.google.ch/search?q=Kinderarztpraxis+am+Pfannenstiel+Egg+ZH,Gruppenpraxis,https://www.onedoc.ch/de/gruppenpraxis/egg/epl0/kinderarztpraxis-am-pfannenstiel,0,
Kinderarztpraxis Bülach,"Sonnmattstrasse 5, 8180 Bülach",Sonnmattstrasse 5,8180,Bülach,Zürich,044 860 52 62,Pädiatrie,https://www.kinderarztpraxis-buelach.ch/,https://www.google.ch/search?q=Kinderarztpraxis+Bülach+Bülach,Gruppenpraxis,https://www.onedoc.ch/de/gruppenpraxis/bulach/exbg/kinderarztpraxis-bulach,0,
Kinderarztpraxis Central,"Seestrasse 126, 8810 Horgen",Seestrasse 126,8810,Horgen,Zürich,044 726 26 60,Pädiatrie,,https://www.google.ch/search?q=Kinderarztpraxis+Central+Horgen,Gruppenpraxis,https://www.onedoc.ch/de/gruppenpraxis/horgen/ew6x/kinderarztpraxis-central,0,
Kinderarztpraxis Friesenberg,"Schweighofstrasse 193, 8045 Zürich",Schweighofstrasse 193,8045,Zürich,Zürich,044 462 92 77,Pädiatrie,https://www.kinderarztpraxisfriesenberg.ch/,https://www.google.ch/search?q=Kinderarztpraxis+Friesenberg+Zürich,Gruppenpraxis,https://www.onedoc.ch/de/gruppenpraxis/zurich/ewnl/kinderarztpraxis-friesenberg,0,
Kinderarztpraxis Kilchberg,"Paradiesstrasse 38, 8802 Kilchberg",Paradiesstrasse 38,8802,Kilchberg,Zürich,044 715 27 27,"Impfung, Leistungen MPA, Pädiatrie, Allergie | AllergoTest | Allergieabklärung, Entwicklungsbegleitung, Hüftultraschall bei Säuglingen | Neugeborenen Ultraschall der Hüfte, Impfungen bei Kindern | Impfungen bei Säuglingen | Impfberatung Pädiatrie, Vorsorgeuntersuchung bei Kindern | Pädiatrische Vorsorgeuntersuchung | Entwicklungskontrolle",https://www.kinder-arzt-praxis.ch/,https://www.google.ch/search?q=Kinderarztpraxis+Kilchberg+Kilchberg,Gruppenpraxis,https://www.onedoc.ch/de/gruppenpraxis/kilchberg/e9o0/kinderarztpraxis-kilchberg,0,
Kinderarztpraxis Küsnacht,"Untere Dorfstrasse 2, 8700 Küsnacht",Untere Dorfstrasse 2,8700,Küsnacht,Zürich,044 912 19 19,Pädiatrie,https://www.kinderarztpraxis-kuesnacht.ch/,https://www.google.ch/search?q=Kinderarztpraxis+Küsnacht+Küsnacht,Gruppenpraxis,https://www.onedoc.ch/de/gruppenpraxis/kusnacht/ewj7/kinderarztpraxis-kusnacht,0,
Kinderarztpraxis Lindenallee,"Landvogt Waser-Strasse 51a, 8405 Winterthur",Landvogt Waser-Strasse 51a,8405,Winterthur,Zürich,052 233 22 22,Pädiatrie,,https://www.google.ch/search?q=Kinderarztpraxis+Lindenallee+Winterthur,Gruppenpraxis,https://www.onedoc.ch/de/gruppenpraxis/winterthur/ewtm/kinderarztpraxis-lindenallee,0,
Kinderarztpraxis Nautilus,"Alte Landstrasse 167, 8800 Thalwil",Alte Landstrasse 167,8800,Thalwil,Zürich,044 772 10 10,Pädiatrie,,https://www.google.ch/search?q=Kinderarztpraxis+Nautilus+Thalwil,Gruppenpraxis,https://www.onedoc.ch/de/gruppenpraxis/thalwil/epid/kinderarztpraxis-nautilus,0,
Kinderarztpraxis Römerhof,"Klosbachstrasse 111, 8032 Zürich",Klosbachstrasse 111,8032,Zürich,Zürich,044 262 36 20,Pädiatrie,https://kinderarztpraxis-roemerhof.ch/Startseite/,https://www.google.ch/search?q=Kinderarztpraxis+Römerhof+Zürich,Gruppenpraxis,https://www.onedoc.ch/de/gruppenpraxis/zurich/ewwh/kinderarztpraxis-romerhof,0,
Kinderarztpraxis Seestrasse 1,"Seestrasse 1, 8805 Richterswil",Seestrasse 1,8805,Richterswil,Zürich,044 784 77 77,Pädiatrie,https://www.kinderarzt-richterswil.ch/,https://www.google.ch/search?q=Kinderarztpraxis+Seestrasse+1+Richterswil,Gruppenpraxis,https://www.onedoc.ch/de/gruppenpraxis/richterswil/ewu6/kinderarztpraxis-seestrasse-1,0,
Kinderarztpraxis Sood,"Soodstrasse 50c, 8134 Adliswil",Soodstrasse 50c,8134,Adliswil,Zürich,044 710 00 11,"Allgemeine Innere Medizin, Homöopathie, Pädiatrie",,https://www.google.ch/search?q=Kinderarztpraxis+Sood+Adliswil,Gruppenpraxis,https://www.onedoc.ch/de/gruppenpraxis/adliswil/ew7v/kinderarztpraxis-sood,0,
Kinderarztpraxis sunneschii,"Spitalstrasse 71, 8902 Urdorf",Spitalstrasse 71,8902,Urdorf,Zürich,043 817 30 30,Pädiatrie,,https://www.google.ch/search?q=Kinderarztpraxis+sunneschii+Urdorf,Gruppenpraxis,https://www.onedoc.ch/de/gruppenpraxis/urdorf/ew8u/kinderarztpraxis-sunneschii,0,
Kinderarztpraxis Thalwil,"Alte Landstrasse 130, 8800 Thalwil",Alte Landstrasse 130,8800,Thalwil,Zürich,044 720 29 88,Pädiatrie,https://kinderarzt-thalwil.ch/,https://www.google.ch/search?q=Kinderarztpraxis+Thalwil+Thalwil,Gruppenpraxis,https://www.onedoc.ch/de/gruppenpraxis/thalwil/exb8/kinderarztpraxis-thalwil,0,
"Kinderarztpraxis Viva, Praxis für Kinder und Jugendliche","Bahnhofstrasse 20, 8708 Männedorf",Bahnhofstrasse 20,8708,Männedorf,Zürich,044 922 10 00,Pädiatrie,https://kinderarztpraxis-viva.ch/de/,"https://www.google.ch/search?q=Kinderarztpraxis+Viva,+Praxis+für+Kinder+und+Jugendliche+Männedorf",Gruppenpraxis,https://www.onedoc.ch/de/gruppenpraxis/mannedorf/ewps/kinderarztpraxis-viva-praxis-fur-kinder-und-jugendliche,0,
Kinderarztpraxis Wädi,"Schönenbergstrasse 6, 8820 Wädenswil",Schönenbergstrasse 6,8820,Wädenswil,Zürich,044 780 00 03,Pädiatrie,https://www.kinderpraxis-waedi.ch/,https://www.google.ch/search?q=Kinderarztpraxis+Wädi+Wädenswil,Gruppenpraxis,https://www.onedoc.ch/de/gruppenpraxis/wadenswil/ew7i/kinderarztpraxis-wadi,0,
Kinderarztpraxis Wallisellen,"Hammerweg 4, 8304 Wallisellen",Hammerweg 4,8304,Wallisellen,Zürich,044 830 62 72,Pädiatrie,https://kinderarztpraxis-wallisellen.ch/,https://www.google.ch/search?q=Kinderarztpraxis+Wallisellen+Wallisellen,Gruppenpraxis,https://www.onedoc.ch/de/gruppenpraxis/wallisellen/ewk2/kinderarztpraxis-wallisellen,0,
Kinderarztzentrum Zürich AG,"Schaffhauserstrasse 374, 8050 Zürich",Schaffhauserstrasse 374,8050,Zürich,Zürich,044 500 77 76,"Pädiatrie, Hüftultraschall bei Säuglingen | Neugeborenen Ultraschall der Hüfte, Impfungen bei Kindern | Impfungen bei Säuglingen | Impfberatung Pädiatrie, Vorsorgeuntersuchung bei Kindern | Pädiatrische Vorsorgeuntersuchung | Entwicklungskontrolle",https://kinderarztzentrum-zuerich.ch/,https://www.google.ch/search?q=Kinderarztzentrum+Zürich+AG+Zürich,Gruppenpraxis,https://www.onedoc.ch/de/gruppenpraxis/zurich/e5i8/kinderarztzentrum-zurich-ag,0,
Kinderpraxis Altstetten,"Hohlstrasse 473, 8048 Zürich",Hohlstrasse 473,8048,Zürich,Zürich,043 343 04 37,Pädiatrie,https://kinderpraxis-altstetten.ch/,https://www.google.ch/search?q=Kinderpraxis+Altstetten+Zürich,Gruppenpraxis,https://www.onedoc.ch/de/gruppenpraxis/zurich/exxx/kinderpraxis-altstetten,0,
Kinderpraxis-GLOBUS,"General-Wille-Strasse 204, 8706 Meilen",General-Wille-Strasse 204,8706,Meilen,Zürich,044 545 34 24,Pädiatrie,https://www.kinderarztpraxis-globus.ch/,https://www.google.ch/search?q=Kinderpraxis-GLOBUS+Meilen,Gruppenpraxis,https://www.onedoc.ch/de/gruppenpraxis/meilen/ewoo/kinderpraxis-globus,0,
Kinderpraxis Obertor,"Zentrum am Obertor 8, 8400 Winterthur",Zentrum am Obertor 8,8400,Winterthur,Zürich,052 209 03 80,Pädiatrie,,https://www.google.ch/search?q=Kinderpraxis+Obertor+Winterthur,Gruppenpraxis,https://www.onedoc.ch/de/gruppenpraxis/winterthur/ew0u/kinderpraxis-obertor,0,
Kinderpraxis Oerlikon,"Schulstrasse 37, 8050 Zürich",Schulstrasse 37,8050,Zürich,Zürich,044 310 28 00,Pädiatrie,https://www.kinderarzt-oerlikon.ch/,https://www.google.ch/search?q=Kinderpraxis+Oerlikon+Zürich,Gruppenpraxis,https://www.onedoc.ch/de/gruppenpraxis/zurich/epud/kinderpraxis-oerlikon,0,
Kinderpraxis Seefeld,"Feldeggstrasse 32, 8008 Zürich",Feldeggstrasse 32,8008,Zürich,Zürich,044 387 58 00,Pädiatrie,https://www.kinderarztpraxis-seefeld.ch/,https://www.google.ch/search?q=Kinderpraxis+Seefeld+Zürich,Gruppenpraxis,https://www.onedoc.ch/de/gruppenpraxis/zurich/ewx5/kinderpraxis-seefeld,0,
Kinderpraxis Uster,"Winterthurerstrasse 18a, 8610 Uster",Winterthurerstrasse 18a,8610,Uster,Zürich,043 444 23 33,Pädiatrie,https://kinderpraxisuster.ch/,https://www.google.ch/search?q=Kinderpraxis+Uster+Uster,Gruppenpraxis,https://www.onedoc.ch/de/gruppenpraxis/uster/ews9/kinderpraxis-uster,0,
Kinder- und Jugendmedizin Stäfa,"Oberlandstrasse 12, 8712 Stäfa",Oberlandstrasse 12,8712,Stäfa,Zürich,044 926 33 55,Pädiatrie,https://kinderpraxis-staefa.ch/,https://www.google.ch/search?q=Kinder-+und+Jugendmedizin+Stäfa+Stäfa,Gruppenpraxis,https://www.onedoc.ch/de/gruppenpraxis/stafa/exf3/kinder-und-jugendmedizin-stafa,0,
Kinder-und Jugendpraxis Dübendorf,"Leepüntstrasse 5, 8600 Dübendorf",Leepüntstrasse 5,8600,Dübendorf,Zürich,044 821 86 65,"Gynäkologie und Geburtshilfe, Pädiatrie, Humane Papillomaviren Impfung (HPV) | Gebärmutterhalskrebsimpfung",https://www.juliettundmike.ch/,https://www.google.ch/search?q=Kinder-und+Jugendpraxis+Dübendorf+Dübendorf,Gruppenpraxis,https://www.onedoc.ch/de/gruppenpraxis/dubendorf/ewof/kinder-und-jugendpraxis-dubendorf,1,Zuweisung
Kinderwunschzentrum Admira,"Brunngasse 6, 8400 Winterthur",Brunngasse 6,8400,Winterthur,Zürich,052 224 60 70,"Anästhesiologie, Gynäkologie und Geburtshilfe, Intensivmedizin",,https://www.google.ch/search?q=Kinderwunschzentrum+Admira+Winterthur,Gruppenpraxis,https://www.onedoc.ch/de/gruppenpraxis/winterthur/ew2c/kinderwunschzentrum-admira,0,
Kompetenzzentrum Adipositas und Stoffwechsel (KAS),"Seefeldstrasse 45, 8008 Zürich",Seefeldstrasse 45,8008,Zürich,Zürich,044 487 30 30,"Allgemeine Innere Medizin, Chirurgie, Endokrinologie und Diabetologie, Hausarztmedizin (Allgemeinmedizin)",https://kasz.ch/,https://www.google.ch/search?q=Kompetenzzentrum+Adipositas+und+Stoffwechsel+(KAS)+Zürich,Gruppenpraxis,https://www.onedoc.ch/de/gruppenpraxis/zurich/eug5/kompetenzzentrum-adipositas-und-stoffwechsel-kas,0,
KontinenzZentrum Hirslanden,"Witellikerstrasse 40, 8008 Zürich",Witellikerstrasse 40,8008,Zürich,Zürich,044 387 29 10,Urologie,https://www.kontinenzzentrum.ch/de,https://www.google.ch/search?q=KontinenzZentrum+Hirslanden+Zürich,Gruppenpraxis,https://www.onedoc.ch/de/gruppenpraxis/zurich/eq5y/kontinenzzentrum-hirslanden,1,Zuweisung
Limmat Radiologie,"Hardturmstrasse 131, 8005 Zürich",Hardturmstrasse 131,8005,Zürich,Zürich,044 532 12 12,Radiologie,https://www.limmatradiologie.ch/,https://www.google.ch/search?q=Limmat+Radiologie+Zürich,Gruppenpraxis,https://www.onedoc.ch/de/gruppenpraxis/zurich/ex10/limmat-radiologie,1,Zuweiser
Lunge im Zentrum,"Bahnhofstrasse 3, 8180 Bülach",Bahnhofstrasse 3,8180,Bülach,Zürich,044 860 99 99,"Allgemeine Innere Medizin, Pneumologie",https://lunge-im-zentrum.ch/,https://www.google.ch/search?q=Lunge+im+Zentrum+Bülach,Gruppenpraxis,https://www.onedoc.ch/de/gruppenpraxis/bulach/e8op/lunge-im-zentrum,0,
Lungenklinik Bethanien,"Toblerstrasse 51, 8044 Zürich",Toblerstrasse 51,8044,Zürich,Zürich,044 512 25 75,"Allgemeine Innere Medizin, Pneumologie",https://www.lungen-klinik.ch/,https://www.google.ch/search?q=Lungenklinik+Bethanien+Zürich,Gruppenpraxis,https://www.onedoc.ch/de/gruppenpraxis/zurich/ewum/lungenklinik-bethanien,1,Zuweisung
Lungenpraxis Morgental,"Albisstrasse 53, 8038 Zürich",Albisstrasse 53,8038,Zürich,Zürich,044 202 33 55,"Allgemeine Innere Medizin, Pneumologie",https://www.lungenpraxis.ch/,https://www.google.ch/search?q=Lungenpraxis+Morgental+Zürich,Gruppenpraxis,https://www.onedoc.ch/de/gruppenpraxis/zurich/ew1f/lungenpraxis-morgental,0,
Lungenpraxis Stockerstrasse,"Stockerstrasse 42, 8002 Zürich",Stockerstrasse 42,8002,Zürich,Zürich,044 281 12 11,"Allgemeine Innere Medizin, Pneumologie",https://www.lungenpraxis-stockerstrasse.ch/,https://www.google.ch/search?q=Lungenpraxis+Stockerstrasse+Zürich,Gruppenpraxis,https://www.onedoc.ch/de/gruppenpraxis/zurich/eww2/lungenpraxis-stockerstrasse,1,Zuweisung
LungenZentrum Im Park,"Kappelistrasse 7, 8002 Zürich",Kappelistrasse 7,8002,Zürich,Zürich,044 283 90 30,"Allgemeine Innere Medizin, Pneumologie",https://www.hirslanden.ch/de/klinik-im-park/centers/lungenzentrum-im-park.html,https://www.google.ch/search?q=LungenZentrum+Im+Park+Zürich,Gruppenpraxis,https://www.onedoc.ch/de/gruppenpraxis/zurich/exef/lungenzentrum-im-park,1,"Zuweiser, für Ärzte"
Lux Augenzentrum,"Thurgauerstrasse 105, 8152 Glattpark (Opfikon)",Thurgauerstrasse 105,8152,Glattpark (Opfikon),Zürich,044 829 22 87,Augenheilkunde,https://luxaugenzentrum.ch/,https://www.google.ch/search?q=Lux+Augenzentrum+Glattpark+(Opfikon),Gruppenpraxis,https://www.onedoc.ch/de/gruppenpraxis/glattpark-opfikon/e1ql/lux-augenzentrum,1,"Überweisung, Zuweiser"
M1 Med Beauty Zürich,"Gerbergasse 5, 8001 Zürich",Gerbergasse 5,8001,Zürich,Zürich,044 508 32 71,Chirurgie,https://www.m1-beauty.ch/,https://www.google.ch/search?q=M1+Med+Beauty+Zürich+Zürich,Gruppenpraxis,https://www.onedoc.ch/de/gruppenpraxis/zurich/ewi3/m1-med-beauty-zurich,0,
Magendarm-Thalwil,"Zürcherstrasse 61, 8800 Thalwil",Zürcherstrasse 61,8800,Thalwil,Zürich,044 720 34 35,"Allgemeine Innere Medizin, Gastroenterologie",https://www.magendarm-thalwil.ch/,https://www.google.ch/search?q=Magendarm-Thalwil+Thalwil,Gruppenpraxis,https://www.onedoc.ch/de/gruppenpraxis/thalwil/ewqh/magendarm-thalwil,1,Zuweiser
Magen-Darm Zentrum Winterthur,"Oberer Deutweg 59, 8400 Winterthur",Oberer Deutweg 59,8400,Winterthur,Zürich,052 233 48 38,"Allgemeine Innere Medizin, Gastroenterologie",https://magen-darm-zentrum.ch/praxis-standorte/praxis-winterthur/,https://www.google.ch/search?q=Magen-Darm+Zentrum+Winterthur+Winterthur,Gruppenpraxis,https://www.onedoc.ch/de/gruppenpraxis/winterthur/evh1/magen-darm-zentrum-winterthur,1,für Ärzte
med-athletics Hardturmstrasse 126 Zürich,"Hardturmstrasse 126, 8005 Zürich",Hardturmstrasse 126,8005,Zürich,Zürich,044 919 00 00,Unknown,,https://www.google.ch/search?q=med-athletics+Hardturmstrasse+126+Zürich+Zürich,Gruppenpraxis,https://www.onedoc.ch/de/gruppenpraxis/zurich/eutk/med-athletics-hardturmstrasse-126-zurich,0,
Medical Services / ZRHLX/DHM,"Obstgartenstrasse 29, 8302 Kloten",Obstgartenstrasse 29,8302,Kloten,Zürich,058 584 68 33,Arbeitsmedizin,,https://www.google.ch/search?q=Medical+Services+/+ZRHLX/DHM+Kloten,Gruppenpraxis,https://www.onedoc.ch/de/gruppenpraxis/kloten/ew1x/medical-services-zrhlx-dhm,0,
