name,address,canton,url,Street / Number,ZIP Code,City
ACAMED Medizinzentrum Dübendorf,"Ueberlandstrasse 212, 8600 Dübendorf",Zürich,https://www.onedoc.ch/de/medizinisches-zentrum/dubendorf/ewgb/acamed-medizinzentrum-dubendorf,Ueberlandstrasse 212,8600,Dübendorf
Aerzte Zentrum Erlenbach,"Drusbergstrasse 10, 8703 Erlenbach",Zürich,https://www.onedoc.ch/de/medizinisches-zentrum/erlenbach/ewue/aerzte-zentrum-erlenbach,Drusbergstrasse 10,8703,Erlenbach
Airport Medical Center,"Prime Center 1, 8060 Zürich",Zürich,https://www.onedoc.ch/de/medizinisches-zentrum/zurich/erbe/airport-medical-center,Prime Center 1,8060,Zürich
Ärztehaus Stadtrain,"Frauenfelderstrasse 124, 8404 Winterthur",Zürich,https://www.onedoc.ch/de/medizinisches-zentrum/winterthur/ewra/arztehaus-stadtrain,Frauenfelderstrasse 124,8404,Winterthur
Ärztehaus Tannenhof - Hausarztpraxis,"Florastrasse 16, 8632 Tann",Zürich,https://www.onedoc.ch/de/medizinisches-zentrum/tann/ewmb/arztehaus-tannenhof-hausarztpraxis,Florastrasse 16,8632,Tann
Ärzteteam Unterwetzikon,"Rapperswilerstrasse 19, 8620 Wetzikon",Zürich,https://www.onedoc.ch/de/medizinisches-zentrum/wetzikon/ewu0/arzteteam-unterwetzikon,Rapperswilerstrasse 19,8620,Wetzikon
Ärztezentrum Dreispitz,"Lindauerstrasse 15, 8317 Tagelswangen",Zürich,https://www.onedoc.ch/de/medizinisches-zentrum/tagelswangen/ew1w/arztezentrum-dreispitz,Lindauerstrasse 15,8317,Tagelswangen
Ärztezentrum Männedorf,"Bahngasse 5, 8708 Männedorf",Zürich,https://www.onedoc.ch/de/medizinisches-zentrum/mannedorf/ewov/arztezentrum-mannedorf,Bahngasse 5,8708,Männedorf
Ärztezentrum Rafz,"Sonnefäld 22, 8197 Rafz",Zürich,https://www.onedoc.ch/de/medizinisches-zentrum/rafz/ewie/arztezentrum-rafz,Sonnefäld 22,8197,Rafz
Ärztezentrum Sihlcity,"Kalanderplatz 1, 8045 Zürich",Zürich,https://www.onedoc.ch/de/medizinisches-zentrum/zurich/em19/arztezentrum-sihlcity,Kalanderplatz 1,8045,Zürich
Ärztezentrum Stäfa,"Häldelistrasse 9, 8712 Stäfa",Zürich,https://www.onedoc.ch/de/medizinisches-zentrum/stafa/ew5r/arztezentrum-stafa,Häldelistrasse 9,8712,Stäfa
Arzthaus Zürich City,"Lintheschergasse 3, 8001 Zürich",Zürich,https://www.onedoc.ch/de/medizinisches-zentrum/zurich/eqxr/arzthaus-zurich-city,Lintheschergasse 3,8001,Zürich
Arzthaus Zürich Enge,"Bederstrasse 4, 8002 Zürich",Zürich,https://www.onedoc.ch/de/medizinisches-zentrum/zurich/ebali/arzthaus-zurich-enge,Bederstrasse 4,8002,Zürich
Arzthaus Zürich Löwenplatz,"Schweizergasse 14, 8001 Zürich",Zürich,https://www.onedoc.ch/de/medizinisches-zentrum/zurich/ebalj/arzthaus-zurich-lowenplatz,Schweizergasse 14,8001,Zürich
Arzthaus Zürich Stadelhofen,"Goethestrasse 14, 8001 Zürich",Zürich,https://www.onedoc.ch/de/medizinisches-zentrum/zurich/ewil/arzthaus-zurich-stadelhofen,Goethestrasse 14,8001,Zürich
Augenärzte Stäfa Zentrum Bahnhof,"Bahnhofstrasse 25, 8712 Stäfa",Zürich,https://www.onedoc.ch/de/medizinisches-zentrum/stafa/e720/augenarzte-stafa-zentrum-bahnhof,Bahnhofstrasse 25,8712,Stäfa
Augenärzte Wetzikon Zentrum Leue,"Bahnhofstrasse 150, 8620 Wetzikon",Zürich,https://www.onedoc.ch/de/medizinisches-zentrum/wetzikon/e721/augenarzte-wetzikon-zentrum-leue,Bahnhofstrasse 150,8620,Wetzikon
Augenärzte Zentrum Winterthur,"Scheideggstrasse 33, 8404 Winterthur",Zürich,https://www.onedoc.ch/de/medizinisches-zentrum/winterthur/eba31/augenarzte-zentrum-winterthur,Scheideggstrasse 33,8404,Winterthur
Augenärzte Zürich Zentrum Schaffhauserplatz,"Weinbergstrasse 161, 8006 Zürich",Zürich,https://www.onedoc.ch/de/medizinisches-zentrum/zurich/e724/augenarzte-zurich-zentrum-schaffhauserplatz,Weinbergstrasse 161,8006,Zürich
Augenärzte Zürich Zentrum Wallisellen,"Bahnhofplatz 2, 8304 Wallisellen",Zürich,https://www.onedoc.ch/de/medizinisches-zentrum/wallisellen/e725/augenarzte-zurich-zentrum-wallisellen,Bahnhofplatz 2,8304,Wallisellen
Augenarztzentrum Standort Limmatquai,"Limmatquai 94, 8001 Zürich",Zürich,https://www.onedoc.ch/de/medizinisches-zentrum/zurich/e1s8/augenarztzentrum-standort-limmatquai,Limmatquai 94,8001,Zürich
Augenarztzentrum Standort Seefeld (Hirslanden),"Seefeldstrasse 214, 8008 Zürich",Zürich,https://www.onedoc.ch/de/medizinisches-zentrum/zurich/e1s9/augenarztzentrum-standort-seefeld-hirslanden,Seefeldstrasse 214,8008,Zürich
Augentagesklinik Zürich Oberland,"Bahnhofstrasse 137, 8620 Wetzikon",Zürich,https://www.onedoc.ch/de/medizinisches-zentrum/wetzikon/e722/augentagesklinik-zurich-oberland,Bahnhofstrasse 137,8620,Wetzikon
Augenzentrum Glattbrugg,"Schaffhauserstrasse 110, 8152 Glattbrugg",Zürich,https://www.onedoc.ch/de/medizinisches-zentrum/glattbrugg/ex3e/augenzentrum-glattbrugg,Schaffhauserstrasse 110,8152,Glattbrugg
Augenzentrum IROC,"Stockerstrasse 37, 8002 Zürich",Zürich,https://www.onedoc.ch/de/medizinisches-zentrum/zurich/exk4/augenzentrum-iroc,Stockerstrasse 37,8002,Zürich
Augenzentrum ONO Bülach,"Sechtbachweg 2, 8180 Bülach",Zürich,https://www.onedoc.ch/de/medizinisches-zentrum/bulach/e9e0/augenzentrum-ono-bulach,Sechtbachweg 2,8180,Bülach
Augenzentrum ONO Glattbrugg,"Schaffhauserstrasse 110, 8152 Opfikon",Zürich,https://www.onedoc.ch/de/medizinisches-zentrum/opfikon/e1qr/augenzentrum-ono-glattbrugg,Schaffhauserstrasse 110,8152,Opfikon
Augenzentrum ONO Pfäffikon,"Turmstrasse 3, 8330 Pfäffikon ZH",Zürich,https://www.onedoc.ch/de/medizinisches-zentrum/pfaffikon/e4jc/augenzentrum-ono-pfaffikon,Turmstrasse 3,8330,Pfäffikon ZH
Augenzentrum ONO Volketswil,"Hofwiesenstrasse 4b, 8604 Volketswil",Zürich,https://www.onedoc.ch/de/medizinisches-zentrum/volketswil/e1qt/augenzentrum-ono-volketswil,Hofwiesenstrasse 4b,8604,Volketswil
Augenzentrum ONO Wallisellen,"Neue Winterthurerstrasse 99, 8304 Wallisellen",Zürich,https://www.onedoc.ch/de/medizinisches-zentrum/wallisellen/eudu/augenzentrum-ono-wallisellen,Neue Winterthurerstrasse 99,8304,Wallisellen
Augenzentrum ONO Winterthur,"Oberfeldstrasse 158, 8408 Winterthur",Zürich,https://www.onedoc.ch/de/medizinisches-zentrum/winterthur/e9e1/augenzentrum-ono-winterthur,Oberfeldstrasse 158,8408,Winterthur
Augenzentrum Volketswil Hofwiesenstrasse 4b Volketswil,"Hofwiesenstrasse 4b, 8604 Volketswil",Zürich,https://www.onedoc.ch/de/medizinisches-zentrum/volketswil/e03f/augenzentrum-volketswil-hofwiesenstrasse-4b-volketswil,Hofwiesenstrasse 4b,8604,Volketswil
Augenzentrum Watt,"Dorfstrasse 53, 8105 Watt",Zürich,https://www.onedoc.ch/de/medizinisches-zentrum/watt/exaz/augenzentrum-watt,Dorfstrasse 53,8105,Watt
Augenzentrum Wiedikon,"Birmensdorferstrasse 55, 8005 Zürich",Zürich,https://www.onedoc.ch/de/medizinisches-zentrum/zurich/eued/augenzentrum-wiedikon,Birmensdorferstrasse 55,8005,Zürich
Augenzentrum Winterthur,"Lagerhausstrasse 10, 8400 Winterthur",Zürich,https://www.onedoc.ch/de/medizinisches-zentrum/winterthur/ewi8/augenzentrum-winterthur,Lagerhausstrasse 10,8400,Winterthur
B3-Praxis am Bahnhofplatz,"Bahnhofplatz 3, 8001 Zürich",Zürich,https://www.onedoc.ch/de/medizinisches-zentrum/zurich/et1l/b3-praxis-am-bahnhofplatz,Bahnhofplatz 3,8001,Zürich
Bachtelpraxis,"Ettenhauserstrasse 13, 8620 Wetzikon",Zürich,https://www.onedoc.ch/de/medizinisches-zentrum/wetzikon/ew29/bachtelpraxis,Ettenhauserstrasse 13,8620,Wetzikon
Bergpraxis,"Bergstrasse 1, 8816 Hirzel",Zürich,https://www.onedoc.ch/de/medizinisches-zentrum/hirzel/ewzf/bergpraxis,Bergstrasse 1,8816,Hirzel
Chirurgisches Zentrum Zürich,"Witellikerstrasse 40, 8032 Zürich",Zürich,https://www.onedoc.ch/de/medizinisches-zentrum/zurich/et5f/chirurgisches-zentrum-zurich,Witellikerstrasse 40,8032,Zürich
Clienia Gruppenpraxen Winterthur,"Neumarkt 4, 8400 Winterthur",Zürich,https://www.onedoc.ch/de/medizinisches-zentrum/winterthur/ewgr/clienia-gruppenpraxen-winterthur,Neumarkt 4,8400,Winterthur
Dermatologikum Zürich,"Wallisellenstrasse 301a, 8050 Zürich",Zürich,https://www.onedoc.ch/de/medizinisches-zentrum/zurich/euqs/dermatologikum-zurich,Wallisellenstrasse 301a,8050,Zürich
Dermatologisches Zentrum Zürich,"Beckenhofstrasse 6, 8006 Zürich",Zürich,https://www.onedoc.ch/de/medizinisches-zentrum/zurich/ewjz/dermatologisches-zentrum-zurich,Beckenhofstrasse 6,8006,Zürich
Dermis - Hautklinik Zürich - Bülach,"Schaffhauserstrasse 53, 8180 Bülach",Zürich,https://www.onedoc.ch/de/medizinisches-zentrum/bulach/ewmc/dermis-hautklinik-zurich-bulach,Schaffhauserstrasse 53,8180,Bülach
Endoclinic Zürich,"Witellikerstrasse 40, 8008 Zürich",Zürich,https://www.onedoc.ch/de/medizinisches-zentrum/zurich/ett6/endoclinic-zurich,Witellikerstrasse 40,8008,Zürich
Fachärztezentrum Glatt,"Neue Winterthurerstrasse 99, 8304 Wallisellen",Zürich,https://www.onedoc.ch/de/medizinisches-zentrum/wallisellen/erna/facharztezentrum-glatt,Neue Winterthurerstrasse 99,8304,Wallisellen
Fachärztezentrum Prisma,"Trichtenhauser Strasse 12, 8125 Zollikerberg",Zürich,https://www.onedoc.ch/de/medizinisches-zentrum/zollikerberg/ewye/facharztezentrum-prisma,Trichtenhauser Strasse 12,8125,Zollikerberg
Fachgruppe Trans,"Stolzestrasse 3, 8006 Zürich",Zürich,https://www.onedoc.ch/de/medizinisches-zentrum/zurich/e02a/fachgruppe-trans,Stolzestrasse 3,8006,Zürich
Flor Gesundheitszentrum Uster,"Loren-Allee 20, 8610 Uster",Zürich,https://www.onedoc.ch/de/medizinisches-zentrum/uster/ewiq/flor-gesundheitszentrum-uster,Loren-Allee 20,8610,Uster
Flor Gesundheitszentrum Volketswil,"Hofwiesenstrasse 4b, 8604 Volketswil",Zürich,https://www.onedoc.ch/de/medizinisches-zentrum/volketswil/ewhk/flor-gesundheitszentrum-volketswil,Hofwiesenstrasse 4b,8604,Volketswil
Frauengesundheitszentrum,"Rämistrasse 35, 8001 Zürich",Zürich,https://www.onedoc.ch/de/medizinisches-zentrum/zurich/ewpw/frauengesundheitszentrum,Rämistrasse 35,8001,Zürich
Frauenpraxis Winterthur,"Lindstrasse 15, 8400 Winterthur",Zürich,https://www.onedoc.ch/de/medizinisches-zentrum/winterthur/ewl5/frauenpraxis-winterthur,Lindstrasse 15,8400,Winterthur
Gemeinschaftspraxis Rümlang,"Glattalstrasse 204, 8153 Rümlang",Zürich,https://www.onedoc.ch/de/medizinisches-zentrum/rumlang/ewvp/gemeinschaftspraxis-rumlang,Glattalstrasse 204,8153,Rümlang
Gruppenpraxis Fällanden,"Unterdorfstrasse 3, 8117 Fällanden",Zürich,https://www.onedoc.ch/de/medizinisches-zentrum/fallanden/ewlg/gruppenpraxis-fallanden,Unterdorfstrasse 3,8117,Fällanden
Gruppenpraxis Grossmünsterplatz 8,"Grossmünsterplatz 8, 8001 Zürich",Zürich,https://www.onedoc.ch/de/medizinisches-zentrum/zurich/eugl/gruppenpraxis-grossmunsterplatz-8,Grossmünsterplatz 8,8001,Zürich
Gruppenpraxis Im Fleudebüel 10,"Im Fleudebüel 10, 8460 Marthalen",Zürich,https://www.onedoc.ch/de/medizinisches-zentrum/marthalen/ewgz/gruppenpraxis-im-fleudebuel-10,Im Fleudebüel 10,8460,Marthalen
Hausarztpraxis Volketswil - Huzlenstrasse 3,"Huzlenstrasse 3, 8604 Volketswil",Zürich,https://www.onedoc.ch/de/medizinisches-zentrum/volketswil/ewxz/hausarztpraxis-volketswil-huzlenstrasse-3,Huzlenstrasse 3,8604,Volketswil
HautZentrum Zürich,"Schaffhauserstrasse 355, 8050 Zürich",Zürich,https://www.onedoc.ch/de/medizinisches-zentrum/zurich/ewlh/hautzentrum-zurich,Schaffhauserstrasse 355,8050,Zürich
Heart Clinic Zurich,"Witellikerstrasse 40, 8032 Zürich",Zürich,https://www.onedoc.ch/de/medizinisches-zentrum/zurich/eq7f/heart-clinic-zurich,Witellikerstrasse 40,8032,Zürich
House of Skin & Laser Medicine,"Bürglistrasse 11, 8002 Zürich",Zürich,https://www.onedoc.ch/de/medizinisches-zentrum/zurich/ewgv/house-of-skin-laser-medicine,Bürglistrasse 11,8002,Zürich
IZZ-ImmunologieZentrum Zürich,"Walchestrasse 11, 8006 Zürich",Zürich,https://www.onedoc.ch/de/medizinisches-zentrum/zurich/ewg3/izz-immunologiezentrum-zurich,Walchestrasse 11,8006,Zürich
Kinderarztpraxis Pfäffikon,"Wallikerstrasse 10, 8330 Pfäffikon ZH",Zürich,https://www.onedoc.ch/de/medizinisches-zentrum/pfaffikon/ewnw/kinderarztpraxis-pfaffikon,Wallikerstrasse 10,8330,Pfäffikon ZH
Kopfwehzentrum Hirslanden,"Forchstrasse 424, 8702 Zollikon",Zürich,https://www.onedoc.ch/de/medizinisches-zentrum/zollikon/ewo3/kopfwehzentrum-hirslanden,Forchstrasse 424,8702,Zollikon
Limmat Augenzentrum,"Hardturmstrasse 133, 8005 Zürich",Zürich,https://www.onedoc.ch/de/medizinisches-zentrum/zurich/ewji/limmat-augenzentrum,Hardturmstrasse 133,8005,Zürich
Medbase Eglisau,"Obergass 1, 8193 Eglisau",Zürich,https://www.onedoc.ch/de/medizinisches-zentrum/eglisau/erha/medbase-eglisau,Obergass 1,8193,Eglisau
Medbase Greifensee,"Grossriet 1, 8604 Greifensee",Zürich,https://www.onedoc.ch/de/medizinisches-zentrum/greifensee/e1i2/medbase-greifensee,Grossriet 1,8604,Greifensee
Medbase Hinwil,"Bahnhofstrasse 10, 8340 Hinwil",Zürich,https://www.onedoc.ch/de/medizinisches-zentrum/hinwil/eq2a/medbase-hinwil,Bahnhofstrasse 10,8340,Hinwil
Medbase Kloten,"Bachstrasse 9B, 8302 Kloten",Zürich,https://www.onedoc.ch/de/medizinisches-zentrum/kloten/ewig/medbase-kloten,Bachstrasse 9B,8302,Kloten
Medbase Uster,"Oberlandstrasse 104, 8610 Uster",Zürich,https://www.onedoc.ch/de/medizinisches-zentrum/uster/ewy8/medbase-uster,Oberlandstrasse 104,8610,Uster
Medbase Wetzikon,"Bahnhofstrasse 99g, 8620 Wetzikon",Zürich,https://www.onedoc.ch/de/medizinisches-zentrum/wetzikon/ewgf/medbase-wetzikon,Bahnhofstrasse 99g,8620,Wetzikon
Medbase Winterthur Brunngasse,"Brunngasse 6, 8400 Winterthur",Zürich,https://www.onedoc.ch/de/medizinisches-zentrum/winterthur/evgc/medbase-winterthur-brunngasse,Brunngasse 6,8400,Winterthur
Medbase Winterthur Neuwiesen,"Gertrudstrasse 1, 8400 Winterthur",Zürich,https://www.onedoc.ch/de/medizinisches-zentrum/winterthur/ewis/medbase-winterthur-neuwiesen,Gertrudstrasse 1,8400,Winterthur
Medbase Winterthur Schaffhauserstrasse,"Schaffhauserstrasse 6, 8400 Winterthur",Zürich,https://www.onedoc.ch/de/medizinisches-zentrum/winterthur/e1yn/medbase-winterthur-schaffhauserstrasse,Schaffhauserstrasse 6,8400,Winterthur
Medbase Winterthur WIN4,"Grüzefeldstrasse 32, 8400 Winterthur",Zürich,https://www.onedoc.ch/de/medizinisches-zentrum/winterthur/ewsw/medbase-winterthur-win4,Grüzefeldstrasse 32,8400,Winterthur
Medbase Zürich Löwenstrasse,"Löwenstrasse 29, 8001 Zürich",Zürich,https://www.onedoc.ch/de/medizinisches-zentrum/zurich/ewn6/medbase-zurich-lowenstrasse,Löwenstrasse 29,8001,Zürich
Medbase Zürich Oerlikon,"Andreasstrasse 5, 8050 Zürich",Zürich,https://www.onedoc.ch/de/medizinisches-zentrum/zurich/ewge/medbase-zurich-oerlikon,Andreasstrasse 5,8050,Zürich
Medbase Zürich Permanence Hauptbahnhof,"Bahnhofplatz 15, 8001 Zürich",Zürich,https://www.onedoc.ch/de/medizinisches-zentrum/zurich/ewgw/medbase-zurich-permanence-hauptbahnhof,Bahnhofplatz 15,8001,Zürich
Medbase Zürich Wiedikon,"Seebahnstrasse 89, 8003 Zürich",Zürich,https://www.onedoc.ch/de/medizinisches-zentrum/zurich/eqy5/medbase-zurich-wiedikon,Seebahnstrasse 89,8003,Zürich
Medipark Swiss - Medipark Gesundheitszentrum,"Thurgauerstrasse 40, 8050 Zürich",Zürich,https://www.onedoc.ch/de/medizinisches-zentrum/zurich/erg9/medipark-swiss-medipark-gesundheitszentrum,Thurgauerstrasse 40,8050,Zürich
MEDISYN CityLab Winterthur - Einkaufszentrum Neuwiesen,"Strickerstrasse 3, 8400 Winterthur",Zürich,https://www.onedoc.ch/de/medizinisches-zentrum/winterthur/e2lg/medisyn-citylab-winterthur-einkaufszentrum-neuwiesen,Strickerstrasse 3,8400,Winterthur
mediX Gruppenpraxis,"Rotbuchstrasse 46, 8037 Zürich",Zürich,https://www.onedoc.ch/de/medizinisches-zentrum/zurich/ewqu/medix-gruppenpraxis,Rotbuchstrasse 46,8037,Zürich
mediX notfallpraxis,"Badenerstrasse 41, 8004 Zürich",Zürich,https://www.onedoc.ch/de/medizinisches-zentrum/zurich/eq2b/medix-notfallpraxis,Badenerstrasse 41,8004,Zürich
mediX praxis altstetten,"Hohlstrasse 556, 8048 Zürich",Zürich,https://www.onedoc.ch/de/medizinisches-zentrum/zurich/ewqo/medix-praxis-altstetten,Hohlstrasse 556,8048,Zürich
Medizinisches Zentrum,"Löwenstrasse 12, 8001 Zürich",Zürich,https://www.onedoc.ch/de/medizinisches-zentrum/zurich/ewtn/medizinisches-zentrum,Löwenstrasse 12,8001,Zürich
Medizinisches Zentrum Chrummbächli,"Chrummbächliweg 2, 8805 Richterswil",Zürich,https://www.onedoc.ch/de/medizinisches-zentrum/richterswil/ewhy/medizinisches-zentrum-chrummbachli,Chrummbächliweg 2,8805,Richterswil
Medizinisches Zentrum Geissberg,"Haldenstrasse 64, 8302 Kloten",Zürich,https://www.onedoc.ch/de/medizinisches-zentrum/kloten/ewkd/medizinisches-zentrum-geissberg,Haldenstrasse 64,8302,Kloten
Medizinisches Zentrum Römerhof GmbH,"Klosbachstrasse 116, 8032 Zürich",Zürich,https://www.onedoc.ch/de/medizinisches-zentrum/zurich/emh6/medizinisches-zentrum-romerhof-gmbh,Klosbachstrasse 116,8032,Zürich
Medizinisches Zentrum Seegarten,"Seestrasse 155, 8802 Kilchberg",Zürich,https://www.onedoc.ch/de/medizinisches-zentrum/kilchberg/exsw/medizinisches-zentrum-seegarten,Seestrasse 155,8802,Kilchberg
medVadis - Ärztezentrum Birmensdorf,"Dorfstrasse 5, 8903 Birmensdorf",Zürich,https://www.onedoc.ch/de/medizinisches-zentrum/birmensdorf/ewj8/medvadis-arztezentrum-birmensdorf,Dorfstrasse 5,8903,Birmensdorf
medVadis - Ärztezentrum Engstringen,"Im Zentrum 1, 8102 Oberengstringen",Zürich,https://www.onedoc.ch/de/medizinisches-zentrum/oberengstringen/ewp4/medvadis-arztezentrum-engstringen,Im Zentrum 1,8102,Oberengstringen
medVadis - Ärztezentrum Urdorf,"Birmensdorferstrasse 87, 8902 Urdorf",Zürich,https://www.onedoc.ch/de/medizinisches-zentrum/urdorf/ewko/medvadis-arztezentrum-urdorf,Birmensdorferstrasse 87,8902,Urdorf
MeinArzt Leimbach,"Leimbachstrasse 231, 8041 Zürich",Zürich,https://www.onedoc.ch/de/medizinisches-zentrum/zurich/e02f/meinarzt-leimbach,Leimbachstrasse 231,8041,Zürich
Monvia Gesundheitszentrum Wallisellen,"Bahnhofplatz 1b, 8304 Wallisellen",Zürich,https://www.onedoc.ch/de/medizinisches-zentrum/wallisellen/ewta/monvia-gesundheitszentrum-wallisellen,Bahnhofplatz 1b,8304,Wallisellen
Monvia Gesundheitszentrum Winterthur,"Bahnhofplatz 12, 8400 Winterthur",Zürich,https://www.onedoc.ch/de/medizinisches-zentrum/winterthur/ewut/monvia-gesundheitszentrum-winterthur,Bahnhofplatz 12,8400,Winterthur
Neurozentrum Bellevue,"Theaterstrasse 8, 8001 Zürich",Zürich,https://www.onedoc.ch/de/medizinisches-zentrum/zurich/erll/neurozentrum-bellevue,Theaterstrasse 8,8001,Zürich
OnkoZentrum Hirslanden,"Witellikerstrasse 40, 8008 Zürich",Zürich,https://www.onedoc.ch/de/medizinisches-zentrum/zurich/er4h/onkozentrum-hirslanden,Witellikerstrasse 40,8008,Zürich
OnkoZentrum Zürich Standort Zürich-Enge,"Seestrasse 259, 8038 Zürich",Zürich,https://www.onedoc.ch/de/medizinisches-zentrum/zurich/ewk3/onkozentrum-zurich-standort-zurich-enge,Seestrasse 259,8038,Zürich
ORL-Zentrum,"Witellikerstrasse 40, 8008 Zürich",Zürich,https://www.onedoc.ch/de/medizinisches-zentrum/zurich/ewst/orl-zentrum,Witellikerstrasse 40,8008,Zürich
Orthopädie Zentrum Zürich Dr. Christian Diezi,"Seestrasse 259, 8038 Zürich",Zürich,https://www.onedoc.ch/de/medizinisches-zentrum/zurich/exfn/orthopadie-zentrum-zurich-dr-christian-diezi,Seestrasse 259,8038,Zürich
Osteopathie Klinik Impuls,"Bahnhofstrasse 137, 8620 Wetzikon",Zürich,https://www.onedoc.ch/de/medizinisches-zentrum/wetzikon/e1i6/osteopathie-klinik-impuls,Bahnhofstrasse 137,8620,Wetzikon
Permanence Marktplatz Oerlikon,"Querstrasse 15, 8050 Zürich",Zürich,https://www.onedoc.ch/de/medizinisches-zentrum/zurich/eq2m/permanence-marktplatz-oerlikon,Querstrasse 15,8050,Zürich
"Pinmed AG - Zentrum für Allgemeinmedizin, Chirurgie, Gefässmedizin & Vasektomie","Bahnhofstrasse 15a, 8304 Wallisellen",Zürich,https://www.onedoc.ch/de/medizinisches-zentrum/wallisellen/e2vz/pinmed-ag-zentrum-fur-allgemeinmedizin-chirurgie-gefassmedizin-vasektomie,Bahnhofstrasse 15a,8304,Wallisellen
PLAZA Kliniken,"Oberlandstrasse 100, 8610 Uster",Zürich,https://www.onedoc.ch/de/medizinisches-zentrum/uster/ewk6/plaza-kliniken,Oberlandstrasse 100,8610,Uster
Praxis am Bahnhof,"Dorfstrasse 43, 8630 Rüti ZH",Zürich,https://www.onedoc.ch/de/medizinisches-zentrum/ruti/eueb/praxis-am-bahnhof,Dorfstrasse 43,8630,Rüti ZH
Praxis Bullingerplatz,"Stauffacherstrasse 234, 8004 Zürich",Zürich,https://www.onedoc.ch/de/medizinisches-zentrum/zurich/ewnb/praxis-bullingerplatz,Stauffacherstrasse 234,8004,Zürich
Praxis Chreis4-Psychiatrie und Psychotherapie,"Sihlhallenstrasse 30, 8004 Zürich",Zürich,https://www.onedoc.ch/de/medizinisches-zentrum/zurich/ewzz/praxis-chreis4-psychiatrie-und-psychotherapie,Sihlhallenstrasse 30,8004,Zürich
Praxis Dr. med. Daniel Goessi,"Schickstrasse 11, 8400 Winterthur",Zürich,https://www.onedoc.ch/de/medizinisches-zentrum/winterthur/ex01/praxis-dr-med-daniel-goessi,Schickstrasse 11,8400,Winterthur
Praxis Dr. med. Rapp Solveig,"Poststrasse 6, 8001 Zürich",Zürich,https://www.onedoc.ch/de/medizinisches-zentrum/zurich/ewz9/praxis-dr-med-rapp-solveig,Poststrasse 6,8001,Zürich
Praxisgemeinschaft Altstetten,"Eugen Huber-Strasse 16, 8048 Zürich",Zürich,https://www.onedoc.ch/de/medizinisches-zentrum/zurich/ewhc/praxisgemeinschaft-altstetten,Eugen Huber-Strasse 16,8048,Zürich
Praxisgemeinschaft am Meierhof,"Limmattalstrasse 177, 8049 Zürich",Zürich,https://www.onedoc.ch/de/medizinisches-zentrum/zurich/eprc/praxisgemeinschaft-am-meierhof,Limmattalstrasse 177,8049,Zürich
Praxis med-in,"Bertastrasse 99, 8003 Zürich",Zürich,https://www.onedoc.ch/de/medizinisches-zentrum/zurich/ewsy/praxis-med-in,Bertastrasse 99,8003,Zürich
Praxis Rebhalden,"Gerlisbergstrasse 3, 8303 Bassersdorf",Zürich,https://www.onedoc.ch/de/medizinisches-zentrum/bassersdorf/et1k/praxis-rebhalden,Gerlisbergstrasse 3,8303,Bassersdorf
Praxiszentrum Möwe,"Kirchgasse 4, 8620 Wetzikon",Zürich,https://www.onedoc.ch/de/medizinisches-zentrum/wetzikon/ewf3/praxiszentrum-mowe,Kirchgasse 4,8620,Wetzikon
Psychcentral am Central,"Weinbergstrasse 26, 8001 Zürich",Zürich,https://www.onedoc.ch/de/medizinisches-zentrum/zurich/ewg2/psychcentral-am-central,Weinbergstrasse 26,8001,Zürich
Rautipraxis,"Rautistrasse 55, 8047 Zürich",Zürich,https://www.onedoc.ch/de/medizinisches-zentrum/zurich/ewhr/rautipraxis,Rautistrasse 55,8047,Zürich
Rhypraxis,"Schützenstrasse 29, 8245 Feuerthalen",Zürich,https://www.onedoc.ch/de/medizinisches-zentrum/feuerthalen/ewkc/rhypraxis,Schützenstrasse 29,8245,Feuerthalen
Rosengarten Praxis,"Bahnhofstrasse 231, 8623 Wetzikon",Zürich,https://www.onedoc.ch/de/medizinisches-zentrum/wetzikon/ewrr/rosengarten-praxis,Bahnhofstrasse 231,8623,Wetzikon
sihldoc4kids,"Giesshübelstrasse 15, 8045 Zürich",Zürich,https://www.onedoc.ch/de/medizinisches-zentrum/zurich/et5p/sihldoc4kids,Giesshübelstrasse 15,8045,Zürich
Smoothline,"Bahnhofstrasse 84, 8001 Zürich",Zürich,https://www.onedoc.ch/de/medizinisches-zentrum/zurich/ewmz/smoothline,Bahnhofstrasse 84,8001,Zürich
SOS Aerzte Turicum,"Weinbergstrasse 68, 8006 Zürich",Zürich,https://www.onedoc.ch/de/medizinisches-zentrum/zurich/e1cw/sos-aerzte-turicum,Weinbergstrasse 68,8006,Zürich
SportClinic Zurich Hirslanden,"Witellikerstrasse 40, 8008 Zürich",Zürich,https://www.onedoc.ch/de/medizinisches-zentrum/zurich/ewza/sportclinic-zurich-hirslanden,Witellikerstrasse 40,8008,Zürich
SportClinic Zurich Seebahnstrasse,"Seebahnstrasse 89, 8003 Zürich",Zürich,https://www.onedoc.ch/de/medizinisches-zentrum/zurich/e8rl/sportclinic-zurich-seebahnstrasse,Seebahnstrasse 89,8003,Zürich
SportClinic Zurich Sihlcity,"Giesshübelstrasse 15, 8045 Zürich",Zürich,https://www.onedoc.ch/de/medizinisches-zentrum/zurich/ewp5/sportclinic-zurich-sihlcity,Giesshübelstrasse 15,8045,Zürich
Stroke Center Hirslanden,"Witellikerstrasse 40, 8008 Zürich",Zürich,https://www.onedoc.ch/de/medizinisches-zentrum/zurich/ew43/stroke-center-hirslanden,Witellikerstrasse 40,8008,Zürich
Swiss Augenzentrum - Dr. Schramm und Partner,"Schaffhauserstrasse 347, 8050 Zürich",Zürich,https://www.onedoc.ch/de/medizinisches-zentrum/zurich/ewjs/swiss-augenzentrum-dr-schramm-und-partner,Schaffhauserstrasse 347,8050,Zürich
Swiss Medi Kids Winterthur,"Archplatz 2, 3. Etage, 8400 Winterthur",Zürich,https://www.onedoc.ch/de/medizinisches-zentrum/winterthur/etzn/swiss-medi-kids-winterthur,Archplatz 2,8400,Winterthur
Swiss Medi Kids Winterthur,"Archplatz 2, 8400 Winterthur",Zürich,https://www.onedoc.ch/de/medizinisches-zentrum/winterthur/e4x7/swiss-medi-kids-winterthur,Archplatz 2,8400,Winterthur
Swiss Medi Kids Zürich,"Bahnhofplatz 9, 8001 Zürich",Zürich,https://www.onedoc.ch/de/medizinisches-zentrum/zurich/e2mp/swiss-medi-kids-zurich,Bahnhofplatz 9,8001,Zürich
Swiss Medi Kids Zürich,"Bahnhofplatz 9, 4. Etage, 8001 Zürich",Zürich,https://www.onedoc.ch/de/medizinisches-zentrum/zurich/etzm/swiss-medi-kids-zurich,Bahnhofplatz 9,8001,Zürich
Swiss Neuro Institute Neurochirurgie,"Witellikerstrasse 40, 8032 Zürich",Zürich,https://www.onedoc.ch/de/medizinisches-zentrum/zurich/eq4y/swiss-neuro-institute-neurochirurgie,Witellikerstrasse 40,8032,Zürich
Talacker Augen Zentrum Zürich,"Pelikanstrasse 18, 8001 Zürich",Zürich,https://www.onedoc.ch/de/medizinisches-zentrum/zurich/esdw/talacker-augen-zentrum-zurich,Pelikanstrasse 18,8001,Zürich
Uroviva Praxis Bulach,"Zürichstrasse 5, 8180 Bülach",Zürich,https://www.onedoc.ch/de/medizinisches-zentrum/bulach/ewl6/uroviva-praxis-bulach,Zürichstrasse 5,8180,Bülach
Vista Augenklinik Zürich,"Sihlstrasse 37, 8001 Zürich",Zürich,https://www.onedoc.ch/de/medizinisches-zentrum/zurich/ergd/vista-augenklinik-zurich,Sihlstrasse 37,8001,Zürich
VIVA Hausärzte,"Zürichstrasse 5 , 8180 Bülach",Zürich,https://www.onedoc.ch/de/medizinisches-zentrum/bulach/e00w/viva-hausarzte,Zürichstrasse 5,8180,Bülach
Winti Vision,"Stadthausstrasse 71, 8400 Winterthur",Zürich,https://www.onedoc.ch/de/medizinisches-zentrum/winterthur/ewzs/winti-vision,Stadthausstrasse 71,8400,Winterthur
Wirbelsäulen- und Schmerz-Clinic Zürich Klinik Hirslanden,"Witellikerstrasse 40, 8032 Zürich",Zürich,https://www.onedoc.ch/de/medizinisches-zentrum/zurich/ermb/wirbelsaulen-und-schmerz-clinic-zurich-klinik-hirslanden,Witellikerstrasse 40,8032,Zürich
wollimed ag,"Tannenrauchstrasse 88/90, 8038 Zürich",Zürich,https://www.onedoc.ch/de/medizinisches-zentrum/zurich/etxx/wollimed-ag,Tannenrauchstrasse 88/90,8038,Zürich
ZADZ Zentrum für Angst- und Depressionsbehandlung Zürich,"Riesbachstrasse 61, 8008 Zürich",Zürich,https://www.onedoc.ch/de/medizinisches-zentrum/zurich/ewqy/zadz-zentrum-fur-angst-und-depressionsbehandlung-zurich,Riesbachstrasse 61,8008,Zürich
Zentrum für Integrative Onkologie (ZIO) - Paracelsus-Spital Richterswil,"Bergstrasse 16, 8805 Richterswil",Zürich,https://www.onedoc.ch/de/medizinisches-zentrum/richterswil/exdj/zentrum-fur-integrative-onkologie-zio-paracelsus-spital-richterswil,Bergstrasse 16,8805,Richterswil
Zentrum für integrative Psychiatrie und,"Weinbergstrasse 29, 8006 Zürich",Zürich,https://www.onedoc.ch/de/medizinisches-zentrum/zurich/ewk8/zentrum-fur-integrative-psychiatrie-und,Weinbergstrasse 29,8006,Zürich
Zentrum für Urologie Zürich - Klinik Hirslanden,"Witellikerstrasse 40, 8032 Zürich",Zürich,https://www.onedoc.ch/de/medizinisches-zentrum/zurich/eq50/zentrum-fur-urologie-zurich-klinik-hirslanden,Witellikerstrasse 40,8032,Zürich
AESTHETICS CLINIC - Centre de Chirurgie Plastique & Médecine Esthétique,"Rue du Rhône 17, 1204 Genf",Genf,https://www.onedoc.ch/de/medizinisches-zentrum/genf/ep7l/aesthetics-clinic-centre-de-chirurgie-plastique-medecine-esthetique,Rue du Rhône 17,1204,Genf
Cabinet daccueil périnatal,"Route de Chêne 11, 1207 Genf",Genf,https://www.onedoc.ch/de/medizinisches-zentrum/genf/ebw8/cabinet-d-accueil-perinatal,Route de Chêne 11,1207,Genf
Cabinet de groupe des Dr. de Senarclens,"Avenue Jacob-Daniel Maillard 11, 1217 Meyrin",Genf,https://www.onedoc.ch/de/medizinisches-zentrum/meyrin/ezp2/cabinet-de-groupe-des-dr-de-senarclens,Avenue Jacob-Daniel Maillard 11,1217,Meyrin
Cabinet de groupe Dr. Brunelli / Dr. Fournet Irion,"Avenue de Champel 24, 1206 Genf",Genf,https://www.onedoc.ch/de/medizinisches-zentrum/genf/ezmk/cabinet-de-groupe-dr-brunelli-dr-fournet-irion,Avenue de Champel 24,1206,Genf
Cabinet de groupe Dr. Cantero Pérez / Dr. Miserez Zaugg,"Chemin de Beau-Soleil 22, 1206 Genf",Genf,https://www.onedoc.ch/de/medizinisches-zentrum/genf/es6i/cabinet-de-groupe-dr-cantero-perez-dr-miserez-zaugg,Chemin de Beau-Soleil 22,1206,Genf
Cabinet de groupe Dr. Mossaz / Dr. Ricou,"Chemin de Beau-Soleil 12, 1206 Genf",Genf,https://www.onedoc.ch/de/medizinisches-zentrum/genf/etk8/cabinet-de-groupe-dr-mossaz-dr-ricou,Chemin de Beau-Soleil 12,1206,Genf
Cabinet de groupe Dr. Munier / Dr. Weber,"Chemin de Beau-Soleil 22, 1206 Genf",Genf,https://www.onedoc.ch/de/medizinisches-zentrum/genf/ezqw/cabinet-de-groupe-dr-munier-dr-weber,Chemin de Beau-Soleil 22,1206,Genf
Cabinet de groupe Dr. Schils / Dr. Tochon,"Chemin de Beau-Soleil 12, 1206 Genf",Genf,https://www.onedoc.ch/de/medizinisches-zentrum/genf/ezrd/cabinet-de-groupe-dr-schils-dr-tochon,Chemin de Beau-Soleil 12,1206,Genf
Cabinet de groupe Rue des Deux-Ponts 20 Genève,"Rue des Deux-Ponts 20, 1205 Genf",Genf,https://www.onedoc.ch/de/medizinisches-zentrum/genf/es71/cabinet-de-groupe-rue-des-deux-ponts-20-geneve,Rue des Deux-Ponts 20,1205,Genf
Cabinet de Rive,"Boulevard Helvétique 26, 1207 Genf",Genf,https://www.onedoc.ch/de/medizinisches-zentrum/genf/eqdv/cabinet-de-rive,Boulevard Helvétique 26,1207,Genf
Cabinet Dr. Liengme Nicolas,"Avenue Blanc 49, 1202 Genf",Genf,https://www.onedoc.ch/de/medizinisches-zentrum/genf/ebxq/cabinet-dr-liengme-nicolas,Avenue Blanc 49,1202,Genf
Cabinet Dr. Robyr Susini Romaine,"Avenue Jacob-Daniel Maillard 3, 1217 Meyrin",Genf,https://www.onedoc.ch/de/medizinisches-zentrum/meyrin/ebxa/cabinet-dr-robyr-susini-romaine,Avenue Jacob-Daniel Maillard 3,1217,Meyrin
Cabinet Dr Valérie Uldry et Dr Muriel Candolfi,"Boulevard de Saint-Georges 72, 1205 Genf",Genf,https://www.onedoc.ch/de/medizinisches-zentrum/genf/emw/cabinet-dr-valerie-uldry-et-dr-muriel-candolfi,Boulevard de Saint-Georges 72,1205,Genf
Cabinet Médical de l'Amandolier,"Route de Chêne 34, 1208 Genf",Genf,https://www.onedoc.ch/de/medizinisches-zentrum/genf/es7n/cabinet-medical-de-l-amandolier,Route de Chêne 34,1208,Genf
Cabinet Médical du Corbusier,"Rue Le-Corbusier 18, 1208 Genf",Genf,https://www.onedoc.ch/de/medizinisches-zentrum/genf/ezmq/cabinet-medical-du-corbusier,Rue Le-Corbusier 18,1208,Genf
Centre de l'Oeil Acacias,"Rue des Epinettes 19, 1227 Carouge",Genf,https://www.onedoc.ch/de/medizinisches-zentrum/carouge/ep38/centre-de-l-oeil-acacias,Rue des Epinettes 19,1227,Carouge
Centre de l'Oeil Carouge,"Rue Ancienne 45, 1227 Carouge",Genf,https://www.onedoc.ch/de/medizinisches-zentrum/carouge/ep4c/centre-de-l-oeil-carouge,Rue Ancienne 45,1227,Carouge
Centre de l'Oeil Chantepoulet,"Rue de Chantepoulet 10, 1201 Genf",Genf,https://www.onedoc.ch/de/medizinisches-zentrum/genf/ei0y/centre-de-l-oeil-chantepoulet,Rue de Chantepoulet 10,1201,Genf
Centre de l'Oeil Jonction,"Rue des Deux-Ponts 12, 1205 Genf",Genf,https://www.onedoc.ch/de/medizinisches-zentrum/genf/ep39/centre-de-l-oeil-jonction,Rue des Deux-Ponts 12,1205,Genf
Centre de l'Oeil Malagnou,"Rue Adrien-Lachenal 26, 1207 Genf",Genf,https://www.onedoc.ch/de/medizinisches-zentrum/genf/ep9s/centre-de-l-oeil-malagnou,Rue Adrien-Lachenal 26,1207,Genf
Centre de l'Oeil Plainpalais,"Rue de Carouge 24, 1205 Genf",Genf,https://www.onedoc.ch/de/medizinisches-zentrum/genf/ep35/centre-de-l-oeil-plainpalais,Rue de Carouge 24,1205,Genf
Centre de l'Oeil Servette,"Rue de la Servette 61, 1202 Genf",Genf,https://www.onedoc.ch/de/medizinisches-zentrum/genf/ep4b/centre-de-l-oeil-servette,Rue de la Servette 61,1202,Genf
Centre de l'Oeil Vernier,"Route de Montfleury 3, 1214 Vernier",Genf,https://www.onedoc.ch/de/medizinisches-zentrum/vernier/ep4a/centre-de-l-oeil-vernier,Route de Montfleury 3,1214,Vernier
Centre de l'Oeil Vésenaz,"Route de Thonon 42, 1222 Vésenaz",Genf,https://www.onedoc.ch/de/medizinisches-zentrum/vesenaz/ep34/centre-de-l-oeil-vesenaz,Route de Thonon 42,1222,Vésenaz
Centre de Médecine Interne et ses Spécialités - CMIS,"Avenue de la Roseraie 76A, 1205 Genf",Genf,https://www.onedoc.ch/de/medizinisches-zentrum/genf/eqht/centre-de-medecine-interne-et-ses-specialites-cmis,Avenue de la Roseraie 76A,1205,Genf
Centre de pédiatrie Eaux-Vives Gare,"Avenue de la Gare des Eaux-Vives 33, 1207 Genf",Genf,https://www.onedoc.ch/de/medizinisches-zentrum/genf/eba93/centre-de-pediatrie-eaux-vives-gare,Avenue de la Gare des Eaux-Vives 33,1207,Genf
Centre de Psychothérapie de Varembé,"Rue de Vermont 37, 1202 Genf",Genf,https://www.onedoc.ch/de/medizinisches-zentrum/genf/e3z/centre-de-psychotherapie-de-varembe,Rue de Vermont 37,1202,Genf
Centre d'oncologie des Eaux-Vives,"Rue Maunoir 26, 1207 Genf",Genf,https://www.onedoc.ch/de/medizinisches-zentrum/genf/es59/centre-d-oncologie-des-eaux-vives,Rue Maunoir 26,1207,Genf
Centre d' oncologie et d'hématologie (Bâtiment E),"Route de Chêne 110, 1224 Chêne-Bougeries",Genf,https://www.onedoc.ch/de/medizinisches-zentrum/chene-bougeries/es9p/centre-d-oncologie-et-d-hematologie-batiment-e,Route de Chêne 110,1224,Chêne-Bougeries
Centre médical 21,"Rue de Chantepoulet 21, 1201 Genf",Genf,https://www.onedoc.ch/de/medizinisches-zentrum/genf/es9v/centre-medical-21,Rue de Chantepoulet 21,1201,Genf
Centre Médical ARCHIMED NATIONS,"La Voie-Creuse 16, 1202 Genf",Genf,https://www.onedoc.ch/de/medizinisches-zentrum/genf/e70q/centre-medical-archimed-nations,La Voie-Creuse 16,1202,Genf
Centre médical Carteret,"Rue Antoine-Carteret 6, 1202 Genf",Genf,https://www.onedoc.ch/de/medizinisches-zentrum/genf/es92/centre-medical-carteret,Rue Antoine-Carteret 6,1202,Genf
Centre médical Chêne-Bourg,"Rue de Genève 20, 1225 Chêne-Bourg",Genf,https://www.onedoc.ch/de/medizinisches-zentrum/chene-bourg/etfx/centre-medical-chene-bourg,Rue de Genève 20,1225,Chêne-Bourg
Centre Médical Croix d'Or,"Rue de la Croix-d'Or 7, 1204 Genf",Genf,https://www.onedoc.ch/de/medizinisches-zentrum/genf/ebae1/centre-medical-croix-d-or,Rue de la Croix-d'Or 7,1204,Genf
Centre médical de Bernex,"Rue de Bernex 266, 1233 Bernex",Genf,https://www.onedoc.ch/de/medizinisches-zentrum/bernex/ekx/centre-medical-de-bernex,Rue de Bernex 266,1233,Bernex
Centre Médical de Cressy,"Route de Loëx 99, 1232 Confignon",Genf,https://www.onedoc.ch/de/medizinisches-zentrum/confignon/ed81/centre-medical-de-cressy,Route de Loëx 99,1232,Confignon
Centre Médical de La Chapelle,"Chemin de Compostelle 7, 1212 Lancy",Genf,https://www.onedoc.ch/de/medizinisches-zentrum/lancy/eqo1/centre-medical-de-la-chapelle,Chemin de Compostelle 7,1212,Lancy
Centre Médical de la Chapelle,"Chemin de Compostelle 7, 1212 Grand-Lancy",Genf,https://www.onedoc.ch/de/medizinisches-zentrum/grand-lancy/erc/centre-medical-de-la-chapelle,Chemin de Compostelle 7,1212,Grand-Lancy
Centre Médical de la Jonction,"Rue des Deux-Ponts 12, 1205 Genf",Genf,https://www.onedoc.ch/de/medizinisches-zentrum/genf/epyg/centre-medical-de-la-jonction,Rue des Deux-Ponts 12,1205,Genf
Centre médical de la Jonction,"Rue des Deux-Ponts 12, 1205 Genf",Genf,https://www.onedoc.ch/de/medizinisches-zentrum/genf/etnx/centre-medical-de-la-jonction,Rue des Deux-Ponts 12,1205,Genf
Centre Médical de Lancy,"Route de Chancy 59c, 1213 Onex",Genf,https://www.onedoc.ch/de/medizinisches-zentrum/onex/ees1/centre-medical-de-lancy,Route de Chancy 59c,1213,Onex
Centre Médical de la Rue de Lausanne,"Rue de Lausanne 80, 1202 Genf",Genf,https://www.onedoc.ch/de/medizinisches-zentrum/genf/epy7/centre-medical-de-la-rue-de-lausanne,Rue de Lausanne 80,1202,Genf
Centre Médical de la Servette,"Avenue De-Luserna 17, 1203 Genf",Genf,https://www.onedoc.ch/de/medizinisches-zentrum/genf/epv2/centre-medical-de-la-servette,Avenue De-Luserna 17,1203,Genf
Centre Médical de Meyrin / CMM,"Rue des Lattes 21b, 1217 Meyrin",Genf,https://www.onedoc.ch/de/medizinisches-zentrum/meyrin/ezu/centre-medical-de-meyrin-cmm,Rue des Lattes 21b,1217,Meyrin
Centre Médical de Plainpalais,"Rue de Carouge 24, 1205 Genf",Genf,https://www.onedoc.ch/de/medizinisches-zentrum/genf/ei0z/centre-medical-de-plainpalais,Rue de Carouge 24,1205,Genf
Centre médical de Pont-Rouge,"Place de Pont-Rouge 2, 1212 Lancy",Genf,https://www.onedoc.ch/de/medizinisches-zentrum/lancy/e1tw/centre-medical-de-pont-rouge,Place de Pont-Rouge 2,1212,Lancy
Centre médical de Rive,"Rue d'Italie 11, 1204 Genf",Genf,https://www.onedoc.ch/de/medizinisches-zentrum/genf/eyl/centre-medical-de-rive,Rue d'Italie 11,1204,Genf
Centre Médical des Acacias,"Rue des Epinettes 19, 1227 Carouge",Genf,https://www.onedoc.ch/de/medizinisches-zentrum/carouge/ees2/centre-medical-des-acacias,Rue des Epinettes 19,1227,Carouge
Centre Médical de Satigny,"Route d'Aire-la-Ville 215, 1242 Satigny",Genf,https://www.onedoc.ch/de/medizinisches-zentrum/satigny/epz4/centre-medical-de-satigny,Route d'Aire-la-Ville 215,1242,Satigny
Centre Médical des Charmilles,"Rue de Lyon 89-91, 1203 Genf",Genf,https://www.onedoc.ch/de/medizinisches-zentrum/genf/epy4/centre-medical-des-charmilles,Rue de Lyon 89-91,1203,Genf
Centre Médical des Charmilles,"Rue de Lyon 91, 1203 Genf",Genf,https://www.onedoc.ch/de/medizinisches-zentrum/genf/es7h/centre-medical-des-charmilles,Rue de Lyon 91,1203,Genf
"Centre Médical des Charmilles, Pédiatrie","Rue de Lyon 89, 1203 Genf",Genf,https://www.onedoc.ch/de/medizinisches-zentrum/genf/ete1/centre-medical-des-charmilles-pediatrie,Rue de Lyon 89,1203,Genf
Centre médical de Vésenaz,"Route de Thonon 42, 1222 Vésenaz",Genf,https://www.onedoc.ch/de/medizinisches-zentrum/vesenaz/es5x/centre-medical-de-vesenaz,Route de Thonon 42,1222,Vésenaz
Centre Médical du Grand-Lancy,"Avenue des Communes-Réunies 16, 1212 Grand-Lancy",Genf,https://www.onedoc.ch/de/medizinisches-zentrum/grand-lancy/es4r/centre-medical-du-grand-lancy,Avenue des Communes-Réunies 16,1212,Grand-Lancy
Centre Médical du Grand-Saconnex,"Rue Sonnex 23, 1218 Le Grand-Saconnex",Genf,https://www.onedoc.ch/de/medizinisches-zentrum/le-grand-saconnex/epy5/centre-medical-du-grand-saconnex,Rue Sonnex 23,1218,Le Grand-Saconnex
Centre Médical du Léman,"Rue Docteur-Alfred-Vincent 17, 1201 Genf",Genf,https://www.onedoc.ch/de/medizinisches-zentrum/genf/ebbzm/centre-medical-du-leman,Rue Docteur-Alfred-Vincent 17,1201,Genf
Centre Médical du Léman,"Rue Alfred-Vincent 17, 1201 Genf",Genf,https://www.onedoc.ch/de/medizinisches-zentrum/genf/ez1/centre-medical-du-leman,Rue Alfred-Vincent 17,1201,Genf
Centre Médical du Lignon,"Place du Lignon 2, 1219 Vernier",Genf,https://www.onedoc.ch/de/medizinisches-zentrum/vernier/ep2g/centre-medical-du-lignon,Place du Lignon 2,1219,Vernier
Centre médical du Lignon,"Place du Lignon 2, 1219 Le Lignon",Genf,https://www.onedoc.ch/de/medizinisches-zentrum/le-lignon/es40/centre-medical-du-lignon,Place du Lignon 2,1219,Le Lignon
Centre Médical et Sportif de Peillonnex,"Rue de Genève 67, 1225 Chêne-Bourg",Genf,https://www.onedoc.ch/de/medizinisches-zentrum/chene-bourg/etce/centre-medical-et-sportif-de-peillonnex,Rue de Genève 67,1225,Chêne-Bourg
Centre Médical Florissant,"Route de Florissant 70, 1206 Genf",Genf,https://www.onedoc.ch/de/medizinisches-zentrum/genf/etl0/centre-medical-florissant,Route de Florissant 70,1206,Genf
Centre Médical Meyrin Village - 2ème étage,"Chemin Antoine-Verchère 6, 1217 Meyrin",Genf,https://www.onedoc.ch/de/medizinisches-zentrum/meyrin/e88k/centre-medical-meyrin-village-2eme-etage,Chemin Antoine-Verchère 6,1217,Meyrin
Centre médical Opale,"Chemin de la Gravière 3, 1225 Chêne-Bourg",Genf,https://www.onedoc.ch/de/medizinisches-zentrum/chene-bourg/e23w/centre-medical-opale,Chemin de la Gravière 3,1225,Chêne-Bourg
Centre médical Qorpus-Hirslanden,"Avenue de la Gare des Eaux-Vives 28, 1208 Genf",Genf,https://www.onedoc.ch/de/medizinisches-zentrum/genf/e1ac/centre-medical-qorpus-hirslanden,Avenue de la Gare des Eaux-Vives 28,1208,Genf
Centre Médical TEOMERA,"Route de Ferney 194, 1218 Le Grand-Saconnex",Genf,https://www.onedoc.ch/de/medizinisches-zentrum/le-grand-saconnex/es41/centre-medical-teomera,Route de Ferney 194,1218,Le Grand-Saconnex
Centre médical Teomera | Grand-Saconnex,"Route de Ferney 194a, 1218 Le Grand-Saconnex",Genf,https://www.onedoc.ch/de/medizinisches-zentrum/le-grand-saconnex/ep8x/centre-medical-teomera-grand-saconnex,Route de Ferney 194a,1218,Le Grand-Saconnex
Centre Médical Tranchées Florissant / Centre Médical Terrassière,"Route de Florissant 1, 1206 Genf",Genf,https://www.onedoc.ch/de/medizinisches-zentrum/genf/ep1o/centre-medical-tranchees-florissant-centre-medical-terrassiere,Route de Florissant 1,1206,Genf
Centre Médico-Chirurgical,"Rue de Vermont 9A, 1202 Genf",Genf,https://www.onedoc.ch/de/medizinisches-zentrum/genf/es8m/centre-medico-chirurgical,Rue de Vermont 9A,1202,Genf
Centre Médico-Chirurgical de Cornavin,"Rue du Jura 1, 1201 Genf",Genf,https://www.onedoc.ch/de/medizinisches-zentrum/genf/ebw6/centre-medico-chirurgical-de-cornavin,Rue du Jura 1,1201,Genf
Centre médico-chirurgical des Eaux-Vives,"Avenue de la Gare-des- Eaux-Vives 3, 1207 Genf",Genf,https://www.onedoc.ch/de/medizinisches-zentrum/genf/ezy/centre-medico-chirurgical-des-eaux-vives,Avenue de la Gare-des- Eaux-Vives 3,1207,Genf
Centre Ophtalmologique Gare Cornavin,"Place de Cornavin 7, 1201 Genf",Genf,https://www.onedoc.ch/de/medizinisches-zentrum/genf/e19j/centre-ophtalmologique-gare-cornavin,Place de Cornavin 7,1201,Genf
"Centre Ophtalmologique, Lancy Pont-Rouge","Place de Pont-Rouge 5, 1212 Lancy",Genf,https://www.onedoc.ch/de/medizinisches-zentrum/lancy/e19l/centre-ophtalmologique-lancy-pont-rouge,Place de Pont-Rouge 5,1212,Lancy
Centre Ophtalmologique Meyrin Vergers,"Chemin de la Planche, 1217 Meyrin",Genf,https://www.onedoc.ch/de/medizinisches-zentrum/meyrin/e19k/centre-ophtalmologique-meyrin-vergers,Chemin de la Planche,1217,Meyrin
"Centre Ophtalmologique, Rive","Rue Pierre-Fatio 15, 1204 Genf",Genf,https://www.onedoc.ch/de/medizinisches-zentrum/genf/ebde/centre-ophtalmologique-rive,Rue Pierre-Fatio 15,1204,Genf
Centre Phénix Chêne,"Route de Chêne 100, 1224 Chêne-Bougeries",Genf,https://www.onedoc.ch/de/medizinisches-zentrum/chene-bougeries/ebxx/centre-phenix-chene,Route de Chêne 100,1224,Chêne-Bougeries
Cité Générations,"Route de Chancy 98, 1213 Onex",Genf,https://www.onedoc.ch/de/medizinisches-zentrum/onex/e1e2/cite-generations,Route de Chancy 98,1213,Onex
Clinique de Carouge,"Avenue Cardinal-Mermillod 1, 1227 Carouge",Genf,https://www.onedoc.ch/de/medizinisches-zentrum/carouge/ezw/clinique-de-carouge,Avenue Cardinal-Mermillod 1,1227,Carouge
Clinique de la Main - Genève,"Rue des Bains 35, 1205 Genf",Genf,https://www.onedoc.ch/de/medizinisches-zentrum/genf/eqjt/clinique-de-la-main-geneve,Rue des Bains 35,1205,Genf
Clinique de l'Oeil Genève,"Route de Chancy 59a, 1213 Petit-Lancy",Genf,https://www.onedoc.ch/de/medizinisches-zentrum/petit-lancy/ep4d/clinique-de-l-oeil-geneve,Route de Chancy 59a,1213,Petit-Lancy
Clinique du Seujet - Dermatologie,"Quai du Seujet 14, 1201 Genf",Genf,https://www.onedoc.ch/de/medizinisches-zentrum/genf/ebxo/clinique-du-seujet-dermatologie,Quai du Seujet 14,1201,Genf
Clinique et Permanence d'Onex,"Route de Chancy 98, 1213 Onex",Genf,https://www.onedoc.ch/de/medizinisches-zentrum/onex/eznv/clinique-et-permanence-d-onex,Route de Chancy 98,1213,Onex
Clinique Générale Beaulieu - Oncologie,"Chemin de Beau-Soleil 22, 1206 Genf",Genf,https://www.onedoc.ch/de/medizinisches-zentrum/genf/ezm6/clinique-generale-beaulieu-oncologie,Chemin de Beau-Soleil 22,1206,Genf
CMMA Centre Médical Multidisciplinaire,"Route de Pré-Bois 20, 1215 Meyrin",Genf,https://www.onedoc.ch/de/medizinisches-zentrum/meyrin/es9i/cmma-centre-medical-multidisciplinaire,Route de Pré-Bois 20,1215,Meyrin
CrosMed,"Avenue Jules-Crosnier 6, 1206 Genf",Genf,https://www.onedoc.ch/de/medizinisches-zentrum/genf/ezqo/crosmed,Avenue Jules-Crosnier 6,1206,Genf
DIP Office médico-pédagogique,"Rue David-Dufour 1, 1205 Genf",Genf,https://www.onedoc.ch/de/medizinisches-zentrum/genf/ebxu/dip-office-medico-pedagogique,Rue David-Dufour 1,1205,Genf
ECO Audition,"Rue de Lyon 89, 1203 Genf",Genf,https://www.onedoc.ch/de/medizinisches-zentrum/genf/ebej/eco-audition,Rue de Lyon 89,1203,Genf
Espace Périnatalité et Famille,"Chemin Edouard-Tavan 5, 1206 Genf",Genf,https://www.onedoc.ch/de/medizinisches-zentrum/genf/ebxk/espace-perinatalite-et-famille,Chemin Edouard-Tavan 5,1206,Genf
GENEVA MEDERI CLINIC,"Avenue de Champel 81, 1206 Genf",Genf,https://www.onedoc.ch/de/medizinisches-zentrum/genf/ebxi/geneva-mederi-clinic,Avenue de Champel 81,1206,Genf
Genève-Médecins,"Avenue du Cardinal-Mermillod 36, 1227 Carouge",Genf,https://www.onedoc.ch/de/medizinisches-zentrum/carouge/es8i/geneve-medecins,Avenue du Cardinal-Mermillod 36,1227,Carouge
GPL Garde Pédiatrique Lancy,"Route du Pont Butin 70, 1213 Petit-Lancy",Genf,https://www.onedoc.ch/de/medizinisches-zentrum/petit-lancy/eqcb/gpl-garde-pediatrique-lancy,Route du Pont Butin 70,1213,Petit-Lancy
Groupe Médical Avanchet-Parc Pédiatrie,"Rue du Grand Bay 15, 1220 Vernier",Genf,https://www.onedoc.ch/de/medizinisches-zentrum/vernier/etbm/groupe-medical-avanchet-parc-pediatrie,Rue du Grand Bay 15,1220,Vernier
Groupe Médical de Champel SA,"Avenue de Miremont 39, 1206 Genf",Genf,https://www.onedoc.ch/de/medizinisches-zentrum/genf/ebxf/groupe-medical-de-champel-sa,Avenue de Miremont 39,1206,Genf
Groupe Médical des Avanchets,"Rue du Grand Bay 15, 1220 Vernier",Genf,https://www.onedoc.ch/de/medizinisches-zentrum/vernier/ebw9/groupe-medical-des-avanchets,Rue du Grand Bay 15,1220,Vernier
Groupe médical du Petit Saconnex SA,"Chemin Moïse-Duboule 55, 1209 Genf",Genf,https://www.onedoc.ch/de/medizinisches-zentrum/genf/erv/groupe-medical-du-petit-saconnex-sa,Chemin Moïse-Duboule 55,1209,Genf
Groupe Médico Chirurgical,"Rue de Genève 97-99, 1226 Thônex",Genf,https://www.onedoc.ch/de/medizinisches-zentrum/thonex/es45/groupe-medico-chirurgical,Rue de Genève 97-99,1226,Thônex
Helvetic Care Champel-Malagnou,"Avenue Calas 1, 1206 Genf",Genf,https://www.onedoc.ch/de/medizinisches-zentrum/genf/etad/helvetic-care-champel-malagnou,Avenue Calas 1,1206,Genf
Laserdermato,"Route de Saint-Julien 118, 1228 Plan-les-Ouates",Genf,https://www.onedoc.ch/de/medizinisches-zentrum/plan-les-ouates/ebbn9/laserdermato,Route de Saint-Julien 118,1228,Plan-les-Ouates
Les Psy Réunis,"Route d'Hermance 2, 1222 Vésenaz",Genf,https://www.onedoc.ch/de/medizinisches-zentrum/vesenaz/ebxg/les-psy-reunis,Route d'Hermance 2,1222,Vésenaz
Medbase Genève Gare Cornavin,"Place de Cornavin 7, 1201 Genf",Genf,https://www.onedoc.ch/de/medizinisches-zentrum/genf/ece/medbase-geneve-gare-cornavin,Place de Cornavin 7,1201,Genf
Medical Center Notre Dame,"Rue Rousseau 38, 1201 Genf",Genf,https://www.onedoc.ch/de/medizinisches-zentrum/genf/e8n5/medical-center-notre-dame,Rue Rousseau 38,1201,Genf
Médicentre Balexert - Centre commercial de Balexert,"Avenue Louis-Casaï 27, 1209 Genf",Genf,https://www.onedoc.ch/de/medizinisches-zentrum/genf/ec0u/medicentre-balexert-centre-commercial-de-balexert,Avenue Louis-Casaï 27,1209,Genf
MEDISYN Genève Plainpalais,"Rond-Point de Plainpalais 5, 1205 Genf",Genf,https://www.onedoc.ch/de/medizinisches-zentrum/genf/e2iv/medisyn-geneve-plainpalais,Rond-Point de Plainpalais 5,1205,Genf
MV SANTE Clinique champel SA,"Avenue de Champel 42, 1206 Genf",Genf,https://www.onedoc.ch/de/medizinisches-zentrum/genf/ebxs/mv-sante-clinique-champel-sa,Avenue de Champel 42,1206,Genf
MV Santé Vision Genève,"Avenue de Champel 42, 1206 Genf",Genf,https://www.onedoc.ch/de/medizinisches-zentrum/genf/eyox/mv-sante-vision-geneve,Avenue de Champel 42,1206,Genf
OfficeMed | Centre Médical Georges-Favon,"Rue des Marbriers 4, 1204 Genf",Genf,https://www.onedoc.ch/de/medizinisches-zentrum/genf/eqi9/officemed-centre-medical-georges-favon,Rue des Marbriers 4,1204,Genf
PhysioReflex Carouge,"Avenue de la Praille 37, 1227 Carouge",Genf,https://www.onedoc.ch/de/medizinisches-zentrum/carouge/e78z/physioreflex-carouge,Avenue de la Praille 37,1227,Carouge
Pôle Santé - Centre Médical de l’Étang,"Allée des Roseaux 6, 1219 Vernier",Genf,https://www.onedoc.ch/de/medizinisches-zentrum/vernier/e81c/pole-sante-centre-medical-de-l-etang,Allée des Roseaux 6,1219,Vernier
SamK NurseCare,"Place de Cornavin, 1201 Genf",Genf,https://www.onedoc.ch/de/medizinisches-zentrum/genf/ebb0h/samk-nursecare,Place de Cornavin,1201,Genf
Skinpulse Dermatology Center,"Rond-Point de Plainpalais 5, 1205 Genf",Genf,https://www.onedoc.ch/de/medizinisches-zentrum/genf/ebxt/skinpulse-dermatology-center,Rond-Point de Plainpalais 5,1205,Genf
SOS Médecins Cité Calvin,"Rue Louis-Favre 43, 1201 Genf",Genf,https://www.onedoc.ch/de/medizinisches-zentrum/genf/es7a/sos-medecins-cite-calvin,Rue Louis-Favre 43,1201,Genf
Swiss International Health Center SA,"Rue de Chantepoulet 25, 1201 Genf",Genf,https://www.onedoc.ch/de/medizinisches-zentrum/genf/ep8b/swiss-international-health-center-sa,Rue de Chantepoulet 25,1201,Genf
Urocentre,"Rue de Rive 3, 1204 Genf",Genf,https://www.onedoc.ch/de/medizinisches-zentrum/genf/ebarn/urocentre,Rue de Rive 3,1204,Genf
Vein Clinic,"Avenue de Champel 24, 1206 Genf",Genf,https://www.onedoc.ch/de/medizinisches-zentrum/genf/ebbzz/vein-clinic,Avenue de Champel 24,1206,Genf
Vision Laser,"Place de la Gare 1, 1225 Chêne-Bourg",Genf,https://www.onedoc.ch/de/medizinisches-zentrum/chene-bourg/ebxh/vision-laser,Place de la Gare 1,1225,Chêne-Bourg
Adobes,"Chemin du Centenaire 5, 1008 Prilly",Waadt,https://www.onedoc.ch/de/medizinisches-zentrum/prilly/e0kk/adobes,Chemin du Centenaire 5,1008,Prilly
AVENTIMED - Centre médical Avenchois,"Route d'Oleyres 2, 1580 Avenches",Waadt,https://www.onedoc.ch/de/medizinisches-zentrum/avenches/eeoh/aventimed-centre-medical-avenchois,Route d'Oleyres 2,1580,Avenches
Aventimed – Centre médical Avenchois,"Route du Pré-Vert 5b, 1580 Avenches",Waadt,https://www.onedoc.ch/de/medizinisches-zentrum/avenches/e7pe/aventimed-centre-medical-avenchois,Route du Pré-Vert 5b,1580,Avenches
Cabinet de groupe Avenue du Théâtre 7,"Avenue du Théâtre 7, 1005 Lausanne",Waadt,https://www.onedoc.ch/de/medizinisches-zentrum/lausanne/evls/cabinet-de-groupe-avenue-du-theatre-7,Avenue du Théâtre 7,1005,Lausanne
Cabinet de groupe Dr. Bernard-Bagattini / Dr. Medinger / Dr. Tanner-Sahli,"Rue des Remparts 18, 1400 Yverdon-les-Bains",Waadt,https://www.onedoc.ch/de/medizinisches-zentrum/yverdon-les-bains/ecxf/cabinet-de-groupe-dr-bernard-bagattini-dr-medinger-dr-tanner-sahli,Rue des Remparts 18,1400,Yverdon-les-Bains
Cabinet de groupe Dr. Birchmeier / Dr. Widmer,"Avenue Juste-Olivier 2, 1006 Lausanne",Waadt,https://www.onedoc.ch/de/medizinisches-zentrum/lausanne/e0ns/cabinet-de-groupe-dr-birchmeier-dr-widmer,Avenue Juste-Olivier 2,1006,Lausanne
Cabinet de groupe Dr. Favre / Dr. Mizan,"Route de Lausanne 16, 1052 Le Mont-sur-Lausanne",Waadt,https://www.onedoc.ch/de/medizinisches-zentrum/le-mont-sur-lausanne/e0l3/cabinet-de-groupe-dr-favre-dr-mizan,Route de Lausanne 16,1052,Le Mont-sur-Lausanne
Cabinet de groupe Dr. Francillon / Dr. Gaillard / Dr. Hungerbühler,"Rue d'Orbe 27, 1400 Yverdon-les-Bains",Waadt,https://www.onedoc.ch/de/medizinisches-zentrum/yverdon-les-bains/eb4z/cabinet-de-groupe-dr-francillon-dr-gaillard-dr-hungerbuhler,Rue d'Orbe 27,1400,Yverdon-les-Bains
Cabinet de groupe Dr. Jolidon / Dr. Schlaefli,"Rue des Remparts 18, 1400 Yverdon-les-Bains",Waadt,https://www.onedoc.ch/de/medizinisches-zentrum/yverdon-les-bains/e0or/cabinet-de-groupe-dr-jolidon-dr-schlaefli,Rue des Remparts 18,1400,Yverdon-les-Bains
Cabinet de groupe Dr. Lapointe / Dr. Liardet,"Avenue du Théâtre 7, 1005 Lausanne",Waadt,https://www.onedoc.ch/de/medizinisches-zentrum/lausanne/e0lv/cabinet-de-groupe-dr-lapointe-dr-liardet,Avenue du Théâtre 7,1005,Lausanne
Cabinet de groupe Dr. Mialon / Dr. Reinhardt Owlya,"Rue du Grand-Pont 10, 1003 Lausanne",Waadt,https://www.onedoc.ch/de/medizinisches-zentrum/lausanne/e0l1/cabinet-de-groupe-dr-mialon-dr-reinhardt-owlya,Rue du Grand-Pont 10,1003,Lausanne
Cabinet de gynécologie et obstétrique - Drs Taramarcaz,"Chemin de la Batelière 4, 1007 Lausanne",Waadt,https://www.onedoc.ch/de/medizinisches-zentrum/lausanne/e0mt/cabinet-de-gynecologie-et-obstetrique-drs-taramarcaz,Chemin de la Batelière 4,1007,Lausanne
Cabinet de la Dre Yanka Kostova,"Chemin des Chézeaux 14, 1424 Champagne",Waadt,https://www.onedoc.ch/de/medizinisches-zentrum/champagne/ebapm/cabinet-de-la-dre-yanka-kostova,Chemin des Chézeaux 14,1424,Champagne
Cabinet de Massothérapie St-Livres,"Rue Saint-Laurent 3, 1176 Saint-Livres",Waadt,https://www.onedoc.ch/de/medizinisches-zentrum/saint-livres/ep3f/cabinet-de-massotherapie-st-livres,Rue Saint-Laurent 3,1176,Saint-Livres
Cabinet de Neurologie - Dr. med. Lettry Trouillat Renée et Dr. med. Bill Olivier,"Chemin du Joran 8b , 1260 Nyon",Waadt,https://www.onedoc.ch/de/medizinisches-zentrum/nyon/e0lw/cabinet-de-neurologie-dr-med-lettry-trouillat-renee-et-dr-med-bill-olivier,Chemin du Joran 8b,1260,Nyon
Cabinet Dr. Loiret-Bernal Cédric,"Avenue Centrale 104, 1885 Chesières",Waadt,https://www.onedoc.ch/de/medizinisches-zentrum/chesieres/ev13/cabinet-dr-loiret-bernal-cedric,Avenue Centrale 104,1885,Chesières
Cabinet Dr. med. Gropetti Gwénaël + Dr. med. Atrash Sylvain,"Grand' Rue 62, 1820 Montreux",Waadt,https://www.onedoc.ch/de/medizinisches-zentrum/montreux/e0on/cabinet-dr-med-gropetti-gwenael-dr-med-atrash-sylvain,Grand' Rue 62,1820,Montreux
Cabinet Dr. med. Inoubli Le Roy Sarra et Dr. med. Vuadens-Lehmann Alyssa,"Rue Neuve 6, 1260 Nyon",Waadt,https://www.onedoc.ch/de/medizinisches-zentrum/nyon/e0lp/cabinet-dr-med-inoubli-le-roy-sarra-et-dr-med-vuadens-lehmann-alyssa,Rue Neuve 6,1260,Nyon
Cabinet Dr med. Nicod Laurent + Dr. med. Pérez Valdés Carlos,"Chemin des Croix-Rouges 5, 1007 Lausanne",Waadt,https://www.onedoc.ch/de/medizinisches-zentrum/lausanne/e0o8/cabinet-dr-med-nicod-laurent-dr-med-perez-valdes-carlos,Chemin des Croix-Rouges 5,1007,Lausanne
Cabinet Dr. Moeri Roland,"Route de Chavannes 11, 1007 Lausanne",Waadt,https://www.onedoc.ch/de/medizinisches-zentrum/lausanne/ev2w/cabinet-dr-moeri-roland,Route de Chavannes 11,1007,Lausanne
Cabinet du Dr Gilles Herren,"Route du Muids 3, 1272 Genolier",Waadt,https://www.onedoc.ch/de/medizinisches-zentrum/genolier/ebaqd/cabinet-du-dr-gilles-herren,Route du Muids 3,1272,Genolier
Cabinet du Dr. Mivelaz - Centre médical d'Epalinges,"Route de la Corniche 1, 1066 Epalinges",Waadt,https://www.onedoc.ch/de/medizinisches-zentrum/epalinges/eqa3/cabinet-du-dr-mivelaz-centre-medical-d-epalinges,Route de la Corniche 1,1066,Epalinges
Cabinet médical de Cugy,"Route de Lausanne 13, 1053 Cugy VD",Waadt,https://www.onedoc.ch/de/medizinisches-zentrum/cugy/eb8z/cabinet-medical-de-cugy,Route de Lausanne 13,1053,Cugy VD
Cabinet Médical du Chêne,"Rue du Collège 16, 1410 Thierrens",Waadt,https://www.onedoc.ch/de/medizinisches-zentrum/thierrens/evlv/cabinet-medical-du-chene,Rue du Collège 16,1410,Thierrens
Centre Ados Riviera,"Rue de la Gare 13, 1820 Montreux",Waadt,https://www.onedoc.ch/de/medizinisches-zentrum/montreux/efv1/centre-ados-riviera,Rue de la Gare 13,1820,Montreux
Centre Clinimed Lausanne | Médecine générale,"Rue Marterey 7, 1005 Lausanne",Waadt,https://www.onedoc.ch/de/medizinisches-zentrum/lausanne/e81z/centre-clinimed-lausanne-medecine-generale,Rue Marterey 7,1005,Lausanne
Centre de l'Oeil - Aigle,"Rue du Bourg 11, 1860 Aigle",Waadt,https://www.onedoc.ch/de/medizinisches-zentrum/aigle/e5g8/centre-de-l-oeil-aigle,Rue du Bourg 11,1860,Aigle
Centre de l'Oeil - Cheseaux,"Route de Lausanne 9, 1033 Cheseaux-sur-Lausanne",Waadt,https://www.onedoc.ch/de/medizinisches-zentrum/cheseaux-sur-lausanne/e5g6/centre-de-l-oeil-cheseaux,Route de Lausanne 9,1033,Cheseaux-sur-Lausanne
Centre de l'Oeil - Lausanne,"Place de la Gare 4, 1003 Lausanne",Waadt,https://www.onedoc.ch/de/medizinisches-zentrum/lausanne/e5g5/centre-de-l-oeil-lausanne,Place de la Gare 4,1003,Lausanne
Centre de l'Oeil - Montreux,"Rue du Quai 1, 1820 Montreux",Waadt,https://www.onedoc.ch/de/medizinisches-zentrum/montreux/e5g9/centre-de-l-oeil-montreux,Rue du Quai 1,1820,Montreux
Centre de l'Oeil - Renens,"Rue du Midi 15, 1020 Renens",Waadt,https://www.onedoc.ch/de/medizinisches-zentrum/renens/e5g7/centre-de-l-oeil-renens,Rue du Midi 15,1020,Renens
Centre de neurologie,"Chemin de la Brume 2, 1110 Morges",Waadt,https://www.onedoc.ch/de/medizinisches-zentrum/morges/ebb05/centre-de-neurologie,Chemin de la Brume 2,1110,Morges
Centre de soins ambulatoires pédiatriques - USAP,"Route de Chavannes 9, 1007 Lausanne",Waadt,https://www.onedoc.ch/de/medizinisches-zentrum/lausanne/ebbic/centre-de-soins-ambulatoires-pediatriques-usap,Route de Chavannes 9,1007,Lausanne
Centre des Pâquis,"Rue Henry-Dunant 20, 1110 Morges",Waadt,https://www.onedoc.ch/de/medizinisches-zentrum/morges/ebaz2/centre-des-paquis,Rue Henry-Dunant 20,1110,Morges
Centre de vaccination itinérant,"Chemin du Crêt 2, 1110 Morges",Waadt,https://www.onedoc.ch/de/medizinisches-zentrum/morges/e7oa/centre-de-vaccination-itinerant,Chemin du Crêt 2,1110,Morges
Centre La Lignière - Crissier,"Chemin des Lentillières 1a, 1023 Crissier",Waadt,https://www.onedoc.ch/de/medizinisches-zentrum/crissier/e7fd/centre-la-ligniere-crissier,Chemin des Lentillières 1a,1023,Crissier
Centre médical Arcades EPFL,"Route Louis-Favre 6a, 1024 Ecublens VD",Waadt,https://www.onedoc.ch/de/medizinisches-zentrum/ecublens/evmp/centre-medical-arcades-epfl,Route Louis-Favre 6a,1024,Ecublens VD
Centre Médical Aubonne,"Rue de Trévelin 67, 1170 Aubonne",Waadt,https://www.onedoc.ch/de/medizinisches-zentrum/aubonne/evn6/centre-medical-aubonne,Rue de Trévelin 67,1170,Aubonne
Centre médical Charpentiers,"Rue Centrale 24, 1110 Morges",Waadt,https://www.onedoc.ch/de/medizinisches-zentrum/morges/evja/centre-medical-charpentiers,Rue Centrale 24,1110,Morges
Centre médical d'Aubonne,"Rue de Trévelin 67, 1170 Aubonne",Waadt,https://www.onedoc.ch/de/medizinisches-zentrum/aubonne/ebaz0/centre-medical-d-aubonne,Rue de Trévelin 67,1170,Aubonne
Centre Médical de Crissier Arsanté,"Chemin des Lentillières 1a, 1023 Crissier",Waadt,https://www.onedoc.ch/de/medizinisches-zentrum/crissier/e492/centre-medical-de-crissier-arsante,Chemin des Lentillières 1a,1023,Crissier
Centre Médical de Gland,"Allée du Communet 20, 1196 Gland",Waadt,https://www.onedoc.ch/de/medizinisches-zentrum/gland/evzw/centre-medical-de-gland,Allée du Communet 20,1196,Gland
Centre médical de la Source,"Avenue Alexandre-Vinet 30, 1004 Lausanne",Waadt,https://www.onedoc.ch/de/medizinisches-zentrum/lausanne/evp8/centre-medical-de-la-source,Avenue Alexandre-Vinet 30,1004,Lausanne
Centre médical de Lucens,"Avenue de la Vignette 10, 1522 Lucens",Waadt,https://www.onedoc.ch/de/medizinisches-zentrum/lucens/evm0/centre-medical-de-lucens,Avenue de la Vignette 10,1522,Lucens
Centre médical de Morges,"Rue de la Gare 15, 1110 Morges",Waadt,https://www.onedoc.ch/de/medizinisches-zentrum/morges/evns/centre-medical-de-morges,Rue de la Gare 15,1110,Morges
Centre médical de pédiatrie,"Route de Cossonay 14F, 1040 Echallens",Waadt,https://www.onedoc.ch/de/medizinisches-zentrum/echallens/evs5/centre-medical-de-pediatrie,Route de Cossonay 14F,1040,Echallens
Centre Médical de Renens,"Avenue du 14 Avril 12, 1020 Renens",Waadt,https://www.onedoc.ch/de/medizinisches-zentrum/renens/evwr/centre-medical-de-renens,Avenue du 14 Avril 12,1020,Renens
Centre Médical des Diablerets,"Chemin du Torrent 2, 1865 Les Diablerets",Waadt,https://www.onedoc.ch/de/medizinisches-zentrum/les-diablerets/evsh/centre-medical-des-diablerets,Chemin du Torrent 2,1865,Les Diablerets
Centre médical de Vidy,"Route de Chavannes 11, 1007 Lausanne",Waadt,https://www.onedoc.ch/de/medizinisches-zentrum/lausanne/e11o/centre-medical-de-vidy,Route de Chavannes 11,1007,Lausanne
Centre Médical de Vidy (Groupe Vidy-Med),"Route de Chavannes 9, 1007 Lausanne",Waadt,https://www.onedoc.ch/de/medizinisches-zentrum/lausanne/et9b/centre-medical-de-vidy-groupe-vidy-med,Route de Chavannes 9,1007,Lausanne
Centre médical du Fey,"Chemin Champ-du-Gour 11, 1510 Moudon",Waadt,https://www.onedoc.ch/de/medizinisches-zentrum/moudon/evjf/centre-medical-du-fey,Chemin Champ-du-Gour 11,1510,Moudon
Centre Médical du Lac,"Route Suisse 35, 1196 Gland",Waadt,https://www.onedoc.ch/de/medizinisches-zentrum/gland/e779/centre-medical-du-lac,Route Suisse 35,1196,Gland
Centre médical du Simplon,"Rue du Simplon 32A, 1020 Renens",Waadt,https://www.onedoc.ch/de/medizinisches-zentrum/renens/ebbud/centre-medical-du-simplon,Rue du Simplon 32A,1020,Renens
Centre médical du Simplon,"Rue du Simplon 32A, 1020 Renens",Waadt,https://www.onedoc.ch/de/medizinisches-zentrum/renens/evvv/centre-medical-du-simplon,Rue du Simplon 32A,1020,Renens
Centre médical d'Yverdon,"Rue des Remparts 6, 1400 Yverdon-les-Bains",Waadt,https://www.onedoc.ch/de/medizinisches-zentrum/yverdon-les-bains/evpt/centre-medical-d-yverdon,Rue des Remparts 6,1400,Yverdon-les-Bains
Centre médical Epalinges,"Route de la Corniche 1, 1066 Epalinges",Waadt,https://www.onedoc.ch/de/medizinisches-zentrum/epalinges/e38i/centre-medical-epalinges,Route de la Corniche 1,1066,Epalinges
Centre médical Gare de Vevey,"Place de la Gare 3, 1800 Vevey",Waadt,https://www.onedoc.ch/de/medizinisches-zentrum/vevey/ebaqg/centre-medical-gare-de-vevey,Place de la Gare 3,1800,Vevey
Centre Médical La Lignière - Gland,"La Lignière 5, 1196 Gland",Waadt,https://www.onedoc.ch/de/medizinisches-zentrum/gland/ebbcy/centre-medical-la-ligniere-gland,La Lignière 5,1196,Gland
Centre Médical Lausanne Ouest - CMLO,"Route de Renens 24, 1008 Prilly",Waadt,https://www.onedoc.ch/de/medizinisches-zentrum/prilly/ep7d/centre-medical-lausanne-ouest-cmlo,Route de Renens 24,1008,Prilly
Centre Médical Montchoisi,"Chemin des Allinges 16bis, 1006 Lausanne",Waadt,https://www.onedoc.ch/de/medizinisches-zentrum/lausanne/evs0/centre-medical-montchoisi,Chemin des Allinges 16bis,1006,Lausanne
Centre médical Nord-Sud,"Rue du Jura 2, 1023 Crissier",Waadt,https://www.onedoc.ch/de/medizinisches-zentrum/crissier/e959/centre-medical-nord-sud,Rue du Jura 2,1023,Crissier
Centre Médical Vevey,"Rue du Simplon 11, 1800 Vevey",Waadt,https://www.onedoc.ch/de/medizinisches-zentrum/vevey/e08c/centre-medical-vevey,Rue du Simplon 11,1800,Vevey
Centre Médical Viviscum,"Rue des Communaux 4, 1800 Vevey",Waadt,https://www.onedoc.ch/de/medizinisches-zentrum/vevey/ev0z/centre-medical-viviscum,Rue des Communaux 4,1800,Vevey
Centre médico-chirurgical Censuy,"Avenue du Censuy 14, 1020 Renens",Waadt,https://www.onedoc.ch/de/medizinisches-zentrum/renens/evki/centre-medico-chirurgical-censuy,Avenue du Censuy 14,1020,Renens
Centre médico-chirurgical du Censuy,"Avenue du Censuy 14, 1020 Renens",Waadt,https://www.onedoc.ch/de/medizinisches-zentrum/renens/eba2r/centre-medico-chirurgical-du-censuy,Avenue du Censuy 14,1020,Renens
Centre Orthopédique d'Ouchy,"Avenue d'Ouchy 41, 1006 Lausanne",Waadt,https://www.onedoc.ch/de/medizinisches-zentrum/lausanne/etj5/centre-orthopedique-d-ouchy,Avenue d'Ouchy 41,1006,Lausanne
Cires médical,"Rue de la Madeleine 39, 1800 Vevey",Waadt,https://www.onedoc.ch/de/medizinisches-zentrum/vevey/evzb/cires-medical,Rue de la Madeleine 39,1800,Vevey
Clinique CIC,"Rue du Grammont 2, 1815 Clarens",Waadt,https://www.onedoc.ch/de/medizinisches-zentrum/clarens/evmq/clinique-cic,Rue du Grammont 2,1815,Clarens
Clinique de Genolier,"Route du Muids 3, 1272 Genolier",Waadt,https://www.onedoc.ch/de/medizinisches-zentrum/genolier/e0mv/clinique-de-genolier,Route du Muids 3,1272,Genolier
CMCB Centre Médico-Chirurgical de la Broye,"Rue de Guillermaux 8, 1530 Payerne",Waadt,https://www.onedoc.ch/de/medizinisches-zentrum/payerne/etlm/cmcb-centre-medico-chirurgical-de-la-broye,Rue de Guillermaux 8,1530,Payerne
CMC OPHTA LEMAN CLARENS,"Rue du Grammont 2, 1815 Montreux",Waadt,https://www.onedoc.ch/de/medizinisches-zentrum/montreux/e2xf/cmc-ophta-leman-clarens,Rue du Grammont 2,1815,Montreux
CPMA - Centre de Procréation,"Rue de la Vigie 5, 1003 Lausanne",Waadt,https://www.onedoc.ch/de/medizinisches-zentrum/lausanne/evlr/cpma-centre-de-procreation,Rue de la Vigie 5,1003,Lausanne
EHC - Permanence des Halles,"Promenade de Castellane 14, 1110 Morges",Waadt,https://www.onedoc.ch/de/medizinisches-zentrum/morges/ebbd3/ehc-permanence-des-halles,Promenade de Castellane 14,1110,Morges
EquYlibre - EHNV,"Avenue des Trois-Lacs 24, 1400 Yverdon-les-Bains",Waadt,https://www.onedoc.ch/de/medizinisches-zentrum/yverdon-les-bains/ebbef/equylibre-ehnv,Avenue des Trois-Lacs 24,1400,Yverdon-les-Bains
Génétique médicale FMH et FAMH,"Rue de la Vigie 5, 1003 Lausanne",Waadt,https://www.onedoc.ch/de/medizinisches-zentrum/lausanne/e1t7/genetique-medicale-fmh-et-famh,Rue de la Vigie 5,1003,Lausanne
Groupe Médical de Praz-Palud,"Rue de Lausanne 14 A, 1040 Echallens",Waadt,https://www.onedoc.ch/de/medizinisches-zentrum/echallens/evqv/groupe-medical-de-praz-palud,Rue de Lausanne 14 A,1040,Echallens
Groupe Médical Viva,"Grand-Rue 80, 1820 Montreux",Waadt,https://www.onedoc.ch/de/medizinisches-zentrum/montreux/e0nz/groupe-medical-viva,Grand-Rue 80,1820,Montreux
La Permanence d'Y-Parc,"Avenue des Sciences 2, 1400 Yverdon-les-Bains",Waadt,https://www.onedoc.ch/de/medizinisches-zentrum/yverdon-les-bains/evm8/la-permanence-d-y-parc,Avenue des Sciences 2,1400,Yverdon-les-Bains
Lutrymed,"Rue Verdaine 8A, 1095 Lutry",Waadt,https://www.onedoc.ch/de/medizinisches-zentrum/lutry/evow/lutrymed,Rue Verdaine 8A,1095,Lutry
Maison de Santé de Pully,"Chemin du Pré-de-la-Tour 10, 1009 Pully",Waadt,https://www.onedoc.ch/de/medizinisches-zentrum/pully/ebakw/maison-de-sante-de-pully,Chemin du Pré-de-la-Tour 10,1009,Pully
Maison médicale de Gland,"Allée du Communet 20, 1196 Gland",Waadt,https://www.onedoc.ch/de/medizinisches-zentrum/gland/epv1/maison-medicale-de-gland,Allée du Communet 20,1196,Gland
Maison médicale de Renens,"Avenue du Quatorze-Avril 12, 1020 Renens",Waadt,https://www.onedoc.ch/de/medizinisches-zentrum/renens/eeq4/maison-medicale-de-renens,Avenue du Quatorze-Avril 12,1020,Renens
Maison Toa,"Voie du Chariot 6, 1003 Lausanne",Waadt,https://www.onedoc.ch/de/medizinisches-zentrum/lausanne/e7uc/maison-toa,Voie du Chariot 6,1003,Lausanne
Medbase Lausanne Gare,"Place de la Gare 11a, 1003 Lausanne",Waadt,https://www.onedoc.ch/de/medizinisches-zentrum/lausanne/eqq4/medbase-lausanne-gare,Place de la Gare 11a,1003,Lausanne
Medbase Vevey,"Rue des Moulins 1, 1800 Vevey",Waadt,https://www.onedoc.ch/de/medizinisches-zentrum/vevey/eqq5/medbase-vevey,Rue des Moulins 1,1800,Vevey
MedFlon - Centre Médical du Flon,"Rue de Genève 19, 1003 Lausanne",Waadt,https://www.onedoc.ch/de/medizinisches-zentrum/lausanne/e92o/medflon-centre-medical-du-flon,Rue de Genève 19,1003,Lausanne
Médic'Aigle,"Place du Centenaire 3, 1860 Aigle",Waadt,https://www.onedoc.ch/de/medizinisches-zentrum/aigle/eviw/medic-aigle,Place du Centenaire 3,1860,Aigle
MEDISYN Centre de prélèvement Lausanne,"Chemin d'Entre-Bois 21, 1018 Lausanne",Waadt,https://www.onedoc.ch/de/medizinisches-zentrum/lausanne/e2ix/medisyn-centre-de-prelevement-lausanne,Chemin d'Entre-Bois 21,1018,Lausanne
"MotionLab - Espace Santé Valerette, Aigle","Chemin de la Valerette 1, 1860 Aigle",Waadt,https://www.onedoc.ch/de/medizinisches-zentrum/aigle/e67f/motionlab-espace-sante-valerette-aigle,Chemin de la Valerette 1,1860,Aigle
MotionLab - Mont-sur-Lausanne,"Chemin du Petit-Flon 29, 1052 Le Mont-sur-Lausanne",Waadt,https://www.onedoc.ch/de/medizinisches-zentrum/le-mont-sur-lausanne/ela3/motionlab-mont-sur-lausanne,Chemin du Petit-Flon 29,1052,Le Mont-sur-Lausanne
MV Santé Vision Lausanne - Avenue de Beaumont,"Avenue de Beaumont 24c, 1012 Lausanne",Waadt,https://www.onedoc.ch/de/medizinisches-zentrum/lausanne/eyov/mv-sante-vision-lausanne-avenue-de-beaumont,Avenue de Beaumont 24c,1012,Lausanne
PBM Center,"Grand' Rue 3, 1820 Montreux",Waadt,https://www.onedoc.ch/de/medizinisches-zentrum/montreux/ebacs/pbm-center,Grand' Rue 3,1820,Montreux
PMC Riviera,"Rue du Grammont 2, 1815 Clarens",Waadt,https://www.onedoc.ch/de/medizinisches-zentrum/clarens/e6jj/pmc-riviera,Rue du Grammont 2,1815,Clarens
ProctoCentre,"Rue Saint-Germain 2, 1030 Bussigny",Waadt,https://www.onedoc.ch/de/medizinisches-zentrum/bussigny/e11t/proctocentre,Rue Saint-Germain 2,1030,Bussigny
Quai Santé,"Avenue des Alpes 74, 1820 Montreux",Waadt,https://www.onedoc.ch/de/medizinisches-zentrum/montreux/evp4/quai-sante,Avenue des Alpes 74,1820,Montreux
Swiss Visio Genolier,"Route du Muids 3, 1272 Genolier",Waadt,https://www.onedoc.ch/de/medizinisches-zentrum/genolier/e08n/swiss-visio-genolier,Route du Muids 3,1272,Genolier
Swiss Visio Montchoisi,"Avenue du Servan 38, 1006 Lausanne",Waadt,https://www.onedoc.ch/de/medizinisches-zentrum/lausanne/eqp0/swiss-visio-montchoisi,Avenue du Servan 38,1006,Lausanne
Swiss Visio - Test d'éligibilité,"Route du Muids 5, 1272 Genolier",Waadt,https://www.onedoc.ch/de/medizinisches-zentrum/genolier/ebaz3/swiss-visio-test-d-eligibilite,Route du Muids 5,1272,Genolier
Swiss Wound Center,"La Levratte 26, 1260 Nyon",Waadt,https://www.onedoc.ch/de/medizinisches-zentrum/nyon/e1lk/swiss-wound-center,La Levratte 26,1260,Nyon
Y-Vision,"Avenue des Trois-Lacs 24, 1400 Yverdon-les-Bains",Waadt,https://www.onedoc.ch/de/medizinisches-zentrum/yverdon-les-bains/e8og/y-vision,Avenue des Trois-Lacs 24,1400,Yverdon-les-Bains
Aerztezentrum Interlaken,"Florastrasse 9, 3800 Interlaken",Bern,https://www.onedoc.ch/de/medizinisches-zentrum/interlaken/ersx/aerztezentrum-interlaken,Florastrasse 9,3800,Interlaken
Ärztezentrum Attiswil - Wiedlisbach,"Oeleweg 3, 4537 Wiedlisbach",Bern,https://www.onedoc.ch/de/medizinisches-zentrum/wiedlisbach/er76/arztezentrum-attiswil-wiedlisbach,Oeleweg 3,4537,Wiedlisbach
Ärztezentrum Burg,"Schmiedengasse 1, 2502 Biel",Bern,https://www.onedoc.ch/de/medizinisches-zentrum/biel/er0e/arztezentrum-burg,Schmiedengasse 1,2502,Biel
ÄrzteZentrum Eigerpark,"Eigerweg 4, 3322 Urtenen-Schönbühl",Bern,https://www.onedoc.ch/de/medizinisches-zentrum/urtenen-schonbuhl/esv6/arztezentrum-eigerpark,Eigerweg 4,3322,Urtenen-Schönbühl
Ärztezentrum Emmentalstrasse,"Emmentalstrasse 17, 3510 Konolfingen",Bern,https://www.onedoc.ch/de/medizinisches-zentrum/konolfingen/erv3/arztezentrum-emmentalstrasse,Emmentalstrasse 17,3510,Konolfingen
Ärztezentrum Jegenstorf,"Bernstrasse 12, 3303 Jegenstorf",Bern,https://www.onedoc.ch/de/medizinisches-zentrum/jegenstorf/er51/arztezentrum-jegenstorf,Bernstrasse 12,3303,Jegenstorf
Ärztezentrum Oberdiessbach,"Krankenhausstrasse 14, 3672 Oberdiessbach",Bern,https://www.onedoc.ch/de/medizinisches-zentrum/oberdiessbach/erst/arztezentrum-oberdiessbach,Krankenhausstrasse 14,3672,Oberdiessbach
Ärztezentrum Oberhasli,"Spitalstrasse 13, 3860 Rosenlaui",Bern,https://www.onedoc.ch/de/medizinisches-zentrum/rosenlaui/erps/arztezentrum-oberhasli,Spitalstrasse 13,3860,Rosenlaui
Ärztezentrum Pieterlen,"Konsumweg 8, 2542 Pieterlen",Bern,https://www.onedoc.ch/de/medizinisches-zentrum/pieterlen/er1q/arztezentrum-pieterlen,Konsumweg 8,2542,Pieterlen
Ärztezentrum Praxis1,"Bahnhofplatz 1, 3110 Münsingen",Bern,https://www.onedoc.ch/de/medizinisches-zentrum/munsingen/ervw/arztezentrum-praxis1,Bahnhofplatz 1,3110,Münsingen
"Ärztezentrum Seehof, Mensch & Medizin","Staatsstrasse 16, 3652 Hilterfingen",Bern,https://www.onedoc.ch/de/medizinisches-zentrum/hilterfingen/esel/arztezentrum-seehof-mensch-medizin,Staatsstrasse 16,3652,Hilterfingen
Ärztezentrum Studen,"Schaftenholzweg 10, 2557 Studen",Bern,https://www.onedoc.ch/de/medizinisches-zentrum/studen/erto/arztezentrum-studen,Schaftenholzweg 10,2557,Studen
Ärztezentrum Südbahnhof,"Chutzenstrasse 24, 3007 Bern",Bern,https://www.onedoc.ch/de/medizinisches-zentrum/bern/er93/arztezentrum-sudbahnhof,Chutzenstrasse 24,3007,Bern
Arztpraxis Stattmattehuus,"Adelbodenstrasse 29, 3714 Frutigen",Bern,https://www.onedoc.ch/de/medizinisches-zentrum/frutigen/er6q/arztpraxis-stattmattehuus,Adelbodenstrasse 29,3714,Frutigen
Augenärzte Bern Zentrum Marktgasse,"Marktgasse 6, 3011 Bern",Bern,https://www.onedoc.ch/de/medizinisches-zentrum/bern/e72x/augenarzte-bern-zentrum-marktgasse,Marktgasse 6,3011,Bern
Augenärzte Zollikofen Zentrum Ziegelei,"Märitgasse 1, 3052 Zollikofen",Bern,https://www.onedoc.ch/de/medizinisches-zentrum/zollikofen/e723/augenarzte-zollikofen-zentrum-ziegelei,Märitgasse 1,3052,Zollikofen
AugenCentrum Zytglogge,"Zytglogge 1, 3011 Bern",Bern,https://www.onedoc.ch/de/medizinisches-zentrum/bern/erf6/augencentrum-zytglogge,Zytglogge 1,3011,Bern
Augenzentrum Dr. Aus der Au Bern / Centre de l’oeil Dr. Aus der Au Berne,"Sennweg 6, 3012 Bern",Bern,https://www.onedoc.ch/de/medizinisches-zentrum/bern/ebakx/augenzentrum-dr-aus-der-au-bern-centre-de-l-oeil-dr-aus-der-au-berne,Sennweg 6,3012,Bern
Augenzentrum Fankhauser,"Gutenbergstrasse 18, 3011 Bern",Bern,https://www.onedoc.ch/de/medizinisches-zentrum/bern/eqwe/augenzentrum-fankhauser,Gutenbergstrasse 18,3011,Bern
Augenzentrum Spiez,"Thunstrasse 2, 3700 Spiez",Bern,https://www.onedoc.ch/de/medizinisches-zentrum/spiez/erur/augenzentrum-spiez,Thunstrasse 2,3700,Spiez
Bahnhofpraxis Wichtrach,"Bahnhofstrasse 28, 3114 Wichtrach",Bern,https://www.onedoc.ch/de/medizinisches-zentrum/wichtrach/erw6/bahnhofpraxis-wichtrach,Bahnhofstrasse 28,3114,Wichtrach
Berner Rheumazentrum,"Viktoriastrasse 72, 3013 Bern",Bern,https://www.onedoc.ch/de/medizinisches-zentrum/bern/erwe/berner-rheumazentrum,Viktoriastrasse 72,3013,Bern
Bern West Med - Dr. Gurtner Med AG,"Mühledorfstrasse 2a, 3018 Bern",Bern,https://www.onedoc.ch/de/medizinisches-zentrum/bern/erwb/bern-west-med-dr-gurtner-med-ag,Mühledorfstrasse 2a,3018,Bern
Brustzentrum - Medidonna,"Riedweg 3, 3012 Bern",Bern,https://www.onedoc.ch/de/medizinisches-zentrum/bern/ervg/brustzentrum-medidonna,Riedweg 3,3012,Bern
Burgpraxis,"Burgstrasse 18, 3600 Thun",Bern,https://www.onedoc.ch/de/medizinisches-zentrum/thun/ezaw/burgpraxis,Burgstrasse 18,3600,Thun
Centerpraxis,"Dorfstrasse 4c, 3506 Grosshöchstetten",Bern,https://www.onedoc.ch/de/medizinisches-zentrum/grosshochstetten/ert1/centerpraxis,Dorfstrasse 4c,3506,Grosshöchstetten
Centre médical Les Lovières,"Chemin des Lovières 2, 2720 Tramelan",Bern,https://www.onedoc.ch/de/medizinisches-zentrum/tramelan/eru5/centre-medical-les-lovieres,Chemin des Lovières 2,2720,Tramelan
City Notfall Bern,"Schanzenstrasse 4A, 3008 Bern",Bern,https://www.onedoc.ch/de/medizinisches-zentrum/bern/erri/city-notfall-bern,Schanzenstrasse 4A,3008,Bern
Crohn-Colitis-Zentrum,"Bremgartenstrasse 119, 3012 Bern",Bern,https://www.onedoc.ch/de/medizinisches-zentrum/bern/erqz/crohn-colitis-zentrum,Bremgartenstrasse 119,3012,Bern
Gemeinschaftspraxis Brunnmatt,"Brunnmattstrasse 63, 3007 Bern",Bern,https://www.onedoc.ch/de/medizinisches-zentrum/bern/er27/gemeinschaftspraxis-brunnmatt,Brunnmattstrasse 63,3007,Bern
Gesundheitszentrum Gerzensee,"Dorfstrasse 12, 3115 Gerzensee",Bern,https://www.onedoc.ch/de/medizinisches-zentrum/gerzensee/espo/gesundheitszentrum-gerzensee,Dorfstrasse 12,3115,Gerzensee
Gesundheitszentrum Lütschentäler,"Bodendiehle 1446, 3823 Wengen",Bern,https://www.onedoc.ch/de/medizinisches-zentrum/wengen/esd4/gesundheitszentrum-lutschentaler,Bodendiehle 1446,3823,Wengen
Gesundheitszentrum Waisenhausplatz,"Waisenhausplatz 22, 3011 Bern",Bern,https://www.onedoc.ch/de/medizinisches-zentrum/bern/esiv/gesundheitszentrum-waisenhausplatz,Waisenhausplatz 22,3011,Bern
Gruppenpraxis Dr. Gisler / Dr. Masoumi-Grazianski / Dr. Nagel,"Burgstrasse 18, 3600 Thun",Bern,https://www.onedoc.ch/de/medizinisches-zentrum/thun/ey7r/gruppenpraxis-dr-gisler-dr-masoumi-grazianski-dr-nagel,Burgstrasse 18,3600,Thun
HasliPraxis,"St. Urbanstrasse 40, 4900 Langenthal",Bern,https://www.onedoc.ch/de/medizinisches-zentrum/langenthal/erpm/haslipraxis,St. Urbanstrasse 40,4900,Langenthal
Hausärztezentrum Heimberg,"Auweg 73, 3627 Heimberg",Bern,https://www.onedoc.ch/de/medizinisches-zentrum/heimberg/ersi/hausarztezentrum-heimberg,Auweg 73,3627,Heimberg
HausärzteZentrum Orpund,"Hauptstrasse 201, 2552 Orpund",Bern,https://www.onedoc.ch/de/medizinisches-zentrum/orpund/er04/hausarztezentrum-orpund,Hauptstrasse 201,2552,Orpund
Hausarztpraxis Huttwil,"Schultheissenstrasse 10, 4950 Huttwil",Bern,https://www.onedoc.ch/de/medizinisches-zentrum/huttwil/erwp/hausarztpraxis-huttwil,Schultheissenstrasse 10,4950,Huttwil
IPP Institut für Psychiatrie und,"Waisenhausplatz 25, 3011 Bern",Bern,https://www.onedoc.ch/de/medizinisches-zentrum/bern/ervu/ipp-institut-fur-psychiatrie-und,Waisenhausplatz 25,3011,Bern
Kardiologie Innenstadt,"Bubenbergplatz 8, 3011 Bern",Bern,https://www.onedoc.ch/de/medizinisches-zentrum/bern/erxa/kardiologie-innenstadt,Bubenbergplatz 8,3011,Bern
Kardiologische Gemeinschaftspraxis,"Schänzlistrasse 33, 3013 Bern",Bern,https://www.onedoc.ch/de/medizinisches-zentrum/bern/er4x/kardiologische-gemeinschaftspraxis,Schänzlistrasse 33,3013,Bern
"KurWerk, Medizinisches Zentrum","Poststrasse 9, 3400 Burgdorf",Bern,https://www.onedoc.ch/de/medizinisches-zentrum/burgdorf/en5y/kurwerk-medizinisches-zentrum,Poststrasse 9,3400,Burgdorf
Localmed Ärztezentrum Bern,"Schanzenstrasse 4A, 3008 Bern",Bern,https://www.onedoc.ch/de/medizinisches-zentrum/bern/erq3/localmed-arztezentrum-bern,Schanzenstrasse 4A,3008,Bern
Localmed Ärztezentrum Köniz,"Stapfenstrasse 7, 3098 Köniz",Bern,https://www.onedoc.ch/de/medizinisches-zentrum/koniz/erwh/localmed-arztezentrum-koniz,Stapfenstrasse 7,3098,Köniz
Localmed Biel/Bienne,"Bahnhofplatz 2C, 2502 Biel",Bern,https://www.onedoc.ch/de/medizinisches-zentrum/biel/er59/localmed-biel-bienne,Bahnhofplatz 2C,2502,Biel
Magendarm Zentrum Fellergut + Dr. med. Linder Katharina - Ärztezentrum Fellergut,"Mühledorfstrasse 1, 3018 Bern",Bern,https://www.onedoc.ch/de/medizinisches-zentrum/bern/er1t/magendarm-zentrum-fellergut-dr-med-linder-katharina-arztezentrum-fellergut,Mühledorfstrasse 1,3018,Bern
Medbase Bern Bahnhof,"Parkterrasse 10, 3012 Bern",Bern,https://www.onedoc.ch/de/medizinisches-zentrum/bern/e3kt/medbase-bern-bahnhof,Parkterrasse 10,3012,Bern
Medbase Bern Westside,"Ramuzstrasse 18, 3027 Bern",Bern,https://www.onedoc.ch/de/medizinisches-zentrum/bern/er02/medbase-bern-westside,Ramuzstrasse 18,3027,Bern
Medbase Bern Zentrum,"Schwanengasse 10, 3011 Bern",Bern,https://www.onedoc.ch/de/medizinisches-zentrum/bern/erwo/medbase-bern-zentrum,Schwanengasse 10,3011,Bern
Medbase Thun Panorama-Center,"Weststrasse 14, 3604 Thun",Bern,https://www.onedoc.ch/de/medizinisches-zentrum/thun/ertp/medbase-thun-panorama-center,Weststrasse 14,3604,Thun
MEDICENTRE MOUTIER,"Rue Centrale 3, 2740 Moutier",Bern,https://www.onedoc.ch/de/medizinisches-zentrum/moutier/erqk/medicentre-moutier,Rue Centrale 3,2740,Moutier
MediSpine WirbelsäulenZentrum Biel-Seeland,"Oberer Quai 20, 2503 Biel",Bern,https://www.onedoc.ch/de/medizinisches-zentrum/biel/e36s/medispine-wirbelsaulenzentrum-biel-seeland,Oberer Quai 20,2503,Biel
MediZentrum Lyss,"Busswilstrasse 6, 3250 Lyss",Bern,https://www.onedoc.ch/de/medizinisches-zentrum/lyss/er6i/medizentrum-lyss,Busswilstrasse 6,3250,Lyss
Medizentrum Schüpfen,"Dorfstrasse 1, 3054 Schüpfen",Bern,https://www.onedoc.ch/de/medizinisches-zentrum/schupfen/ertu/medizentrum-schupfen,Dorfstrasse 1,3054,Schüpfen
Medizinisches Zentrum Biel,"Unionsgasse 14, 2502 Biel",Bern,https://www.onedoc.ch/de/medizinisches-zentrum/biel/errc/medizinisches-zentrum-biel,Unionsgasse 14,2502,Biel
Medizinisches Zentrum Monbijou,"Monbijoustrasse 10, 3011 Bern",Bern,https://www.onedoc.ch/de/medizinisches-zentrum/bern/er0m/medizinisches-zentrum-monbijou,Monbijoustrasse 10,3011,Bern
MeinArzt Reichenbach,"Bälliz 17, 3713 Reichenbach im Kandertal",Bern,https://www.onedoc.ch/de/medizinisches-zentrum/reichenbach-im-kandertal/ey90/meinarzt-reichenbach,Bälliz 17,3713,Reichenbach im Kandertal
Monvia Gesundheitszentrum Bern,"Rodtmattstrasse 47, 3014 Bern",Bern,https://www.onedoc.ch/de/medizinisches-zentrum/bern/er3g/monvia-gesundheitszentrum-bern,Rodtmattstrasse 47,3014,Bern
Neurozentrum Bern AG,"Schänzlistrasse 33, 3013 Bern",Bern,https://www.onedoc.ch/de/medizinisches-zentrum/bern/en7q/neurozentrum-bern-ag,Schänzlistrasse 33,3013,Bern
Neurozentrum Oberaargau,"St. Urbanstrasse 22 - Affenplatz, 4900 Langenthal",Bern,https://www.onedoc.ch/de/medizinisches-zentrum/langenthal/eq6j/neurozentrum-oberaargau,St. Urbanstrasse 22 - Affenplatz,4900,Langenthal
Operationszentrum Burgdorf - Medbase Operationszentrum,"Farbweg 9, 3400 Burgdorf",Bern,https://www.onedoc.ch/de/medizinisches-zentrum/burgdorf/eq33/operationszentrum-burgdorf-medbase-operationszentrum,Farbweg 9,3400,Burgdorf
Praxis Dr. med. Melideo Gianni - Ärztezentrum Fellergut,"Mühledorfstrasse 1, 3018 Bern",Bern,https://www.onedoc.ch/de/medizinisches-zentrum/bern/esvs/praxis-dr-med-melideo-gianni-arztezentrum-fellergut,Mühledorfstrasse 1,3018,Bern
Praxis Dr. med. Mosimann Madeleine - Ärztezentrum Fellergut,"Mühledorfstrasse 1, 3018 Bern",Bern,https://www.onedoc.ch/de/medizinisches-zentrum/bern/er28/praxis-dr-med-mosimann-madeleine-arztezentrum-fellergut,Mühledorfstrasse 1,3018,Bern
Praxis Dr. med. Wild Andreas,"Kammistrasse 13, 3800 Interlaken",Bern,https://www.onedoc.ch/de/medizinisches-zentrum/interlaken/ex96/praxis-dr-med-wild-andreas,Kammistrasse 13,3800,Interlaken
Praxiszentrum am Bahnhof Bern,"Parkterrasse 10, 3012 Bern",Bern,https://www.onedoc.ch/de/medizinisches-zentrum/bern/errx/praxiszentrum-am-bahnhof-bern,Parkterrasse 10,3012,Bern
PraxisZentrum für Familienmedizin Thun,"Aarefeldstrasse 19, 3600 Thun",Bern,https://www.onedoc.ch/de/medizinisches-zentrum/thun/erxx/praxiszentrum-fur-familienmedizin-thun,Aarefeldstrasse 19,3600,Thun
Privatklinik Siloah Gümligen,"Worbstrasse 316, 3073 Gümligen",Bern,https://www.onedoc.ch/de/medizinisches-zentrum/gumligen/e6ub/privatklinik-siloah-gumligen,Worbstrasse 316,3073,Gümligen
PROMOTION - Gesundheit im Zentrum,"Chutzenstrasse 24, 3007 Bern",Bern,https://www.onedoc.ch/de/medizinisches-zentrum/bern/erus/promotion-gesundheit-im-zentrum,Chutzenstrasse 24,3007,Bern
Sportmedizinisches Zentrum Bern,"Bümplizstrasse 101, 3018 Bern",Bern,https://www.onedoc.ch/de/medizinisches-zentrum/bern/espn/sportmedizinisches-zentrum-bern,Bümplizstrasse 101,3018,Bern
Sportmedizinisches Zentrum Bern-Ittigen,"Talgut-Zentrum 27, 3063 Ittigen",Bern,https://www.onedoc.ch/de/medizinisches-zentrum/ittigen/eslv/sportmedizinisches-zentrum-bern-ittigen,Talgut-Zentrum 27,3063,Ittigen
Stedtli-Praxis,"Hauptstrasse 43, 3800 Unterseen",Bern,https://www.onedoc.ch/de/medizinisches-zentrum/unterseen/erph/stedtli-praxis,Hauptstrasse 43,3800,Unterseen
Unilabs Mittelland,"Effingerstrasse 45, 3008 Bern",Bern,https://www.onedoc.ch/de/medizinisches-zentrum/bern/ezii/unilabs-mittelland,Effingerstrasse 45,3008,Bern
VASC Gefässzentrum Bern,"Bremgartenstrasse 119, 3012 Bern",Bern,https://www.onedoc.ch/de/medizinisches-zentrum/bern/er39/vasc-gefasszentrum-bern,Bremgartenstrasse 119,3012,Bern
Vista Augenzentrum Thun,"Kasernenstrasse 5, 3600 Thun",Bern,https://www.onedoc.ch/de/medizinisches-zentrum/thun/essb/vista-augenzentrum-thun,Kasernenstrasse 5,3600,Thun
Vitasphère Gesundheitszentrum,"Bernstrasse 37, 4922 Thunstetten",Bern,https://www.onedoc.ch/de/medizinisches-zentrum/thunstetten/esbf/vitasphere-gesundheitszentrum,Bernstrasse 37,4922,Thunstetten
Zentrum für Orthopädie Berner Oberland,"Krattigstrasse 6, 3700 Spiez",Bern,https://www.onedoc.ch/de/medizinisches-zentrum/spiez/erxq/zentrum-fur-orthopadie-berner-oberland,Krattigstrasse 6,3700,Spiez
Zentrum für Systemische Therapie und Beratung,"Villettemattstrasse 15, 3007 Bern",Bern,https://www.onedoc.ch/de/medizinisches-zentrum/bern/err1/zentrum-fur-systemische-therapie-und-beratung,Villettemattstrasse 15,3007,Bern
Augenzentrum Vista Alpina,"Rue du Bourg 3, 3960 Siders",Wallis,https://www.onedoc.ch/de/medizinisches-zentrum/siders/eweh/augenzentrum-vista-alpina,Rue du Bourg 3,3960,Siders
Augenzentrum Vista Alpina,"Bahnhofplatz 1a, 3930 Visp",Wallis,https://www.onedoc.ch/de/medizinisches-zentrum/visp/ervv/augenzentrum-vista-alpina,Bahnhofplatz 1a,3930,Visp
Cabinet de groupe des Dr. Praz,"Route des Ecluses 32, 1997 Haute-Nendaz",Wallis,https://www.onedoc.ch/de/medizinisches-zentrum/haute-nendaz/ewc3/cabinet-de-groupe-des-dr-praz,Route des Ecluses 32,1997,Haute-Nendaz
Cabinet de Gynécologie et Obstétrique du Haut Lac,"Rue de la Grand-Vigne 6, 1896 Vouvry",Wallis,https://www.onedoc.ch/de/medizinisches-zentrum/vouvry/ep13/cabinet-de-gynecologie-et-obstetrique-du-haut-lac,Rue de la Grand-Vigne 6,1896,Vouvry
Cabinet Dr Charlotte Wedekind,"Route des Sommets de Crans 5, 3963 Crans-Montana",Wallis,https://www.onedoc.ch/de/medizinisches-zentrum/crans-montana/emkf/cabinet-dr-charlotte-wedekind,Route des Sommets de Crans 5,3963,Crans-Montana
Cabinet Dr. Dumoulin-Minguet Edmond,"Chemin de Bermouche 2, 1997 Haute-Nendaz",Wallis,https://www.onedoc.ch/de/medizinisches-zentrum/haute-nendaz/ewaa/cabinet-dr-dumoulin-minguet-edmond,Chemin de Bermouche 2,1997,Haute-Nendaz
Cabinet Dr. Randon Thomas (2ème étage),"Zone d'activité des Plavaux 102, 1893 Muraz",Wallis,https://www.onedoc.ch/de/medizinisches-zentrum/muraz/ewda/cabinet-dr-randon-thomas-2eme-etage,Zone d'activité des Plavaux 102,1893,Muraz
Cabinet Médical du Verger - Maison Santé Chablais,"Chemin du Verger 3, 1868 Collombey-Muraz",Wallis,https://www.onedoc.ch/de/medizinisches-zentrum/collombey-muraz/evyb/cabinet-medical-du-verger-maison-sante-chablais,Chemin du Verger 3,1868,Collombey-Muraz
Cabinet RegardViSion,"Rue de Lausanne 27, 1950 Sitten",Wallis,https://www.onedoc.ch/de/medizinisches-zentrum/sitten/eqjk/cabinet-regardvision,Rue de Lausanne 27,1950,Sitten
Centre médical d'Anniviers / Vissoie,"Route de Grimentz, 3961 Vissoie",Wallis,https://www.onedoc.ch/de/medizinisches-zentrum/vissoie/ev5b/centre-medical-d-anniviers-vissoie,Route de Grimentz,3961,Vissoie
Centre médical de Champéry,"Route de la Fin 26, 1874 Champéry",Wallis,https://www.onedoc.ch/de/medizinisches-zentrum/champery/ebbx9/centre-medical-de-champery,Route de la Fin 26,1874,Champéry
Centre médical de Charnot,"Rue Maison de Commune 17, 1926 Fully",Wallis,https://www.onedoc.ch/de/medizinisches-zentrum/fully/ev7l/centre-medical-de-charnot,Rue Maison de Commune 17,1926,Fully
Centre médical de Crans,"Rue du Pas-de-l'Ours 5, 3963 Crans-Montana",Wallis,https://www.onedoc.ch/de/medizinisches-zentrum/crans-montana/ebbx7/centre-medical-de-crans,Rue du Pas-de-l'Ours 5,3963,Crans-Montana
Centre Médical de l'Adret,"Route de Savièse 3C, 1971 Grimisuat",Wallis,https://www.onedoc.ch/de/medizinisches-zentrum/grimisuat/eld5/centre-medical-de-l-adret,Route de Savièse 3C,1971,Grimisuat
Centre médical de la Moya,"Rue d'Aoste 5B, 1920 Martigny",Wallis,https://www.onedoc.ch/de/medizinisches-zentrum/martigny/ev7i/centre-medical-de-la-moya,Rue d'Aoste 5B,1920,Martigny
Centre médical de Montana,"Rue Louis Antille 15, 3963 Crans-Montana",Wallis,https://www.onedoc.ch/de/medizinisches-zentrum/crans-montana/ebbx8/centre-medical-de-montana,Rue Louis Antille 15,3963,Crans-Montana
Centre Médical des 2 gares,"Avenue de la Gare 3, 1950 Sitten",Wallis,https://www.onedoc.ch/de/medizinisches-zentrum/sitten/ev93/centre-medical-des-2-gares,Avenue de la Gare 3,1950,Sitten
Centre médical des bains d'ovronnaz,"Route des Bains 93, 1911 Leytron",Wallis,https://www.onedoc.ch/de/medizinisches-zentrum/leytron/e5t2/centre-medical-des-bains-d-ovronnaz,Route des Bains 93,1911,Leytron
Centre médical des Grands-Prés,"Rue des Grands Prés 18, 1964 Conthey",Wallis,https://www.onedoc.ch/de/medizinisches-zentrum/conthey/ev9w/centre-medical-des-grands-pres,Rue des Grands Prés 18,1964,Conthey
Centre médical de Val-d'Illiez Route de Champéry 22 Val-d'Illiez,"Route de Champéry 22, 1873 Val-d'Illiez",Wallis,https://www.onedoc.ch/de/medizinisches-zentrum/val-d-illiez/ev7h/centre-medical-de-val-d-illiez-route-de-champery-22-val-d-illiez,Route de Champéry 22,1873,Val-d'Illiez
Centre médical de Verbier,"Route de Verbier Station 74, 1936 Verbier",Wallis,https://www.onedoc.ch/de/medizinisches-zentrum/verbier/ev7k/centre-medical-de-verbier,Route de Verbier Station 74,1936,Verbier
Centre médical du Bouveret,"Chaussée du Canal 28, 1897 Port-Valais",Wallis,https://www.onedoc.ch/de/medizinisches-zentrum/port-valais/ebbvi/centre-medical-du-bouveret,Chaussée du Canal 28,1897,Port-Valais
Centre médical du Chablais,"Z.A. Entre deux Fossaux 14, 1868 Collombey",Wallis,https://www.onedoc.ch/de/medizinisches-zentrum/collombey/ebarf/centre-medical-du-chablais,Z.A. Entre deux Fossaux 14,1868,Collombey
Centre Médical du Fossau Vouvry,"Avenue du Fossau 6, 1896 Vouvry",Wallis,https://www.onedoc.ch/de/medizinisches-zentrum/vouvry/ev9o/centre-medical-du-fossau-vouvry,Avenue du Fossau 6,1896,Vouvry
Centre Médical du Rhône,"En Arche 34, 1912 Leytron",Wallis,https://www.onedoc.ch/de/medizinisches-zentrum/leytron/ev5c/centre-medical-du-rhone,En Arche 34,1912,Leytron
Centre médical et dentaire de Sion,"Rue du Scex 33, 1950 Sitten",Wallis,https://www.onedoc.ch/de/medizinisches-zentrum/sitten/ev5m/centre-medical-et-dentaire-de-sion,Rue du Scex 33,1950,Sitten
Centre Médical illhorn,"Route de Sion 31, 3960 Siders",Wallis,https://www.onedoc.ch/de/medizinisches-zentrum/siders/evo/centre-medical-illhorn,Route de Sion 31,3960,Siders
Centre médical Le Forum,"Rue de Condémines 8, 1950 Sitten",Wallis,https://www.onedoc.ch/de/medizinisches-zentrum/sitten/ev7v/centre-medical-le-forum,Rue de Condémines 8,1950,Sitten
Centre médical les Cerisiers,"Rue des Vergers 1, 1950 Sitten",Wallis,https://www.onedoc.ch/de/medizinisches-zentrum/sitten/ewbh/centre-medical-les-cerisiers,Rue des Vergers 1,1950,Sitten
Centre Médical Leytron,"En Arche 34, 1912 Produit",Wallis,https://www.onedoc.ch/de/medizinisches-zentrum/produit/ebasq/centre-medical-leytron,En Arche 34,1912,Produit
Centre Médical Medibagnes,"Route de Verbier Station 74, 1936 Bagnes",Wallis,https://www.onedoc.ch/de/medizinisches-zentrum/bagnes/ev7r/centre-medical-medibagnes,Route de Verbier Station 74,1936,Bagnes
Centre Médical Valère - Gastroentérologie,"Avenue de la gare 27, 1950 Sitten",Wallis,https://www.onedoc.ch/de/medizinisches-zentrum/sitten/e0q8/centre-medical-valere-gastroenterologie,Avenue de la gare 27,1950,Sitten
Centre médical Vigimed,"Rue du Léman 18B, 1920 Martigny",Wallis,https://www.onedoc.ch/de/medizinisches-zentrum/martigny/ev6v/centre-medical-vigimed,Rue du Léman 18B,1920,Martigny
Centre Pédiatrique Pluridisciplinaire du Chablais Valaisan (CPPCV),"Rue du Pont 5, 1870 Monthey",Wallis,https://www.onedoc.ch/de/medizinisches-zentrum/monthey/ev47/centre-pediatrique-pluridisciplinaire-du-chablais-valaisan-cppcv,Rue du Pont 5,1870,Monthey
Clinique Oeil - Martigny,"Rue de la Poste 5, 1920 Martigny",Wallis,https://www.onedoc.ch/de/medizinisches-zentrum/martigny/e6t6/clinique-oeil-martigny,Rue de la Poste 5,1920,Martigny
Gastroentérologie - Maison Santé Chablais,"Chemin du Verger 3, 1868 Collombey",Wallis,https://www.onedoc.ch/de/medizinisches-zentrum/collombey/e0p6/gastroenterologie-maison-sante-chablais,Chemin du Verger 3,1868,Collombey
La Maison de Santé,"Route de la Gravenne 14, 1933 Sembrancher",Wallis,https://www.onedoc.ch/de/medizinisches-zentrum/sembrancher/ev86/la-maison-de-sante,Route de la Gravenne 14,1933,Sembrancher
Maison de la Santé du Haut-Lac,"Rue de la Grand-Vigne 6, 1896 Vouvry",Wallis,https://www.onedoc.ch/de/medizinisches-zentrum/vouvry/ev69/maison-de-la-sante-du-haut-lac,Rue de la Grand-Vigne 6,1896,Vouvry
Médecins du Chablais,"Rue des Dents-du-Midi 34B, 1868 Collombey",Wallis,https://www.onedoc.ch/de/medizinisches-zentrum/collombey/ebbx5/medecins-du-chablais,Rue des Dents-du-Midi 34B,1868,Collombey
MV Santé Vision Sion,"Rue de Lausanne 25, 1950 Sitten",Wallis,https://www.onedoc.ch/de/medizinisches-zentrum/sitten/eyow/mv-sante-vision-sion,Rue de Lausanne 25,1950,Sitten
MV Santé Vision Visp,"Napoleonstrasse 16B, 3930 Visp",Wallis,https://www.onedoc.ch/de/medizinisches-zentrum/visp/eyoy/mv-sante-vision-visp,Napoleonstrasse 16B,3930,Visp
Pure Clinic - Centre médical de Sion,"Rue du Scex 33, 1950 Sitten",Wallis,https://www.onedoc.ch/de/medizinisches-zentrum/sitten/e9vd/pure-clinic-centre-medical-de-sion,Rue du Scex 33,1950,Sitten
Tinika,"Rue de Lausanne 13, 1950 Sitten",Wallis,https://www.onedoc.ch/de/medizinisches-zentrum/sitten/ebb0j/tinika,Rue de Lausanne 13,1950,Sitten
Altius Swiss Sportmed Center,"Habich-Dietschy-Strasse 5A, 4310 Rheinfelden",Aargau,https://www.onedoc.ch/de/medizinisches-zentrum/rheinfelden/eqv0/altius-swiss-sportmed-center,Habich-Dietschy-Strasse 5A,4310,Rheinfelden
Ärztegemeinschaft Suhr,"Alte Gasse 8, 5034 Suhr",Aargau,https://www.onedoc.ch/de/medizinisches-zentrum/suhr/embe/arztegemeinschaft-suhr,Alte Gasse 8,5034,Suhr
Ärzte-Gesundheitszentrum Lägern,"Wetentalstrasse 2, 5420 Ehrendingen",Aargau,https://www.onedoc.ch/de/medizinisches-zentrum/ehrendingen/eqyo/arzte-gesundheitszentrum-lagern,Wetentalstrasse 2,5420,Ehrendingen
Ärztehaus Bernstrasse 86,"Bernstrasse 86, 4852 Rothrist",Aargau,https://www.onedoc.ch/de/medizinisches-zentrum/rothrist/eqv6/arztehaus-bernstrasse-86,Bernstrasse 86,4852,Rothrist
Ärzteteam 51,"Fröhlichstrasse 51, 5200 Brugg AG",Aargau,https://www.onedoc.ch/de/medizinisches-zentrum/brugg/emhx/arzteteam-51,Fröhlichstrasse 51,5200,Brugg AG
Ärztezentrum Buchs,"Mitteldorfstrasse 47, 5033 Buchs AG",Aargau,https://www.onedoc.ch/de/medizinisches-zentrum/buchs/el01/arztezentrum-buchs,Mitteldorfstrasse 47,5033,Buchs AG
Ärztezentrum Othmarsingen AG,"Bahnhofstrasse 8, 5504 Othmarsingen",Aargau,https://www.onedoc.ch/de/medizinisches-zentrum/othmarsingen/emkv/arztezentrum-othmarsingen-ag,Bahnhofstrasse 8,5504,Othmarsingen
Ärztezentrums im Chilefeld,"Kirchenfeldstrasse 8, 5630 Muri",Aargau,https://www.onedoc.ch/de/medizinisches-zentrum/muri/eqt1/arztezentrums-im-chilefeld,Kirchenfeldstrasse 8,5630,Muri
Ärztezentrum Wohlen,"Zentralstrasse 55a, 5610 Wohlen",Aargau,https://www.onedoc.ch/de/medizinisches-zentrum/wohlen/eqzv/arztezentrum-wohlen,Zentralstrasse 55a,5610,Wohlen
Arzthaus Aarau,"Bahnhofstrasse 29, 5000 Aarau",Aargau,https://www.onedoc.ch/de/medizinisches-zentrum/aarau/eqw6/arzthaus-aarau,Bahnhofstrasse 29,5000,Aarau
Augenärzte Zentrum Aarau,"Bahnhofplatz 3h, 5000 Aarau",Aargau,https://www.onedoc.ch/de/medizinisches-zentrum/aarau/e72w/augenarzte-zentrum-aarau,Bahnhofplatz 3h,5000,Aarau
Augenklinik Orasis - AugenZentrumPajic,"Titlisstrasse 44, 5734 Reinach AG",Aargau,https://www.onedoc.ch/de/medizinisches-zentrum/reinach/eqwf/augenklinik-orasis-augenzentrumpajic,Titlisstrasse 44,5734,Reinach AG
Augenzentrum Kiener-Ärztehaus Täfernhof,"Mellingerstrasse 207, 5405 Baden",Aargau,https://www.onedoc.ch/de/medizinisches-zentrum/baden/eqxq/augenzentrum-kiener-arztehaus-tafernhof,Mellingerstrasse 207,5405,Baden
Augenzentrum Menon,"Brättligäu 6 / Kronenplatz, 5600 Lenzburg",Aargau,https://www.onedoc.ch/de/medizinisches-zentrum/lenzburg/el0e/augenzentrum-menon,Brättligäu 6 / Kronenplatz,5600,Lenzburg
Augenzentrum Perron West,"Aarauerstrasse 10, 5630 Muri",Aargau,https://www.onedoc.ch/de/medizinisches-zentrum/muri/eqzk/augenzentrum-perron-west,Aarauerstrasse 10,5630,Muri
DoktorZentrum Mutschellen,"Corneliastrasse 6, 8965 Berikon",Aargau,https://www.onedoc.ch/de/medizinisches-zentrum/berikon/eqt5/doktorzentrum-mutschellen,Corneliastrasse 6,8965,Berikon
Doktor Zentrum Wettingen,"Bahnhofstrasse 88, 5430 Wettingen",Aargau,https://www.onedoc.ch/de/medizinisches-zentrum/wettingen/emmh/doktor-zentrum-wettingen,Bahnhofstrasse 88,5430,Wettingen
Fachärztehaus Frick,"Mühlegasse 18, 5070 Frick",Aargau,https://www.onedoc.ch/de/medizinisches-zentrum/frick/eqt9/facharztehaus-frick,Mühlegasse 18,5070,Frick
frauenarztzentrum aargau - Standort Aarau,"Ziegelrain 29, 5000 Aarau",Aargau,https://www.onedoc.ch/de/medizinisches-zentrum/aarau/eyq2/frauenarztzentrum-aargau-standort-aarau,Ziegelrain 29,5000,Aarau
frauenarztzentrum aargau - Standort Baden,"Bernerstrasse 27, 5400 Baden",Aargau,https://www.onedoc.ch/de/medizinisches-zentrum/baden/equz/frauenarztzentrum-aargau-standort-baden,Bernerstrasse 27,5400,Baden
Gastroenterologie Aarau,"Wiesenstrasse 25, 5000 Aarau",Aargau,https://www.onedoc.ch/de/medizinisches-zentrum/aarau/eyqo/gastroenterologie-aarau,Wiesenstrasse 25,5000,Aarau
Gesundheitszentrum H7,"Hauptstrasse 7c, 5502 Hunzenschwil",Aargau,https://www.onedoc.ch/de/medizinisches-zentrum/hunzenschwil/eqwm/gesundheitszentrum-h7,Hauptstrasse 7c,5502,Hunzenschwil
GesundheitsZentrum Reinach - Xundheitszentrum,"Hauptstrasse 71, 5734 Reinach AG",Aargau,https://www.onedoc.ch/de/medizinisches-zentrum/reinach/eqx2/gesundheitszentrum-reinach-xundheitszentrum,Hauptstrasse 71,5734,Reinach AG
Hausarztpraxis MZ Brugg,"Fröhlichstrasse 5, 5200 Brugg AG",Aargau,https://www.onedoc.ch/de/medizinisches-zentrum/brugg/el5s/hausarztpraxis-mz-brugg,Fröhlichstrasse 5,5200,Brugg AG
Hirslanden Baby Ambulatorium Aarau,"Schanzweg 7, 5000 Aarau",Aargau,https://www.onedoc.ch/de/medizinisches-zentrum/aarau/e3qz/hirslanden-baby-ambulatorium-aarau,Schanzweg 7,5000,Aarau
Kinderarztpraxis Villa Vesta Rosengässchen 2 Rheinfelden,"Rosengässchen 2, 4310 Rheinfelden",Aargau,https://www.onedoc.ch/de/medizinisches-zentrum/rheinfelden/equo/kinderarztpraxis-villa-vesta-rosengasschen-2-rheinfelden,Rosengässchen 2,4310,Rheinfelden
KSA Praxiszentrum / Notfallpraxis am Bahnhof Aarau,"Bahnhofplatz 3C, 5001 Aarau",Aargau,https://www.onedoc.ch/de/medizinisches-zentrum/aarau/eqv5/ksa-praxiszentrum-notfallpraxis-am-bahnhof-aarau,Bahnhofplatz 3C,5001,Aarau
LENZMED Gruppenpraxis,"Niederlenzer Kirchweg 5C, 5600 Lenzburg",Aargau,https://www.onedoc.ch/de/medizinisches-zentrum/lenzburg/el43/lenzmed-gruppenpraxis,Niederlenzer Kirchweg 5C,5600,Lenzburg
MCR Health AG - Medical Center Rohrdorf,"Vorderi Böde 2a, 5452 Oberrohrdorf",Aargau,https://www.onedoc.ch/de/medizinisches-zentrum/oberrohrdorf/e1i4/mcr-health-ag-medical-center-rohrdorf,Vorderi Böde 2a,5452,Oberrohrdorf
Monvia Gesundheitszentrum Oberentfelden,"Muhenstrasse 13, 5036 Oberentfelden",Aargau,https://www.onedoc.ch/de/medizinisches-zentrum/oberentfelden/eqw3/monvia-gesundheitszentrum-oberentfelden,Muhenstrasse 13,5036,Oberentfelden
Pneumologie Nordwest,"Kaiserstrasse 8, 4310 Rheinfelden",Aargau,https://www.onedoc.ch/de/medizinisches-zentrum/rheinfelden/eyte/pneumologie-nordwest,Kaiserstrasse 8,4310,Rheinfelden
Praxis am Kirchplatz,"Kirchplatz 4, 4800 Zofingen",Aargau,https://www.onedoc.ch/de/medizinisches-zentrum/zofingen/ema6/praxis-am-kirchplatz,Kirchplatz 4,4800,Zofingen
Praxis Brestenberg,"Brestenbergstrasse 21, 5707 Seengen",Aargau,https://www.onedoc.ch/de/medizinisches-zentrum/seengen/emlr/praxis-brestenberg,Brestenbergstrasse 21,5707,Seengen
Praxis Dr. med. (RSK) Agim Asllani,"Bahnhofstrasse 92, 5000 Aarau",Aargau,https://www.onedoc.ch/de/medizinisches-zentrum/aarau/eytt/praxis-dr-med-rsk-agim-asllani,Bahnhofstrasse 92,5000,Aarau
Praxisgemeinschaft Dottikon,"Alte Hägglingerstrasse 10, 5605 Dottikon",Aargau,https://www.onedoc.ch/de/medizinisches-zentrum/dottikon/eque/praxisgemeinschaft-dottikon,Alte Hägglingerstrasse 10,5605,Dottikon
Praxiszentrum Frick,"Hauptstrasse 44, 5070 Frick",Aargau,https://www.onedoc.ch/de/medizinisches-zentrum/frick/eyve/praxiszentrum-frick,Hauptstrasse 44,5070,Frick
Psychologisch-Medizinisches Zentrum,"Ziegelrain 1, 5000 Aarau",Aargau,https://www.onedoc.ch/de/medizinisches-zentrum/aarau/eqzy/psychologisch-medizinisches-zentrum,Ziegelrain 1,5000,Aarau
Tumor Zentrum Aarau AG,"Rain 34, 5000 Aarau",Aargau,https://www.onedoc.ch/de/medizinisches-zentrum/aarau/el3u/tumor-zentrum-aarau-ag,Rain 34,5000,Aarau
Vidamed AG,"Baslerstrasse 6, 5330 Bad Zurzach",Aargau,https://www.onedoc.ch/de/medizinisches-zentrum/bad-zurzach/el3y/vidamed-ag,Baslerstrasse 6,5330,Bad Zurzach
Vista Augenzentrum Brugg,"Neumarktplatz 1, 5200 Brugg AG",Aargau,https://www.onedoc.ch/de/medizinisches-zentrum/brugg/eqwl/vista-augenzentrum-brugg,Neumarktplatz 1,5200,Brugg AG
Zentrum für Gefässmedizin Mittelland,"Aarenaustrasse 2B, 5000 Aarau",Aargau,https://www.onedoc.ch/de/medizinisches-zentrum/aarau/eq03/zentrum-fur-gefassmedizin-mittelland,Aarenaustrasse 2B,5000,Aarau
Ärzte am Markt,"Marktstrasse 4, 9435 Heerbrugg",St. Gallen,https://www.onedoc.ch/de/medizinisches-zentrum/heerbrugg/eulh/arzte-am-markt,Marktstrasse 4,9435,Heerbrugg
Ärztehaus Gossau,"Lerchenstrasse 32, 9200 Gossau SG",St. Gallen,https://www.onedoc.ch/de/medizinisches-zentrum/gossau/elhj/arztehaus-gossau,Lerchenstrasse 32,9200,Gossau SG
Ärztehaus Wil,"Löwenstrasse 1, 9500 Wil SG",St. Gallen,https://www.onedoc.ch/de/medizinisches-zentrum/wil/eurb/arztehaus-wil,Löwenstrasse 1,9500,Wil SG
Ärztezentrum Benken,"Dorfstrasse 22, 8717 Benken SG",St. Gallen,https://www.onedoc.ch/de/medizinisches-zentrum/benken/euo4/arztezentrum-benken,Dorfstrasse 22,8717,Benken SG
Ärztezentrum Degersheim,"Hauptstrasse 69, 9113 Degersheim",St. Gallen,https://www.onedoc.ch/de/medizinisches-zentrum/degersheim/euma/arztezentrum-degersheim,Hauptstrasse 69,9113,Degersheim
Ärztezentrum Flawil,"Magdenauerstrasse 1, 9230 Flawil",St. Gallen,https://www.onedoc.ch/de/medizinisches-zentrum/flawil/eulf/arztezentrum-flawil,Magdenauerstrasse 1,9230,Flawil
Ärztezentrum Flums,"Marktstrasse 21, 8890 Flums",St. Gallen,https://www.onedoc.ch/de/medizinisches-zentrum/flums/euuo/arztezentrum-flums,Marktstrasse 21,8890,Flums
Ärztezentrum Gams,"Gasenzenstrasse 10, 9473 Gams",St. Gallen,https://www.onedoc.ch/de/medizinisches-zentrum/gams/eun8/arztezentrum-gams,Gasenzenstrasse 10,9473,Gams
Ärztezentrum Thal,"Feldstrasse 11, 9425 Thal",St. Gallen,https://www.onedoc.ch/de/medizinisches-zentrum/thal/euow/arztezentrum-thal,Feldstrasse 11,9425,Thal
Ärztezentrum Walenstadt,"Bahnhofstrasse 27, 8880 Walenstadt",St. Gallen,https://www.onedoc.ch/de/medizinisches-zentrum/walenstadt/euq7/arztezentrum-walenstadt,Bahnhofstrasse 27,8880,Walenstadt
Ärztezentrum Zuzwil,"Ringstrasse 1, 9524 Zuzwil SG",St. Gallen,https://www.onedoc.ch/de/medizinisches-zentrum/zuzwil/euo5/arztezentrum-zuzwil,Ringstrasse 1,9524,Zuzwil SG
Arzthaus St. Gallen,"Zeughausgasse 22, 9000 St. Gallen",St. Gallen,https://www.onedoc.ch/de/medizinisches-zentrum/st-gallen/emk7/arzthaus-st-gallen,Zeughausgasse 22,9000,St. Gallen
Augenärzte St. Gallen Zentrum Multergasse,"Multergasse 11, 9000 St. Gallen",St. Gallen,https://www.onedoc.ch/de/medizinisches-zentrum/st-gallen/e72z/augenarzte-st-gallen-zentrum-multergasse,Multergasse 11,9000,St. Gallen
Augenzentrum Buchs,"Bahnhofstrasse 2, 9470 Buchs SG",St. Gallen,https://www.onedoc.ch/de/medizinisches-zentrum/buchs/eq9h/augenzentrum-buchs,Bahnhofstrasse 2,9470,Buchs SG
Augenzentrum Rapperswil,"Merkurstrasse 50, 8640 Rapperswil",St. Gallen,https://www.onedoc.ch/de/medizinisches-zentrum/rapperswil/eows/augenzentrum-rapperswil,Merkurstrasse 50,8640,Rapperswil
Augenzentrum Toggenburg,"Rietwiesstrasse 8, 9630 Wattwil",St. Gallen,https://www.onedoc.ch/de/medizinisches-zentrum/wattwil/eup1/augenzentrum-toggenburg,Rietwiesstrasse 8,9630,Wattwil
Dr. H. Wettler,"Neue Jonastrasse 85, 8640 Rapperswil SG",St. Gallen,https://www.onedoc.ch/de/medizinisches-zentrum/rapperswil-sg/e0am/dr-h-wettler,Neue Jonastrasse 85,8640,Rapperswil SG
Gemeinschaftspraxis Arnegg,"Toreggstrasse 3, 9212 Gossau SG",St. Gallen,https://www.onedoc.ch/de/medizinisches-zentrum/gossau/eumr/gemeinschaftspraxis-arnegg,Toreggstrasse 3,9212,Gossau SG
Hausarztpraxis Dr. M. Strässle-Pfister,"Sulzweidstrasse 16a, 8737 Gommiswald",St. Gallen,https://www.onedoc.ch/de/medizinisches-zentrum/gommiswald/eulo/hausarztpraxis-dr-m-strassle-pfister,Sulzweidstrasse 16a,8737,Gommiswald
Medbase Abtwil,"Wiesenbachstrasse 5, 9030 Gaiserwald",St. Gallen,https://www.onedoc.ch/de/medizinisches-zentrum/gaiserwald/era2/medbase-abtwil,Wiesenbachstrasse 5,9030,Gaiserwald
Medbase Diepoldsau,"Vordere Kirchstrasse 8, 9444 Diepoldsau",St. Gallen,https://www.onedoc.ch/de/medizinisches-zentrum/diepoldsau/eund/medbase-diepoldsau,Vordere Kirchstrasse 8,9444,Diepoldsau
Medbase Heerbrugg,"Aechelistrasse 6, 9435 Au SG",St. Gallen,https://www.onedoc.ch/de/medizinisches-zentrum/au/euop/medbase-heerbrugg,Aechelistrasse 6,9435,Au SG
Medbase Rorschach,"Adolf-Gaudy-Weg 2b, 9400 Rorschach",St. Gallen,https://www.onedoc.ch/de/medizinisches-zentrum/rorschach/eunh/medbase-rorschach,Adolf-Gaudy-Weg 2b,9400,Rorschach
Medbase St. Gallen Am Vadianplatz,"Vadianstrasse 26, 9000 St. Gallen",St. Gallen,https://www.onedoc.ch/de/medizinisches-zentrum/st-gallen/eul1/medbase-st-gallen-am-vadianplatz,Vadianstrasse 26,9000,St. Gallen
Medbase St. Gallen Einstein,"Wassergasse 7, 9000 St. Gallen",St. Gallen,https://www.onedoc.ch/de/medizinisches-zentrum/st-gallen/eun0/medbase-st-gallen-einstein,Wassergasse 7,9000,St. Gallen
Medbase Thal,"Wiesentalstrasse 4, 9425 Thal",St. Gallen,https://www.onedoc.ch/de/medizinisches-zentrum/thal/e22x/medbase-thal,Wiesentalstrasse 4,9425,Thal
Medbase Uzwil,"Bahnhofstrasse 82, 9240 Uzwil",St. Gallen,https://www.onedoc.ch/de/medizinisches-zentrum/uzwil/eull/medbase-uzwil,Bahnhofstrasse 82,9240,Uzwil
Medbase Wattwil,"Bahnhofstrasse 4, 9630 Wattwil",St. Gallen,https://www.onedoc.ch/de/medizinisches-zentrum/wattwil/euul/medbase-wattwil,Bahnhofstrasse 4,9630,Wattwil
Medbase Wil Poststrasse,"Poststrasse 19, 9500 Wil SG",St. Gallen,https://www.onedoc.ch/de/medizinisches-zentrum/wil/eq8f/medbase-wil-poststrasse,Poststrasse 19,9500,Wil SG
Medizinisches Zentrum Rorschach,"Marktplatz 9, 9400 Rorschach",St. Gallen,https://www.onedoc.ch/de/medizinisches-zentrum/rorschach/eq9q/medizinisches-zentrum-rorschach,Marktplatz 9,9400,Rorschach
MeinArzt Buchs,"Bahnhofstrasse 57, 9470 Buchs SG",St. Gallen,https://www.onedoc.ch/de/medizinisches-zentrum/buchs/ez7d/meinarzt-buchs,Bahnhofstrasse 57,9470,Buchs SG
Orthopädie Rosenberg,"Rorschacher Strasse 150, 9000 St. Gallen",St. Gallen,https://www.onedoc.ch/de/medizinisches-zentrum/st-gallen/eoyj/orthopadie-rosenberg,Rorschacher Strasse 150,9000,St. Gallen
PizolCare Praxis,"Bahnhofpark 2a, 7320 Sargans",St. Gallen,https://www.onedoc.ch/de/medizinisches-zentrum/sargans/eune/pizolcare-praxis,Bahnhofpark 2a,7320,Sargans
Praxis am Rhy,"Schützenwiese 8, 9451 Kriessern",St. Gallen,https://www.onedoc.ch/de/medizinisches-zentrum/kriessern/euom/praxis-am-rhy,Schützenwiese 8,9451,Kriessern
Praxis Dr. med. Kaergel Daniela,"Bahnhofstrasse 12, 7320 Sargans",St. Gallen,https://www.onedoc.ch/de/medizinisches-zentrum/sargans/eung/praxis-dr-med-kaergel-daniela,Bahnhofstrasse 12,7320,Sargans
Praxis Tulpenstrasse,"Tulpenstrasse 1A, 9533 Kirchberg SG",St. Gallen,https://www.onedoc.ch/de/medizinisches-zentrum/kirchberg/euo9/praxis-tulpenstrasse,Tulpenstrasse 1A,9533,Kirchberg SG
rappjmed AG,"Allmeindstrasse 5, 8645 Rapperswil-Jona",St. Gallen,https://www.onedoc.ch/de/medizinisches-zentrum/rapperswil-jona/eos6/rappjmed-ag,Allmeindstrasse 5,8645,Rapperswil-Jona
Tumor- und BrustZentrum Ostschweiz St. Gallen,"Rorschacher Strasse 286, 9016 St. Gallen",St. Gallen,https://www.onedoc.ch/de/medizinisches-zentrum/st-gallen/e77e/tumor-und-brustzentrum-ostschweiz-st-gallen,Rorschacher Strasse 286,9016,St. Gallen
Tumorzentrum ZeTuP Rapperswil-Jona,"Alte Jonastrasse 24, 8640 Rapperswil",St. Gallen,https://www.onedoc.ch/de/medizinisches-zentrum/rapperswil/eoxt/tumorzentrum-zetup-rapperswil-jona,Alte Jonastrasse 24,8640,Rapperswil
Ärzte im Zentrum,"Rathausstrasse 17, 8570 Weinfelden",Thurgau,https://www.onedoc.ch/de/medizinisches-zentrum/weinfelden/evd0/arzte-im-zentrum,Rathausstrasse 17,8570,Weinfelden
Ärztezentrum im Hamel,"Stickereistrasse 4, 9320 Arbon",Thurgau,https://www.onedoc.ch/de/medizinisches-zentrum/arbon/eves/arztezentrum-im-hamel,Stickereistrasse 4,9320,Arbon
Ärztezentrum Müllheim AG,"Hintere Gärten 8, 8555 Müllheim",Thurgau,https://www.onedoc.ch/de/medizinisches-zentrum/mullheim/emun/arztezentrum-mullheim-ag,Hintere Gärten 8,8555,Müllheim
Augenzentrum Frauenfeld,"Oberstadtstrasse 4, 8500 Frauenfeld",Thurgau,https://www.onedoc.ch/de/medizinisches-zentrum/frauenfeld/emvu/augenzentrum-frauenfeld,Oberstadtstrasse 4,8500,Frauenfeld
Augenzentrum Kreuzlingen,"Nationalstrasse 6, 8280 Kreuzlingen",Thurgau,https://www.onedoc.ch/de/medizinisches-zentrum/kreuzlingen/eveq/augenzentrum-kreuzlingen,Nationalstrasse 6,8280,Kreuzlingen
Augenzentrum ONO Weinfelden,"Marktstrasse 6, 8570 Weinfelden",Thurgau,https://www.onedoc.ch/de/medizinisches-zentrum/weinfelden/e1qu/augenzentrum-ono-weinfelden,Marktstrasse 6,8570,Weinfelden
Dr. med. Eric Schneider Arztpraxis am Bodensee,"Bahnhofstrasse 16, 8590 Romanshorn",Thurgau,https://www.onedoc.ch/de/medizinisches-zentrum/romanshorn/e0hs/dr-med-eric-schneider-arztpraxis-am-bodensee,Bahnhofstrasse 16,8590,Romanshorn
Hausarztzentrum Weinfelden,"Bankstrasse 2, 8570 Weinfelden",Thurgau,https://www.onedoc.ch/de/medizinisches-zentrum/weinfelden/emuj/hausarztzentrum-weinfelden,Bankstrasse 2,8570,Weinfelden
Kardiologie Weinfelden,"Rathausstrasse 11, 8570 Weinfelden",Thurgau,https://www.onedoc.ch/de/medizinisches-zentrum/weinfelden/evgm/kardiologie-weinfelden,Rathausstrasse 11,8570,Weinfelden
Medbase Amriswil,"Kirchstrasse 9, 8580 Sommeri",Thurgau,https://www.onedoc.ch/de/medizinisches-zentrum/sommeri/e8af/medbase-amriswil,Kirchstrasse 9,8580,Sommeri
Medbase Bischofszell,"Poststrasse 2, 9220 Bischofszell",Thurgau,https://www.onedoc.ch/de/medizinisches-zentrum/bischofszell/evg5/medbase-bischofszell,Poststrasse 2,9220,Bischofszell
Medbase Frauenfeld,"Unterer Graben 1, 8500 Frauenfeld",Thurgau,https://www.onedoc.ch/de/medizinisches-zentrum/frauenfeld/elhm/medbase-frauenfeld,Unterer Graben 1,8500,Frauenfeld
Medbase Kreuzlingen,"Brückenstrasse 11, 8280 Kreuzlingen",Thurgau,https://www.onedoc.ch/de/medizinisches-zentrum/kreuzlingen/eveg/medbase-kreuzlingen,Brückenstrasse 11,8280,Kreuzlingen
Medbase Weinfelden,"Marktplatz 3, 8570 Weinfelden",Thurgau,https://www.onedoc.ch/de/medizinisches-zentrum/weinfelden/evfr/medbase-weinfelden,Marktplatz 3,8570,Weinfelden
Medizinisches Zentrum Arbon,"Schlossgasse 4, 9320 Arbon",Thurgau,https://www.onedoc.ch/de/medizinisches-zentrum/arbon/eusf/medizinisches-zentrum-arbon,Schlossgasse 4,9320,Arbon
Medizinisches Zentrum Kemmental,"Alterswilerstrasse 9, 8573 Kemmental",Thurgau,https://www.onedoc.ch/de/medizinisches-zentrum/kemmental/evfp/medizinisches-zentrum-kemmental,Alterswilerstrasse 9,8573,Kemmental
Orthopädie am See,"Löwenstrasse 16, 8280 Kreuzlingen",Thurgau,https://www.onedoc.ch/de/medizinisches-zentrum/kreuzlingen/eve1/orthopadie-am-see,Löwenstrasse 16,8280,Kreuzlingen
Praxis Dr. med. Stäheli Hansruedi,"Alterswilerstrasse 9, 8573 Kemmental",Thurgau,https://www.onedoc.ch/de/medizinisches-zentrum/kemmental/evhg/praxis-dr-med-staheli-hansruedi,Alterswilerstrasse 9,8573,Kemmental
Praxis im Klosterhof,"Klosterhofstrasse 1, 8280 Kreuzlingen",Thurgau,https://www.onedoc.ch/de/medizinisches-zentrum/kreuzlingen/evev/praxis-im-klosterhof,Klosterhofstrasse 1,8280,Kreuzlingen
Praxis Untermoos AG,"Untermoosstrasse 11, 8355 Aadorf",Thurgau,https://www.onedoc.ch/de/medizinisches-zentrum/aadorf/emps/praxis-untermoos-ag,Untermoosstrasse 11,8355,Aadorf
Schlossberg Ärztezentrum,"Schöntalweg 5, 8546 Islikon",Thurgau,https://www.onedoc.ch/de/medizinisches-zentrum/islikon/evf7/schlossberg-arztezentrum,Schöntalweg 5,8546,Islikon
Schlossberg Ärztezentrum AG,"Bahnhofstrasse 61, 8500 Frauenfeld",Thurgau,https://www.onedoc.ch/de/medizinisches-zentrum/frauenfeld/emoh/schlossberg-arztezentrum-ag,Bahnhofstrasse 61,8500,Frauenfeld
Schlossberg Ärztezentrum Mühli,"Mühle 2, 9548 Matzingen",Thurgau,https://www.onedoc.ch/de/medizinisches-zentrum/matzingen/eve2/schlossberg-arztezentrum-muhli,Mühle 2,9548,Matzingen
Vassiliki Bekou - Praxis Kreuzlingen,"Brückenstrasse 11, 8280 Kreuzlingen",Thurgau,https://www.onedoc.ch/de/medizinisches-zentrum/kreuzlingen/e1rv/vassiliki-bekou-praxis-kreuzlingen,Brückenstrasse 11,8280,Kreuzlingen
Ärztezentrum Adligenswil AG,"Im Zentrum 20, 6043 Adligenswil",Luzern,https://www.onedoc.ch/de/medizinisches-zentrum/adligenswil/eogx/arztezentrum-adligenswil-ag,Im Zentrum 20,6043,Adligenswil
Ärztezentrum Malters,"Luzernstrasse 45, 6102 Malters",Luzern,https://www.onedoc.ch/de/medizinisches-zentrum/malters/et0i/arztezentrum-malters,Luzernstrasse 45,6102,Malters
Ärztezentrum Schönbühl AG,"Langensandstrasse 23, 6005 Luzern",Luzern,https://www.onedoc.ch/de/medizinisches-zentrum/luzern/eogo/arztezentrum-schonbuhl-ag,Langensandstrasse 23,6005,Luzern
Ärztezentrum Seetal 11,"Seetalstrasse 11, 6020 Emmenbrücke",Luzern,https://www.onedoc.ch/de/medizinisches-zentrum/emmenbrucke/etye/arztezentrum-seetal-11,Seetalstrasse 11,6020,Emmenbrücke
Augenärzte Zentrum Luzern,"Bahnhofstrasse 7, 6003 Luzern",Luzern,https://www.onedoc.ch/de/medizinisches-zentrum/luzern/e72y/augenarzte-zentrum-luzern,Bahnhofstrasse 7,6003,Luzern
Augenärztezentrum Trotte,"Bahnhofstrasse 15, 6210 Sursee",Luzern,https://www.onedoc.ch/de/medizinisches-zentrum/sursee/etzq/augenarztezentrum-trotte,Bahnhofstrasse 15,6210,Sursee
Augenzentrum Willisau,"Ettiswilerstrasse 12/14, 6130 Willisau",Luzern,https://www.onedoc.ch/de/medizinisches-zentrum/willisau/eliz/augenzentrum-willisau,Ettiswilerstrasse 12/14,6130,Willisau
Botenhofpraxis AG,"Botenhofstrasse 4, 6205 Eich",Luzern,https://www.onedoc.ch/de/medizinisches-zentrum/eich/ezz1/botenhofpraxis-ag,Botenhofstrasse 4,6205,Eich
Centramed Lucerne,"Frankenstrasse 2, 6003 Luzern",Luzern,https://www.onedoc.ch/de/medizinisches-zentrum/luzern/etyw/centramed-lucerne,Frankenstrasse 2,6003,Luzern
Gesundheitszentrum Beromünster Spielmatte 1 Gunzwil,"Spielmatte 1, 6222 Gunzwil",Luzern,https://www.onedoc.ch/de/medizinisches-zentrum/gunzwil/etyg/gesundheitszentrum-beromunster-spielmatte-1-gunzwil,Spielmatte 1,6222,Gunzwil
GesundheitsZentrum Buttisholz AG,"Arigstrasse 17, 6018 Buttisholz",Luzern,https://www.onedoc.ch/de/medizinisches-zentrum/buttisholz/eodw/gesundheitszentrum-buttisholz-ag,Arigstrasse 17,6018,Buttisholz
Gesundheitszentrum Dr. Annen AG,"Bahnhofstrasse 24, 6037 Root",Luzern,https://www.onedoc.ch/de/medizinisches-zentrum/root/eogg/gesundheitszentrum-dr-annen-ag,Bahnhofstrasse 24,6037,Root
Gesundheitszentrum Escholzmatt,"Bahnhofstrasse 11, 6182 Escholzmatt",Luzern,https://www.onedoc.ch/de/medizinisches-zentrum/escholzmatt/etw1/gesundheitszentrum-escholzmatt,Bahnhofstrasse 11,6182,Escholzmatt
Gruppenpraxis Dr. P. und Th. Studer,"Bahnhofstrasse 4, 6170 Schüpfheim LU",Luzern,https://www.onedoc.ch/de/medizinisches-zentrum/schupfheim/ezxw/gruppenpraxis-dr-p-und-th-studer,Bahnhofstrasse 4,6170,Schüpfheim LU
gyn-zentrum Bahnhof,"Zentralstrasse 1, 6003 Luzern",Luzern,https://www.onedoc.ch/de/medizinisches-zentrum/luzern/et2k/gyn-zentrum-bahnhof,Zentralstrasse 1,6003,Luzern
gyn-zentrum Haldenstrasse,"Haldenstrasse 11, 6006 Luzern",Luzern,https://www.onedoc.ch/de/medizinisches-zentrum/luzern/ety7/gyn-zentrum-haldenstrasse,Haldenstrasse 11,6006,Luzern
Hausärzte Friedeck,"Bertiswilstrasse 26, 6023 Rothenburg",Luzern,https://www.onedoc.ch/de/medizinisches-zentrum/rothenburg/etxf/hausarzte-friedeck,Bertiswilstrasse 26,6023,Rothenburg
Löwenpraxis,"Zürichstrasse 12, 6004 Luzern",Luzern,https://www.onedoc.ch/de/medizinisches-zentrum/luzern/eocn/lowenpraxis,Zürichstrasse 12,6004,Luzern
Medbase Kriens Mattenhof,"Am Mattenhof 4, 6010 Kriens",Luzern,https://www.onedoc.ch/de/medizinisches-zentrum/kriens/et2c/medbase-kriens-mattenhof,Am Mattenhof 4,6010,Kriens
Medbase Luzern Allmend,"Zihlmattweg 46, 6005 Luzern",Luzern,https://www.onedoc.ch/de/medizinisches-zentrum/luzern/etzr/medbase-luzern-allmend,Zihlmattweg 46,6005,Luzern
medici aerztezentrum,"Sankt Urbanstrasse 8, 6144 Zell LU",Luzern,https://www.onedoc.ch/de/medizinisches-zentrum/zell/etxj/medici-aerztezentrum,Sankt Urbanstrasse 8,6144,Zell LU
Medizin360°,"Würzenbachstrasse 3, 6006 Luzern",Luzern,https://www.onedoc.ch/de/medizinisches-zentrum/luzern/ezws/medizin360,Würzenbachstrasse 3,6006,Luzern
Monvia Gesundheitszentrum Hochdorf - Monvia,"Brauiplatz 4, 6280 Hochdorf",Luzern,https://www.onedoc.ch/de/medizinisches-zentrum/hochdorf/etx8/monvia-gesundheitszentrum-hochdorf-monvia,Brauiplatz 4,6280,Hochdorf
Monvia Gesundheitszentrum Inwil,"Hauptstrasse 35, 6034 Inwil",Luzern,https://www.onedoc.ch/de/medizinisches-zentrum/inwil/etxt/monvia-gesundheitszentrum-inwil,Hauptstrasse 35,6034,Inwil
narkose.ch Meggen,"Huobmattstrasse 3, 6045 Meggen",Luzern,https://www.onedoc.ch/de/medizinisches-zentrum/meggen/et0p/narkose-ch-meggen,Huobmattstrasse 3,6045,Meggen
OnkoZentrum Luzern,"St. Anna-Strasse 32, 6006 Luzern",Luzern,https://www.onedoc.ch/de/medizinisches-zentrum/luzern/ety3/onkozentrum-luzern,St. Anna-Strasse 32,6006,Luzern
Orthopädische Klinik Luzern,"St. Anna-Strasse 32, 6006 Luzern",Luzern,https://www.onedoc.ch/de/medizinisches-zentrum/luzern/et10/orthopadische-klinik-luzern,St. Anna-Strasse 32,6006,Luzern
Pilatus Praxis,"Hallwilerweg 2, 6003 Luzern",Luzern,https://www.onedoc.ch/de/medizinisches-zentrum/luzern/etyz/pilatus-praxis,Hallwilerweg 2,6003,Luzern
Praxisgemeinschaft am Lindenberg,"Bahnhofstrasse 12d, 6285 Hitzkirch",Luzern,https://www.onedoc.ch/de/medizinisches-zentrum/hitzkirch/etwz/praxisgemeinschaft-am-lindenberg,Bahnhofstrasse 12d,6285,Hitzkirch
Städtlipraxis Sempach,"Hildisriederstrasse 6, 6204 Sempach",Luzern,https://www.onedoc.ch/de/medizinisches-zentrum/sempach/eogj/stadtlipraxis-sempach,Hildisriederstrasse 6,6204,Sempach
Swiss Medi Kids Luzern,"Seidenhofstrasse 9, 6003 Luzern",Luzern,https://www.onedoc.ch/de/medizinisches-zentrum/luzern/e26z/swiss-medi-kids-luzern,Seidenhofstrasse 9,6003,Luzern
Unimedica Praxis,"Spyr 20, 6017 Ruswil",Luzern,https://www.onedoc.ch/de/medizinisches-zentrum/ruswil/etwn/unimedica-praxis,Spyr 20,6017,Ruswil
Zentrum für Kinder- und Jugendmedizin,"Gerliswilstrasse 74, 6020 Emmen",Luzern,https://www.onedoc.ch/de/medizinisches-zentrum/emmen/ezxv/zentrum-fur-kinder-und-jugendmedizin,Gerliswilstrasse 74,6020,Emmen
Augenzentrum MurtenSEH,"Engelhardstrasse 2a, 3280 Murten FR",Freiburg,https://www.onedoc.ch/de/medizinisches-zentrum/murten/esrt/augenzentrum-murtenseh,Engelhardstrasse 2a,3280,Murten FR
Augenzentrum ONO Centre de l'oeil Dr. Aus der Au Fribourg,"Route des Arsenaux 3C, 1700 Freiburg",Freiburg,https://www.onedoc.ch/de/medizinisches-zentrum/freiburg/ebahv/augenzentrum-ono-centre-de-l-oeil-dr-aus-der-au-fribourg,Route des Arsenaux 3C,1700,Freiburg
Bulle Santé,"Rue de Gruyères 47, 1630 Bulle",Freiburg,https://www.onedoc.ch/de/medizinisches-zentrum/bulle/ep8c/bulle-sante,Rue de Gruyères 47,1630,Bulle
Cabinet de groupe Dr. Ducrest Mauron / Dr. Geiser Genoud / Dr. Luisoni / Dr. Morel / Dr. Morel,"Avenue de la Gare 3, 1630 Bulle",Freiburg,https://www.onedoc.ch/de/medizinisches-zentrum/bulle/ebos/cabinet-de-groupe-dr-ducrest-mauron-dr-geiser-genoud-dr-luisoni-dr-morel-dr-morel,Avenue de la Gare 3,1630,Bulle
Cabinet de psychothérapie JA,"Rue du Centre 12, 1752 Villars-sur-Glâne",Freiburg,https://www.onedoc.ch/de/medizinisches-zentrum/villars-sur-glane/ep1n/cabinet-de-psychotherapie-ja,Rue du Centre 12,1752,Villars-sur-Glâne
Cabinet Dr. Mariotti,"Rue de la Lécheretta 4, 1630 Bulle",Freiburg,https://www.onedoc.ch/de/medizinisches-zentrum/bulle/es16/cabinet-dr-mariotti,Rue de la Lécheretta 4,1630,Bulle
Cabinet médical de groupe de Courtepin,"Route du Postillon 5, 1784 Courtepin",Freiburg,https://www.onedoc.ch/de/medizinisches-zentrum/courtepin/ebqp/cabinet-medical-de-groupe-de-courtepin,Route du Postillon 5,1784,Courtepin
Centre Clinimed Fribourg | Médecine générale,"Route du Midi 12a, 1723 Marly",Freiburg,https://www.onedoc.ch/de/medizinisches-zentrum/marly/e836/centre-clinimed-fribourg-medecine-generale,Route du Midi 12a,1723,Marly
Centre Crohn-Colitis,"Chemin des Pensionnats 1, 1700 Freiburg",Freiburg,https://www.onedoc.ch/de/medizinisches-zentrum/freiburg/erq0/centre-crohn-colitis,Chemin des Pensionnats 1,1700,Freiburg
Centre de Gastroenterologie Bulle,"Route de la Pâla 100, 1630 Bulle",Freiburg,https://www.onedoc.ch/de/medizinisches-zentrum/bulle/eb03/centre-de-gastroenterologie-bulle,Route de la Pâla 100,1630,Bulle
Centre medical 3D,"Grand-Rue 14, 1680 Romont FR",Freiburg,https://www.onedoc.ch/de/medizinisches-zentrum/romont/es0n/centre-medical-3d,Grand-Rue 14,1680,Romont FR
Centre Médical de la Glâne,"Route de l'Hôpital 1, 1681 Hennens",Freiburg,https://www.onedoc.ch/de/medizinisches-zentrum/hennens/ebr2/centre-medical-de-la-glane,Route de l'Hôpital 1,1681,Hennens
Centre médical de la Haute-Sarine,"Passage du Querro 6, 1724 Le Mouret",Freiburg,https://www.onedoc.ch/de/medizinisches-zentrum/le-mouret/ezks/centre-medical-de-la-haute-sarine,Passage du Querro 6,1724,Le Mouret
Centre Médical de la Veveyse,"Place d'Armes 30, 1618 Châtel-Saint-Denis",Freiburg,https://www.onedoc.ch/de/medizinisches-zentrum/chatel-saint-denis/esyj/centre-medical-de-la-veveyse,Place d'Armes 30,1618,Châtel-Saint-Denis
Centre Médical de la Victoire,"Route du Bugnon 43, 1752 Villars-sur-Glâne",Freiburg,https://www.onedoc.ch/de/medizinisches-zentrum/villars-sur-glane/es0h/centre-medical-de-la-victoire,Route du Bugnon 43,1752,Villars-sur-Glâne
Centre médical Givimed,"Route André Piller 16, 1762 Givisiez",Freiburg,https://www.onedoc.ch/de/medizinisches-zentrum/givisiez/e8ee/centre-medical-givimed,Route André Piller 16,1762,Givisiez
Centre médical Givision,"Route André Piller 29, 1762 Givisiez",Freiburg,https://www.onedoc.ch/de/medizinisches-zentrum/givisiez/e15s/centre-medical-givision,Route André Piller 29,1762,Givisiez
"CMT Estavayer SA HIB, Hôpital 1","Rue de l'hopital 1, 1470 Estavayer",Freiburg,https://www.onedoc.ch/de/medizinisches-zentrum/estavayer/e1sl/cmt-estavayer-sa-hib-hopital-1,Rue de l'hopital 1,1470,Estavayer
Endiamed,"Place de la Gare 11, 1630 Bulle",Freiburg,https://www.onedoc.ch/de/medizinisches-zentrum/bulle/e1uj/endiamed,Place de la Gare 11,1630,Bulle
Groupe Médical de Bertigny,"Avenue Jean-Paul II 5, 1752 Villars-sur-Glâne",Freiburg,https://www.onedoc.ch/de/medizinisches-zentrum/villars-sur-glane/esyy/groupe-medical-de-bertigny,Avenue Jean-Paul II 5,1752,Villars-sur-Glâne
Groupe Médical de la Tour,"Route de l'Intyamon 113, 1635 La Tour-de-Trême",Freiburg,https://www.onedoc.ch/de/medizinisches-zentrum/la-tour-de-treme/es0b/groupe-medical-de-la-tour,Route de l'Intyamon 113,1635,La Tour-de-Trême
Medbase Fribourg,"Rue Louis-d'Affry 2, 1700 Freiburg",Freiburg,https://www.onedoc.ch/de/medizinisches-zentrum/freiburg/e168/medbase-fribourg,Rue Louis-d'Affry 2,1700,Freiburg
"Miyabi, médecine esthétique - Centre Médical Givimed","Route André Piller 16, 1762 Givisiez",Freiburg,https://www.onedoc.ch/de/medizinisches-zentrum/givisiez/eqpk/miyabi-medecine-esthetique-centre-medical-givimed,Route André Piller 16,1762,Givisiez
Permanence Médicale de Fribourg,"Rue Georges-Jordil 4, 1700 Freiburg",Freiburg,https://www.onedoc.ch/de/medizinisches-zentrum/freiburg/ezjj/permanence-medicale-de-fribourg,Rue Georges-Jordil 4,1700,Freiburg
THOLOS centre médical,"Route du Pâqui 5, 1720 Corminboeuf",Freiburg,https://www.onedoc.ch/de/medizinisches-zentrum/corminboeuf/esx1/tholos-centre-medical,Route du Pâqui 5,1720,Corminboeuf
Allergocentro,"Via Giovanni Nizzola 2, 6900 Lugano",Tessin,https://www.onedoc.ch/de/medizinisches-zentrum/lugano/e0fr/allergocentro,Via Giovanni Nizzola 2,6900,Lugano
centromedico Bellinzona - PDS Medical,"Viale Officina 7, 6500 Bellinzona",Tessin,https://www.onedoc.ch/de/medizinisches-zentrum/bellinzona/euwi/centromedico-bellinzona-pds-medical,Viale Officina 7,6500,Bellinzona
Centro medico Blenio,"Campagna 5, 6719 Aquila",Tessin,https://www.onedoc.ch/de/medizinisches-zentrum/aquila/eu5j/centro-medico-blenio,Campagna 5,6719,Aquila
centromedico Chiasso - PDS Medical,"Corso San Gottardo 6 e 13, 6830 Chiasso",Tessin,https://www.onedoc.ch/de/medizinisches-zentrum/chiasso/eu0i/centromedico-chiasso-pds-medical,Corso San Gottardo 6 e 13,6830,Chiasso
centromedico Lugano Centro - PDS Medical,"Via Giuseppe Petrini 2, 6900 Lugano",Tessin,https://www.onedoc.ch/de/medizinisches-zentrum/lugano/et4v/centromedico-lugano-centro-pds-medical,Via Giuseppe Petrini 2,6900,Lugano
Centromedico Lugano - PDS Medical,"Piazzale della Stazione 3, 6900 Lugano",Tessin,https://www.onedoc.ch/de/medizinisches-zentrum/lugano/euv3/centromedico-lugano-pds-medical,Piazzale della Stazione 3,6900,Lugano
Centro oftalmologico Piazza del Sole 5 Bellinzona,"Piazza del Sole 5, 6500 Bellinzona",Tessin,https://www.onedoc.ch/de/medizinisches-zentrum/bellinzona/euw3/centro-oftalmologico-piazza-del-sole-5-bellinzona,Piazza del Sole 5,6500,Bellinzona
Centro Pediatrico del Mendrisiotto SA,"Via Beroldingen 26, 6850 Mendrisio",Tessin,https://www.onedoc.ch/de/medizinisches-zentrum/mendrisio/euy0/centro-pediatrico-del-mendrisiotto-sa,Via Beroldingen 26,6850,Mendrisio
Epatocentro,"Via Soldino 5, 6900 Lugano",Tessin,https://www.onedoc.ch/de/medizinisches-zentrum/lugano/euzd/epatocentro,Via Soldino 5,6900,Lugano
GyneCentro Ticino,"Via Sant'Anna 1, 6924 Sorengo",Tessin,https://www.onedoc.ch/de/medizinisches-zentrum/sorengo/eu1f/gynecentro-ticino,Via Sant'Anna 1,6924,Sorengo
Il pediatra Studio di pediatria,"Via Alberto di Sacco 1, 6500 Bellinzona",Tessin,https://www.onedoc.ch/de/medizinisches-zentrum/bellinzona/euxe/il-pediatra-studio-di-pediatria,Via Alberto di Sacco 1,6500,Bellinzona
Medicalvillage,"Via Cantonale 38, 6928 Manno",Tessin,https://www.onedoc.ch/de/medizinisches-zentrum/manno/eux3/medicalvillage,Via Cantonale 38,6928,Manno
Studio Medico Dr. Bosia / Dr. Cassina / Dr. Cometta / Dr. Neuenschwander / Dr. med Tenzi Marbach,"Via Trevano 62, 6900 Lugano",Tessin,https://www.onedoc.ch/de/medizinisches-zentrum/lugano/euv4/studio-medico-dr-bosia-dr-cassina-dr-cometta-dr-neuenschwander-dr-med-tenzi-marbach,Via Trevano 62,6900,Lugano
Studio medico Dr. med. Mazzi Rodolfo - Dr. med. Morales Elizabeth,"Piazza Grande 22, 6600 Locarno",Tessin,https://www.onedoc.ch/de/medizinisches-zentrum/locarno/e0dn/studio-medico-dr-med-mazzi-rodolfo-dr-med-morales-elizabeth,Piazza Grande 22,6600,Locarno
Studio Medico Dr. Toderi Brancaleone - Bellinzona,"Via Franco Zorzi 36, 6500 Bellinzona",Tessin,https://www.onedoc.ch/de/medizinisches-zentrum/bellinzona/e0f2/studio-medico-dr-toderi-brancaleone-bellinzona,Via Franco Zorzi 36,6500,Bellinzona
Studio Medico Swiss Meridian Bellinzona - Swiss Meridian,"Via San Gottardo 58e, 6500 Bellinzona",Tessin,https://www.onedoc.ch/de/medizinisches-zentrum/bellinzona/e0dh/studio-medico-swiss-meridian-bellinzona-swiss-meridian,Via San Gottardo 58e,6500,Bellinzona
Studio Medico Swiss Meridian Muralto - Swiss Meridian,"Via Santo Stefano 1 , 6600 Muralto",Tessin,https://www.onedoc.ch/de/medizinisches-zentrum/muralto/e0db/studio-medico-swiss-meridian-muralto-swiss-meridian,Via Santo Stefano 1,6600,Muralto
Studio Oculistico Medimi - Presso Lugano Care,"Via Pian Scairolo 34A, 6915 Pambio-Noranco",Tessin,https://www.onedoc.ch/de/medizinisches-zentrum/pambio-noranco/eu2n/studio-oculistico-medimi-presso-lugano-care,Via Pian Scairolo 34A,6915,Pambio-Noranco
ADMEDICO Augenzentrum,"Fährweg 10, 4600 Olten",Solothurn,https://www.onedoc.ch/de/medizinisches-zentrum/olten/euh4/admedico-augenzentrum,Fährweg 10,4600,Olten
Aerztegemeinschaft Luterbach,"Hauptstrasse 38, 4542 Luterbach",Solothurn,https://www.onedoc.ch/de/medizinisches-zentrum/luterbach/euh2/aerztegemeinschaft-luterbach,Hauptstrasse 38,4542,Luterbach
Ärztezentrum Brüggli Park,"Junkernbrunnenweg 1, 4657 Dulliken",Solothurn,https://www.onedoc.ch/de/medizinisches-zentrum/dulliken/euia/arztezentrum-bruggli-park,Junkernbrunnenweg 1,4657,Dulliken
Ärztezentrum Kofmehl-Huus,"Luzernstrasse 30, 4553 Subingen",Solothurn,https://www.onedoc.ch/de/medizinisches-zentrum/subingen/eo6w/arztezentrum-kofmehl-huus,Luzernstrasse 30,4553,Subingen
Ärztezentrum Leuenfeld,"Leuenstrasse 2, 4702 Oensingen",Solothurn,https://www.onedoc.ch/de/medizinisches-zentrum/oensingen/euil/arztezentrum-leuenfeld,Leuenstrasse 2,4702,Oensingen
Ärztezentrum Lüsselpark,"Lüsselpark 1, 4226 Breitenbach",Solothurn,https://www.onedoc.ch/de/medizinisches-zentrum/breitenbach/em7e/arztezentrum-lusselpark,Lüsselpark 1,4226,Breitenbach
Ärztezentrum Solothurn,"Luzernstrasse 5, 4500 Solothurn",Solothurn,https://www.onedoc.ch/de/medizinisches-zentrum/solothurn/eoy5/arztezentrum-solothurn,Luzernstrasse 5,4500,Solothurn
Augenarztpraxis an der Aare,"Frohburgstrasse 4, 4600 Olten",Solothurn,https://www.onedoc.ch/de/medizinisches-zentrum/olten/ebaup/augenarztpraxis-an-der-aare,Frohburgstrasse 4,4600,Olten
Augenklinik Heuberger,"Fährweg 10, 4600 Olten",Solothurn,https://www.onedoc.ch/de/medizinisches-zentrum/olten/erkk/augenklinik-heuberger,Fährweg 10,4600,Olten
fertiSuisse,"Tannwaldstrasse 2, 4600 Olten",Solothurn,https://www.onedoc.ch/de/medizinisches-zentrum/olten/erj0/fertisuisse,Tannwaldstrasse 2,4600,Olten
Gesundheitszentrum Egerkingen,"Einschlagstrasse 58A, 4622 Egerkingen",Solothurn,https://www.onedoc.ch/de/medizinisches-zentrum/egerkingen/eujc/gesundheitszentrum-egerkingen,Einschlagstrasse 58A,4622,Egerkingen
Gesundheitszentrum Thal,"Dorfstrasse 53, 4713 Matzendorf",Solothurn,https://www.onedoc.ch/de/medizinisches-zentrum/matzendorf/eujn/gesundheitszentrum-thal,Dorfstrasse 53,4713,Matzendorf
Gruppenpraxis für Kinder und Jugendliche Notfall,"Schöngrünstrasse 42, 4500 Solothurn",Solothurn,https://www.onedoc.ch/de/medizinisches-zentrum/solothurn/eo8t/gruppenpraxis-fur-kinder-und-jugendliche-notfall,Schöngrünstrasse 42,4500,Solothurn
Gruppenpraxis Käsirain,"Leutholdstrasse 4, 4562 Biberist",Solothurn,https://www.onedoc.ch/de/medizinisches-zentrum/biberist/eo5r/gruppenpraxis-kasirain,Leutholdstrasse 4,4562,Biberist
Gruppenpraxis Neuhard,"Neuhardstrasse 38, 4600 Olten",Solothurn,https://www.onedoc.ch/de/medizinisches-zentrum/olten/epbh/gruppenpraxis-neuhard,Neuhardstrasse 38,4600,Olten
Gruppenpraxis Weststadt,"Bielstrasse 109, 4500 Solothurn",Solothurn,https://www.onedoc.ch/de/medizinisches-zentrum/solothurn/euhr/gruppenpraxis-weststadt,Bielstrasse 109,4500,Solothurn
MEDISYN Solothurn,"Obachstrasse 33, 4500 Solothurn",Solothurn,https://www.onedoc.ch/de/medizinisches-zentrum/solothurn/e2lf/medisyn-solothurn,Obachstrasse 33,4500,Solothurn
Augenzentrum Bahnhof Basel AG,"Centralbahnstrasse 20, 4051 Basel",Basel-Stadt,https://www.onedoc.ch/de/medizinisches-zentrum/basel/enn7/augenzentrum-bahnhof-basel-ag,Centralbahnstrasse 20,4051,Basel
Augenzentrum Riehen,"Rauracherstrasse 33, 4125 Riehen",Basel-Stadt,https://www.onedoc.ch/de/medizinisches-zentrum/riehen/erk5/augenzentrum-riehen,Rauracherstrasse 33,4125,Riehen
Clarapraxis,"Clarastrasse 15, 4058 Basel",Basel-Stadt,https://www.onedoc.ch/de/medizinisches-zentrum/basel/erit/clarapraxis,Clarastrasse 15,4058,Basel
Dermatologie am Rhein,"Blumenrain 20, 4051 Basel",Basel-Stadt,https://www.onedoc.ch/de/medizinisches-zentrum/basel/ema4/dermatologie-am-rhein,Blumenrain 20,4051,Basel
Gesundheitszentrum St. Johann,"Elsässerstrasse 44, 4056 Basel",Basel-Stadt,https://www.onedoc.ch/de/medizinisches-zentrum/basel/ennj/gesundheitszentrum-st-johann,Elsässerstrasse 44,4056,Basel
Kinderarztpraxis Davidsboden,"Gasstrasse 63, 4056 Basel",Basel-Stadt,https://www.onedoc.ch/de/medizinisches-zentrum/basel/enpd/kinderarztpraxis-davidsboden,Gasstrasse 63,4056,Basel
Medbase Basel Heuwaage,"Innere Margarethenstrasse 5, 4051 Basel",Basel-Stadt,https://www.onedoc.ch/de/medizinisches-zentrum/basel/erlr/medbase-basel-heuwaage,Innere Margarethenstrasse 5,4051,Basel
Medbase Basel St. Elisabethen,"Henric Petri-Strasse 9, 4051 Basel",Basel-Stadt,https://www.onedoc.ch/de/medizinisches-zentrum/basel/ergs/medbase-basel-st-elisabethen,Henric Petri-Strasse 9,4051,Basel
Medbase Toujours Basel Bahnhof,"Centralbahnstrasse 3, 4051 Basel",Basel-Stadt,https://www.onedoc.ch/de/medizinisches-zentrum/basel/erci/medbase-toujours-basel-bahnhof,Centralbahnstrasse 3,4051,Basel
Neurozentrum Basel,"Messeplatz 10, 4058 Basel",Basel-Stadt,https://www.onedoc.ch/de/medizinisches-zentrum/basel/eqzs/neurozentrum-basel,Messeplatz 10,4058,Basel
Praxengemeinschaft Warteckhof,"Grenzacherstrasse 62, 4058 Basel",Basel-Stadt,https://www.onedoc.ch/de/medizinisches-zentrum/basel/erlh/praxengemeinschaft-warteckhof,Grenzacherstrasse 62,4058,Basel
Praxisgemeinschaft Dornacherstrasse,"Dornacherstrasse 88, 4053 Basel",Basel-Stadt,https://www.onedoc.ch/de/medizinisches-zentrum/basel/enj5/praxisgemeinschaft-dornacherstrasse,Dornacherstrasse 88,4053,Basel
Praxis Hammer,"Bläsiring 160, 4057 Basel",Basel-Stadt,https://www.onedoc.ch/de/medizinisches-zentrum/basel/erii/praxis-hammer,Bläsiring 160,4057,Basel
Praxis Holbeinstrasse,"Holbeinstrasse 65, 4051 Basel",Basel-Stadt,https://www.onedoc.ch/de/medizinisches-zentrum/basel/ey31/praxis-holbeinstrasse,Holbeinstrasse 65,4051,Basel
Praxis Youkidoc,"Güterstrasse 90, 4053 Basel",Basel-Stadt,https://www.onedoc.ch/de/medizinisches-zentrum/basel/erif/praxis-youkidoc,Güterstrasse 90,4053,Basel
Viollier,"Spalenring 147, 4055 Basel",Basel-Stadt,https://www.onedoc.ch/de/medizinisches-zentrum/basel/erjb/viollier,Spalenring 147,4055,Basel
Cabinet de groupe Dr. Déruaz / Dr. Déruaz-Drapel,"Avenue Léopold-Robert 11a, 2300 La Chaux-de-Fonds",Neuenburg,https://www.onedoc.ch/de/medizinisches-zentrum/la-chaux-de-fonds/ez2g/cabinet-de-groupe-dr-deruaz-dr-deruaz-drapel,Avenue Léopold-Robert 11a,2300,La Chaux-de-Fonds
Cabinet de groupe Dr. Glassey Perrenoud,"Avenue Léopold-Robert 7, 2300 La Chaux-de-Fonds",Neuenburg,https://www.onedoc.ch/de/medizinisches-zentrum/la-chaux-de-fonds/ez2k/cabinet-de-groupe-dr-glassey-perrenoud,Avenue Léopold-Robert 7,2300,La Chaux-de-Fonds
Cabinet Dr méd. Cottard Cindy et Dr. med. Péter-Contesse Céline,"Avenue Léopold-Robert 47, 2300 La Chaux-de-Fonds",Neuenburg,https://www.onedoc.ch/de/medizinisches-zentrum/la-chaux-de-fonds/ez1w/cabinet-dr-med-cottard-cindy-et-dr-med-peter-contesse-celine,Avenue Léopold-Robert 47,2300,La Chaux-de-Fonds
Cabinet Médical de l'Entre-deux-Lacs,"Rue du Centre 2, 2525 Le Landeron",Neuenburg,https://www.onedoc.ch/de/medizinisches-zentrum/le-landeron/ebh0/cabinet-medical-de-l-entre-deux-lacs,Rue du Centre 2,2525,Le Landeron
Centre Médical de la Charrière,"Rue de la Charrière 63a, 2300 La Chaux-de-Fonds",Neuenburg,https://www.onedoc.ch/de/medizinisches-zentrum/la-chaux-de-fonds/ebboi/centre-medical-de-la-charriere,Rue de la Charrière 63a,2300,La Chaux-de-Fonds
Centre médical de Neuchâtel,"Avenue du 1er-Mars 4, 2000 Neuenburg",Neuenburg,https://www.onedoc.ch/de/medizinisches-zentrum/neuenburg/es1v/centre-medical-de-neuchatel,Avenue du 1er-Mars 4,2000,Neuenburg
Centre médical des Cadolles,"Rue du Plan 28, 2000 Neuenburg",Neuenburg,https://www.onedoc.ch/de/medizinisches-zentrum/neuenburg/e73f/centre-medical-des-cadolles,Rue du Plan 28,2000,Neuenburg
Centre médical du Locle,"Rue Bournot 33, 2400 Le Locle",Neuenburg,https://www.onedoc.ch/de/medizinisches-zentrum/le-locle/ebm4/centre-medical-du-locle,Rue Bournot 33,2400,Le Locle
Médecins de famille de la grande Béroche,"Rue du Temple 4, 2022 Bevaix",Neuenburg,https://www.onedoc.ch/de/medizinisches-zentrum/bevaix/ebn1/medecins-de-famille-de-la-grande-beroche,Rue du Temple 4,2022,Bevaix
Nerys,"Rue Saint-Honoré 2, 2000 Neuenburg",Neuenburg,https://www.onedoc.ch/de/medizinisches-zentrum/neuenburg/ebgo/nerys,Rue Saint-Honoré 2,2000,Neuenburg
Permanence Volta,"Rue Numa-Droz 187, 2300 La Chaux-de-Fonds",Neuenburg,https://www.onedoc.ch/de/medizinisches-zentrum/la-chaux-de-fonds/esaa/permanence-volta,Rue Numa-Droz 187,2300,La Chaux-de-Fonds
Permanence Volta Fleurier,"Avenue de la Gare 5a, 2114 Val-de-Travers",Neuenburg,https://www.onedoc.ch/de/medizinisches-zentrum/val-de-travers/ebboh/permanence-volta-fleurier,Avenue de la Gare 5a,2114,Val-de-Travers
Volta Val-de-Ruz,"Rue Charles-L'Eplattenier 1, 2206 Val-de-Ruz",Neuenburg,https://www.onedoc.ch/de/medizinisches-zentrum/val-de-ruz/ebboj/volta-val-de-ruz,Rue Charles-L'Eplattenier 1,2206,Val-de-Ruz
Ärztezentrum Pratteln,"Schlossstrasse 3, 4133 Pratteln",Basel-Landschaft,https://www.onedoc.ch/de/medizinisches-zentrum/pratteln/erdj/arztezentrum-pratteln,Schlossstrasse 3,4133,Pratteln
Augenarztpraxis Therwil,"Bahnhofstrasse 21a, 4106 Therwil",Basel-Landschaft,https://www.onedoc.ch/de/medizinisches-zentrum/therwil/ey03/augenarztpraxis-therwil,Bahnhofstrasse 21a,4106,Therwil
Centramed Liestal,"Rathausstrasse 63 (1.OG), 4410 Liestal",Basel-Landschaft,https://www.onedoc.ch/de/medizinisches-zentrum/liestal/erdf/centramed-liestal,Rathausstrasse 63 (1.OG),4410,Liestal
Gemeinschaftspraxis am Kreisel,"Birseckstrasse 99, 4144 Arlesheim",Basel-Landschaft,https://www.onedoc.ch/de/medizinisches-zentrum/arlesheim/ena0/gemeinschaftspraxis-am-kreisel,Birseckstrasse 99,4144,Arlesheim
Gesundheitszentrum Allschwil,"Baslerstrasse 126, 4123 Allschwil",Basel-Landschaft,https://www.onedoc.ch/de/medizinisches-zentrum/allschwil/em7m/gesundheitszentrum-allschwil,Baslerstrasse 126,4123,Allschwil
Kindermedizinisches Zentrum,"Bahnhofplatz 11, 4410 Liestal",Basel-Landschaft,https://www.onedoc.ch/de/medizinisches-zentrum/liestal/ere8/kindermedizinisches-zentrum,Bahnhofplatz 11,4410,Liestal
Medbase Toujours Pratteln,"Güterstrasse 9, 4133 Pratteln",Basel-Landschaft,https://www.onedoc.ch/de/medizinisches-zentrum/pratteln/emak/medbase-toujours-pratteln,Güterstrasse 9,4133,Pratteln
Praxis Reinacherhof,"Im Reinacherhof 53, 4153 Reinach BL",Basel-Landschaft,https://www.onedoc.ch/de/medizinisches-zentrum/reinach/erb5/praxis-reinacherhof,Im Reinacherhof 53,4153,Reinach BL
Venenzentrum Baselland AG,"Barcelona-Strasse 15, 4142 Münchenstein",Basel-Landschaft,https://www.onedoc.ch/de/medizinisches-zentrum/munchenstein/e8y7/venenzentrum-baselland-ag,Barcelona-Strasse 15,4142,Münchenstein
Vista Augenzentrum Muttenz-St. Jakob-Str.,"Sankt Jakob-Strasse 43, 4132 Muttenz",Basel-Landschaft,https://www.onedoc.ch/de/medizinisches-zentrum/muttenz/erd0/vista-augenzentrum-muttenz-st-jakob-str,Sankt Jakob-Strasse 43,4132,Muttenz
Vista Augenzentrum Pratteln,"Bahnhofplatz 1, 4133 Pratteln",Basel-Landschaft,https://www.onedoc.ch/de/medizinisches-zentrum/pratteln/eng3/vista-augenzentrum-pratteln,Bahnhofplatz 1,4133,Pratteln
Ärztezentrum Einsiedeln,"Spitalstrasse 26a, 8840 Einsiedeln",Schwyz,https://www.onedoc.ch/de/medizinisches-zentrum/einsiedeln/euef/arztezentrum-einsiedeln,Spitalstrasse 26a,8840,Einsiedeln
Ärztezentrum Kelmatt,"Siegwartstrasse 9, 6403 Küssnacht",Schwyz,https://www.onedoc.ch/de/medizinisches-zentrum/kussnacht/et49/arztezentrum-kelmatt,Siegwartstrasse 9,6403,Küssnacht
Ärztezentrum Reichenburg,"Kantonsstrasse 60, 8864 Reichenburg",Schwyz,https://www.onedoc.ch/de/medizinisches-zentrum/reichenburg/euex/arztezentrum-reichenburg,Kantonsstrasse 60,8864,Reichenburg
Ärztezentrum Tuggen,"Gässlistrasse 17, 8856 Tuggen",Schwyz,https://www.onedoc.ch/de/medizinisches-zentrum/tuggen/euft/arztezentrum-tuggen,Gässlistrasse 17,8856,Tuggen
Augenzentrum Höfe,"Kantonsstrasse 102, 8807 Freienbach",Schwyz,https://www.onedoc.ch/de/medizinisches-zentrum/freienbach/euec/augenzentrum-hofe,Kantonsstrasse 102,8807,Freienbach
Augenzentrum ONO Einsiedeln,"Eisenbahnstrasse 5, 8840 Einsiedeln",Schwyz,https://www.onedoc.ch/de/medizinisches-zentrum/einsiedeln/e1qp/augenzentrum-ono-einsiedeln,Eisenbahnstrasse 5,8840,Einsiedeln
Augenzentrum ONO Lachen,"Mittlere Bahnhofstrasse 8, 8853 Lachen",Schwyz,https://www.onedoc.ch/de/medizinisches-zentrum/lachen/e1qq/augenzentrum-ono-lachen,Mittlere Bahnhofstrasse 8,8853,Lachen
Dermacenter Küssnacht (Ärzte),"Bahnhofstrasse 15, 6403 Küssnacht",Schwyz,https://www.onedoc.ch/de/medizinisches-zentrum/kussnacht/eljq/dermacenter-kussnacht-arzte,Bahnhofstrasse 15,6403,Küssnacht
Dermacosmetics Küssnacht (Kosmetik),"Bahnhofstrasse 15, 6403 Küssnacht",Schwyz,https://www.onedoc.ch/de/medizinisches-zentrum/kussnacht/ebabp/dermacosmetics-kussnacht-kosmetik,Bahnhofstrasse 15,6403,Küssnacht
Gesundheitszentrum Rigi AG,"Bodenstrasse 20, 6403 Küssnacht am Rigi",Schwyz,https://www.onedoc.ch/de/medizinisches-zentrum/kussnacht-am-rigi/ell8/gesundheitszentrum-rigi-ag,Bodenstrasse 20,6403,Küssnacht am Rigi
"Praxis 54, Hausärzte","Churerstrasse 54, 8808 Pfäffikon SZ",Schwyz,https://www.onedoc.ch/de/medizinisches-zentrum/pfaffikon/elnq/praxis-54-hausarzte,Churerstrasse 54,8808,Pfäffikon SZ
Praxis im Bahnhof,"Bahnhofplatz 1, 8840 Einsiedeln",Schwyz,https://www.onedoc.ch/de/medizinisches-zentrum/einsiedeln/elm1/praxis-im-bahnhof,Bahnhofplatz 1,8840,Einsiedeln
Ärztezentrum ZeniT,"Bleicheplatz 3, 8200 Schaffhausen",Schaffhausen,https://www.onedoc.ch/de/medizinisches-zentrum/schaffhausen/eucs/arztezentrum-zenit,Bleicheplatz 3,8200,Schaffhausen
Augenklinik ONO Schaffhausen,"Moserstrasse 48, 8200 Schaffhausen",Schaffhausen,https://www.onedoc.ch/de/medizinisches-zentrum/schaffhausen/ebasl/augenklinik-ono-schaffhausen,Moserstrasse 48,8200,Schaffhausen
Augenzentrum ONO Schaffhausen,"Schützengraben 24, 8200 Schaffhausen",Schaffhausen,https://www.onedoc.ch/de/medizinisches-zentrum/schaffhausen/e7zb/augenzentrum-ono-schaffhausen,Schützengraben 24,8200,Schaffhausen
Gesundheitszentrum Schaffhausen AG,"Mühlentalstrasse 38, 8200 Schaffhausen",Schaffhausen,https://www.onedoc.ch/de/medizinisches-zentrum/schaffhausen/elqz/gesundheitszentrum-schaffhausen-ag,Mühlentalstrasse 38,8200,Schaffhausen
Gesundheitszentrum Stein am Rhein,"Chlini Schanz 42, 8260 Stein am Rhein",Schaffhausen,https://www.onedoc.ch/de/medizinisches-zentrum/stein-am-rhein/eucd/gesundheitszentrum-stein-am-rhein,Chlini Schanz 42,8260,Stein am Rhein
Hausärztezentrum Neunkirch,"Bahnhofstrasse 5a, 8213 Neunkirch",Schaffhausen,https://www.onedoc.ch/de/medizinisches-zentrum/neunkirch/eub9/hausarztezentrum-neunkirch,Bahnhofstrasse 5a,8213,Neunkirch
ono estetika Clinic Schaffhausen,"Moserstrasse 48, 8200 Schaffhausen",Schaffhausen,https://www.onedoc.ch/de/medizinisches-zentrum/schaffhausen/ebbrx/ono-estetika-clinic-schaffhausen,Moserstrasse 48,8200,Schaffhausen
Praxis Posthof,"Poststrasse 9, 8212 Neuhausen am Rheinfall",Schaffhausen,https://www.onedoc.ch/de/medizinisches-zentrum/neuhausen-am-rheinfall/euck/praxis-posthof,Poststrasse 9,8212,Neuhausen am Rheinfall
Praxiszentrum am Rheinfall,"Industriestrasse 23, 8212 Neuhausen am Rheinfall",Schaffhausen,https://www.onedoc.ch/de/medizinisches-zentrum/neuhausen-am-rheinfall/ez37/praxiszentrum-am-rheinfall,Industriestrasse 23,8212,Neuhausen am Rheinfall
Spine,"Rietstrasse 30 , 8200 Schaffhausen",Schaffhausen,https://www.onedoc.ch/de/medizinisches-zentrum/schaffhausen/ez4h/spine,Rietstrasse 30,8200,Schaffhausen
Visuell Augenzentrum,"Bachstrasse 38, 8200 Schaffhausen",Schaffhausen,https://www.onedoc.ch/de/medizinisches-zentrum/schaffhausen/eucu/visuell-augenzentrum,Bachstrasse 38,8200,Schaffhausen
Augenarzt-Praxis Tittwiesen,"Tittwiesenstrasse 27, 7000 Chur",Graubünden,https://www.onedoc.ch/de/medizinisches-zentrum/chur/e9oe/augenarzt-praxis-tittwiesen,Tittwiesenstrasse 27,7000,Chur
Heilbad St. Moritz,"Plazza Paracelsus 2, 7500 Sankt Moritz",Graubünden,https://www.onedoc.ch/de/medizinisches-zentrum/sankt-moritz/etsj/heilbad-st-moritz,Plazza Paracelsus 2,7500,Sankt Moritz
Medical Center Maienfeld (MCM) AG,"Bahnhofstrasse 18, 7304 Maienfeld",Graubünden,https://www.onedoc.ch/de/medizinisches-zentrum/maienfeld/em1t/medical-center-maienfeld-mcm-ag,Bahnhofstrasse 18,7304,Maienfeld
Medi Porta,"Gürtelstrasse 46, 7000 Chur",Graubünden,https://www.onedoc.ch/de/medizinisches-zentrum/chur/ezte/medi-porta,Gürtelstrasse 46,7000,Chur
Medizinisches Center Bonaduz,"Via Ginellas 18, 7402 Bonaduz",Graubünden,https://www.onedoc.ch/de/medizinisches-zentrum/bonaduz/e8xd/medizinisches-center-bonaduz,Via Ginellas 18,7402,Bonaduz
Medizinisches Center Karlihof,"Karlihofstrasse 14a, 7208 Malans",Graubünden,https://www.onedoc.ch/de/medizinisches-zentrum/malans/etrj/medizinisches-center-karlihof,Karlihofstrasse 14a,7208,Malans
Medizinisches Zentrum Arosa,"Poststrasse 18, 7050 Arosa",Graubünden,https://www.onedoc.ch/de/medizinisches-zentrum/arosa/etqi/medizinisches-zentrum-arosa,Poststrasse 18,7050,Arosa
Medizinisches Zentrum gleis d,"Gürtelstrasse 46, 7000 Chur",Graubünden,https://www.onedoc.ch/de/medizinisches-zentrum/chur/etpu/medizinisches-zentrum-gleis-d,Gürtelstrasse 46,7000,Chur
Praxis Dr. Niedermaier & Dr. Thieke,"Promenade 60, 7270 Davos Platz",Graubünden,https://www.onedoc.ch/de/medizinisches-zentrum/davos-platz/ezsn/praxis-dr-niedermaier-dr-thieke,Promenade 60,7270,Davos Platz
Studio Medico Dr. Elavumkudy / Dr. Rigotti / Dr. Toenz / Dr. med Brem Al-Muaid / Dr. med Carobbio Guscetti / Dr. med Peduzzi,"San Fedele, 6535 Roveredo",Graubünden,https://www.onedoc.ch/de/medizinisches-zentrum/roveredo/etp0/studio-medico-dr-elavumkudy-dr-rigotti-dr-toenz-dr-med-brem-al-muaid-dr-med-carobbio-guscetti-dr-med-peduzzi,San Fedele,6535,Roveredo
Aeskulap Praxis - Integrative Medizin,"Baarerstrasse 88, 6300 Zug",Zug,https://www.onedoc.ch/de/medizinisches-zentrum/zug/eugk/aeskulap-praxis-integrative-medizin,Baarerstrasse 88,6300,Zug
Ärztezentrum Menzingen,"Holzhäusernstrasse 8, 6313 Menzingen",Zug,https://www.onedoc.ch/de/medizinisches-zentrum/menzingen/ex7h/arztezentrum-menzingen,Holzhäusernstrasse 8,6313,Menzingen
Arzthaus Zug Bahnhofplatz,"Alpenstrasse 15, 6300 Zug",Zug,https://www.onedoc.ch/de/medizinisches-zentrum/zug/ebalh/arzthaus-zug-bahnhofplatz,Alpenstrasse 15,6300,Zug
Arzthaus Zug Gleis 1,"Gubelstrasse 17, 6300 Zug",Zug,https://www.onedoc.ch/de/medizinisches-zentrum/zug/eufw/arzthaus-zug-gleis-1,Gubelstrasse 17,6300,Zug
Augenzentrum Zug,"Bahnhofstrasse 14, 6340 Baar",Zug,https://www.onedoc.ch/de/medizinisches-zentrum/baar/ex5g/augenzentrum-zug,Bahnhofstrasse 14,6340,Baar
gyn-zentrum an der Lorze,"Dorfplatz 1, 6330 Cham",Zug,https://www.onedoc.ch/de/medizinisches-zentrum/cham/et0m/gyn-zentrum-an-der-lorze,Dorfplatz 1,6330,Cham
Medbase Zug,"Baarerstrasse 53, 6300 Zug",Zug,https://www.onedoc.ch/de/medizinisches-zentrum/zug/en0v/medbase-zug,Baarerstrasse 53,6300,Zug
Paramed,"Haldenstrasse 1, 6340 Baar",Zug,https://www.onedoc.ch/de/medizinisches-zentrum/baar/ex44/paramed,Haldenstrasse 1,6340,Baar
Praxis für Gynäkologie und Kinderwunsch Cham - Dr. med. Bleichenbacher Markus,"Dorfplatz 1, 6330 Cham",Zug,https://www.onedoc.ch/de/medizinisches-zentrum/cham/e137/praxis-fur-gynakologie-und-kinderwunsch-cham-dr-med-bleichenbacher-markus,Dorfplatz 1,6330,Cham
Gesundheitszentrum Herisau,"Alte Bahnhofstrasse 1, 9100 Herisau",Appenzell Ausserrhoden,https://www.onedoc.ch/de/medizinisches-zentrum/herisau/erbj/gesundheitszentrum-herisau,Alte Bahnhofstrasse 1,9100,Herisau
Medbase Stein,"Dorf 870, 9063 Stein AR",Appenzell Ausserrhoden,https://www.onedoc.ch/de/medizinisches-zentrum/stein/eq87/medbase-stein,Dorf 870,9063,Stein AR
Medbase Teufen,"Speicherstrasse 8, 9053 Teufen",Appenzell Ausserrhoden,https://www.onedoc.ch/de/medizinisches-zentrum/teufen/elif/medbase-teufen,Speicherstrasse 8,9053,Teufen
Praxis Rosenau,"Birkenstrasse 3, 9100 Herisau",Appenzell Ausserrhoden,https://www.onedoc.ch/de/medizinisches-zentrum/herisau/eq70/praxis-rosenau,Birkenstrasse 3,9100,Herisau
Ärztezentrum Buochs,"Beckenriederstrasse 9, 6374 Buochs",Nidwalden,https://www.onedoc.ch/de/medizinisches-zentrum/buochs/euaz/arztezentrum-buochs,Beckenriederstrasse 9,6374,Buochs
CuraMed Ärztezentrum AG,"Seestrasse 49, 6052 Hergiswil",Nidwalden,https://www.onedoc.ch/de/medizinisches-zentrum/hergiswil/eua5/curamed-arztezentrum-ag,Seestrasse 49,6052,Hergiswil
Centre médical Morépont,"Rue du 24 Septembre 7, 2800 Delsberg",Jura,https://www.onedoc.ch/de/medizinisches-zentrum/delsberg/ebd7/centre-medical-morepont,Rue du 24 Septembre 7,2800,Delsberg
Groupe Médical Ziggurat,"Rue du Jura 11, 2900 Pruntrut",Jura,https://www.onedoc.ch/de/medizinisches-zentrum/pruntrut/etvi/groupe-medical-ziggurat,Rue du Jura 11,2900,Pruntrut
Medizinisches Zentrum Appenzell,"Sandgrube 27, 9050 Appenzell",Appenzell Innerrhoden,https://www.onedoc.ch/de/medizinisches-zentrum/appenzell/erbm/medizinisches-zentrum-appenzell,Sandgrube 27,9050,Appenzell
Ärzte Netstal,"Tschuoppisstrasse 39, 8754 Netstal",Glarus,https://www.onedoc.ch/de/medizinisches-zentrum/netstal/etoj/arzte-netstal,Tschuoppisstrasse 39,8754,Netstal
Praxis Dr. med. Beall Sophie,"Dorfstrasse 65, 6377 Seelisberg",Uri,https://www.onedoc.ch/de/medizinisches-zentrum/seelisberg/evh8/praxis-dr-med-beall-sophie,Dorfstrasse 65,6377,Seelisberg
